X,Y,OBJECTID,Category,Subcategory,Defined_Category,Name,Organizer,Website,Address,City,Province,Country,PostalCode,CreationDate,Creator,EditDate,Editor,GlobalID
-78.867814000371794,43.910427000005683,1,CULTURAL ENTERPRISES,ADVERTISING,ADVERTISING AGENCIES,Citrusmedia,,http://citrusmedia.com/,477 MASSON ST,OSHAWA,ONTARIO,CANADA,L1G5A1,2017-05-18T17:22:22.439Z,City.of.Oshawa,2017-05-18T17:22:22.439Z,City.of.Oshawa,b6374681-1781-4f90-8ad3-ec89d9d06cbe
-78.839870351261737,43.933569641623272,2,CULTURAL ENTERPRISES,ADVERTISING,ADVERTISING AGENCIES,Sandy Cook Marketing And Design,,sandycookdesign.com,1028 Highbrooke Ct,Oshawa,Ontario,Canada,L1K 2K6,2017-05-18T17:22:22.439Z,City.of.Oshawa,2017-11-07T18:39:29.569Z,mmandel_oshawa,803ef12f-25fb-486a-aa8e-9b954bccb87b
-78.907761000383303,43.985190000100388,3,CULTURAL ENTERPRISES,Antiques,Antique Dealers,Colborne Antiques,,,RR 1 Stn A,Oshawa,Ontario,Canada,L1H7K4,2017-05-18T17:22:22.439Z,City.of.Oshawa,2017-10-31T18:32:35.170Z,mmandel_oshawa,ba894521-346a-4ba4-b642-83c451a6c978
-78.858064999614896,43.885653999858654,4,CULTURAL ENTERPRISES,ANTIQUES,ANTIQUE DEALERS,Elaine's Antiques & Used Furniture,,,451 SIMCOE ST S,OSHAWA,ONTARIO,CANADA,L1H4J7,2017-05-18T17:22:22.439Z,City.of.Oshawa,2017-05-18T17:22:22.439Z,City.of.Oshawa,dafe90f0-1682-412c-8e12-1ea4a959d0bc
-78.838910999854349,43.942801000039893,5,CULTURAL ENTERPRISES,ARCHITECTURE,ARCHITECTURAL SERVICES,Hanoudi Benan,,http://www.mycustombuilding.com/,1442 Bridgeport St,Oshawa,Ontario,Canada,L1K 2P5,2017-05-18T17:22:22.439Z,City.of.Oshawa,2017-11-07T19:25:56.087Z,mmandel_oshawa,d8d26c91-518b-491f-9299-7c776e4cd9f8
-78.863624000070175,43.892661999903403,6,CULTURAL ENTERPRISES,ARCHITECTURE,ARCHITECTURAL SERVICES,Lennis Trotter Architect,,http://www.lennistrotterarchitect.ca/,168 CENTRE ST S,OSHAWA,ONTARIO,CANADA,L1H 4A6,2017-05-18T17:22:22.439Z,City.of.Oshawa,2017-05-18T17:22:22.439Z,City.of.Oshawa,fec47fbc-610d-4c6e-8e08-1d022a723713
-78.89930499961207,43.898094999835088,7,CULTURAL ENTERPRISES,ARCHITECTURE,ARCHITECTURAL SERVICES,Marc J Riva Architect,,riva.ca,303 Elite Crt,Oshawa,Ontario,Canada,L1J 7V3,2017-05-18T17:22:22.439Z,City.of.Oshawa,2017-11-14T14:49:58.979Z,mmandel_oshawa,c528b463-fba4-4b76-ab5c-7def2a282e70
-78.866044000360134,43.903300000063332,8,CULTURAL ENTERPRISES,ARCHITECTURE,ARCHITECTURAL SERVICES,Mills & Assoc Ltd,,http://mills-architect.com/,215 SIMCOE ST N,OSHAWA,ONTARIO,CANADA,L1G4T1,2017-05-18T17:22:22.439Z,City.of.Oshawa,2017-05-18T17:22:22.439Z,City.of.Oshawa,527f275d-ef83-4ba6-9475-16aa304be197
-78.874157000101391,43.921950999714305,9,CULTURAL ENTERPRISES,ART DEALERS,COMMERCIAL GALLERIES,Kay's Place,,http://kaysplaceartandgifts.com/,922 Simcoe St N,Oshawa,Ontario,Canada,L1G 4W2,2017-05-18T17:22:22.439Z,City.of.Oshawa,2017-11-07T20:35:53.557Z,mmandel_oshawa,f5d5b977-5547-47cb-ac3b-64400601fe5d
-78.86174799975332,43.895817000012364,11,CULTURAL ENTERPRISES,ART DEALERS,COMMERCIAL GALLERIES,Wasted Space,,,74 CELINA ST,OSHAWA,ONTARIO,CANADA,L1H4N2,2017-05-18T17:22:22.439Z,City.of.Oshawa,2017-05-18T17:22:22.439Z,City.of.Oshawa,a559ce1e-de0c-43a8-9c3e-415e114fb287
-78.865821999703982,43.89506399989358,12,CULTURAL ENTERPRISES,ART GALLERIES,PUBLIC ART GALLERIES,Robert McLaughlin Gallery,,http://www.rmg.on.ca/,72 QUEEN ST,OSHAWA,ONTARIO,CANADA,L1H3Z3,2017-05-18T17:22:22.439Z,City.of.Oshawa,2017-05-18T17:22:22.439Z,City.of.Oshawa,99b02abd-7305-46c7-a584-76e93306718a
-78.819757999918679,43.90833300027704,13,CULTURAL ENTERPRISES,BOOK STORES,BOOK STORES AND NEWS DEALERS,ABC Christian Book Centre,,,95 CLARENCE BIESENTHAL DR,OSHAWA,ONTARIO,CANADA,L1K2H5,2017-05-18T17:22:22.439Z,City.of.Oshawa,2017-05-18T17:22:22.439Z,City.of.Oshawa,ddff0d4e-72c9-4294-93d1-4ff26151a595
-78.879851000275863,43.893810999776534,15,CULTURAL ENTERPRISES,BOOK STORES,BOOK STORES AND NEWS DEALERS,Chapters,,http://www.chapters.indigo.ca/home/,419 KING ST W,OSHAWA,ONTARIO,CANADA,L1J2K5,2017-05-18T17:22:22.439Z,City.of.Oshawa,2017-05-18T17:22:22.439Z,City.of.Oshawa,d1e97183-9f0e-4a3d-9e06-a3f4c172f542
-78.866878999688097,43.899189000108088,16,CULTURAL ENTERPRISES,BOOK STORES,BOOK STORES AND NEWS DEALERS,Cherubs Cupboard,,,82 CENTRE ST N,OSHAWA,ONTARIO,CANADA,L1G4B6,2017-05-18T17:22:22.439Z,City.of.Oshawa,2017-05-18T17:22:22.439Z,City.of.Oshawa,159f5759-d850-4921-a9a4-e94f22caeb67
-78.876655070249484,43.92700374026456,17,CULTURAL ENTERPRISES,BOOK STORES,BOOK STORES AND NEWS DEALERS,Gnu Books,,http://www.gnubooks.net/,1120 Simcoe St N,Oshawa,Ontario,Canada,L1G 4W6,2017-05-18T17:22:22.439Z,City.of.Oshawa,2017-11-07T20:55:08.888Z,mmandel_oshawa,6683f8b0-982c-46c8-9e22-236b5300c1c7
-78.847759000262727,43.886765999886848,18,CULTURAL ENTERPRISES,BOOK STORES,BOOK STORES AND NEWS DEALERS,Half Price Books,,,501 RITSON RD S,OSHAWA,ONTARIO,CANADA,L1H5K3,2017-05-18T17:22:22.439Z,City.of.Oshawa,2017-05-18T17:22:22.439Z,City.of.Oshawa,a74e3ad6-6b10-4645-9433-d8cb7168010f
-78.86409699989818,43.897424000043891,19,CULTURAL ENTERPRISES,BOOK STORES,BOOK STORES AND NEWS DEALERS,Paraphernalia Books 'N' Stuff,,www.parabooks.ca,13 KING ST W,OSHAWA,ONTARIO,CANADA,L1H1A1,2017-05-18T17:22:22.439Z,City.of.Oshawa,2017-05-18T17:22:22.439Z,City.of.Oshawa,de261a62-e201-4c0b-b504-e5936f54054d
-78.862324000411803,43.900769000032149,20,CULTURAL ENTERPRISES,BOOK STORES,BOOK STORES AND NEWS DEALERS,Skyfox Games,,http://www.skyfoxgames.com/,86 WILLIAM ST E,OSHAWA,ONTARIO,CANADA,L1G1K6,2017-05-18T17:22:22.439Z,City.of.Oshawa,2017-05-18T17:22:22.439Z,City.of.Oshawa,67f2e610-932e-4931-8263-65ab35e5fc04
-78.864708999643383,43.899741000102921,21,CULTURAL ENTERPRISES,BOOK STORES,BOOK STORES AND NEWS DEALERS,Worlds Collide,,http://www.worldscollide.ca/,80 SIMCOE ST N,OSHAWA,ONTARIO,CANADA,L1G4S2,2017-05-18T17:22:22.439Z,City.of.Oshawa,2017-05-18T17:22:22.439Z,City.of.Oshawa,b5ac7c2b-f295-4f29-8bb0-a3821cce4ebc
-78.833312999939324,43.878249000154739,22,CULTURAL ENTERPRISES,BREWERIES AND WINERIES,BREWERIES,BYOB-Spring Water Brewing,,http://byobwineandbeer.com/,875 WILSON RD S,OSHAWA,ONTARIO,CANADA,L1H8B1,2017-05-18T17:22:22.439Z,City.of.Oshawa,2017-05-18T17:22:22.439Z,City.of.Oshawa,01b29c90-64a4-40fa-8985-d87f2ea10685
-78.873538999610091,43.914626000213126,23,CULTURAL ENTERPRISES,BREWERIES AND WINERIES,WINERIES,Vintner's Cellar Oshawa,,http://www.vintnerscellar.ca/home,58 Rossland Rd W Unit# 111,Oshawa,Ontario,Canada,L1G 2V5,2017-05-18T17:22:22.439Z,City.of.Oshawa,2017-11-07T20:49:32.817Z,mmandel_oshawa,b85cb029-0222-41df-9fdc-cf0d10d302fd
-78.895930000343554,43.926101999922082,24,CULTURAL ENTERPRISES,BROADCASTING,LOCAL RADIO STATIONS,KX96 New Country FM,,http://www.kx96.fm/,1200 Airport Blvd,Oshawa,Ontario,Canada,L1J 8P5,2017-05-18T17:22:22.439Z,City.of.Oshawa,2017-11-07T19:33:41.450Z,mmandel_oshawa,ae558203-8959-4bd4-8d84-a5d35ff88f7f
-78.895930000343554,43.926101999922082,25,CULTURAL ENTERPRISES,BROADCASTING,LOCAL RADIO STATIONS,CKDO 1580 AM-107.7 FM,,http://www.ckdo.ca/,1200 Airport Blvd,Oshawa,Ontario,Canada,L1J 8P5,2017-05-18T17:22:22.439Z,City.of.Oshawa,2017-11-07T20:00:20.949Z,mmandel_oshawa,65627700-3abd-44c0-ba23-f6be8e4542ce
-78.863826999561454,43.897821999906306,26,CULTURAL ENTERPRISES,BROADCASTING,LOCAL TELEVISION STATIONS,CHEX Television,,http://www.chextv.com/,10 SIMCOE ST N,OSHAWA,ONTARIO,CANADA,L1G4R8,2017-05-18T17:22:22.439Z,City.of.Oshawa,2017-05-18T17:22:22.439Z,City.of.Oshawa,cc814778-5e21-4a2b-a22e-77a9b604dd80
-78.833141000410194,43.877542000299435,27,CULTURAL ENTERPRISES,BROADCASTING,LOCAL TELEVISION STATIONS,Rogers Television,,http://www.rogerstv.com/page.aspx?lid=14&rid=2,301 MARWOOD DR,OSHAWA,ONTARIO,CANADA,L1H1J4,2017-05-18T17:22:22.439Z,City.of.Oshawa,2017-05-18T17:22:22.439Z,City.of.Oshawa,dedca596-e280-4616-bae4-607d9e733351
-78.8497879162082,43.944114388783852,28,CULTURAL ENTERPRISES,CRAFTS ,CRAFTS SUPPLIERS,Michaels,,https://www.michaels.com,1461 Harmony Rd,Oshawa,Ontario,Canada,L1G 3T9,2017-05-18T17:22:22.439Z,City.of.Oshawa,2017-11-07T19:07:30.630Z,mmandel_oshawa,d5c2a0d5-0b0d-4b6c-ba69-ba97a1385c48
-78.877338999924376,43.856051000056503,29,CULTURAL ENTERPRISES,DANCE,DANCE MATERIAL AND EQUIPMENT SUPPLIERS,Dance With Me Corporation,,http://www.dancewithmecorp.ca/,1280 TERWILLEGAR AVE,OSHAWA,ONTARIO,CANADA,L1J7A5,2017-05-18T17:22:22.439Z,City.of.Oshawa,2017-05-18T17:22:22.439Z,City.of.Oshawa,d157f4c7-e071-4164-878f-713c06a28469
-78.871715000070097,43.87688499977952,30,CULTURAL ENTERPRISES,DANCE,DANCE STUDIOS AND INSTRUCTION,"
Extensions Dance Company",,EXTENSIONSDANCECOMPANY.COM‎,423 BLOOR ST W,OSHAWA,ONTARIO,CANADA,L1J5Y5,2017-05-18T17:22:22.439Z,City.of.Oshawa,2017-05-18T17:22:22.439Z,City.of.Oshawa,1dd13f9f-7e57-437a-aba3-6584524c01cc
-78.879708000160733,43.930349000315609,31,CULTURAL ENTERPRISES,DANCE,DANCE STUDIOS AND INSTRUCTION,"
Hoofers Performing Arts",,http://www.hoofersperformingarts.com/,66 Russett Ave,Oshawa,Ontario,Canada,L1G 3R5,2017-05-18T17:22:22.439Z,City.of.Oshawa,2017-11-07T20:25:03.127Z,mmandel_oshawa,c1c1df3e-30d5-4c2a-9314-83e512184ced
-78.847256000297477,43.882406999990302,32,CULTURAL ENTERPRISES,DANCE,DANCE STUDIOS AND INSTRUCTION,Freedom Of Dance,,HTTP://WWW.FREEDOMOFDANCE.CA/LOCATION.HTML,236 BLOOR ST E,OSHAWA,ONTARIO,CANADA,L1H3M6,2017-05-18T17:22:22.439Z,City.of.Oshawa,2017-05-18T17:22:22.439Z,City.of.Oshawa,ebcc778a-ae28-4ba2-8210-9e804a2c424f
-78.88483999992043,43.931547999982413,33,CULTURAL ENTERPRISES,DANCE,DANCE STUDIOS AND INSTRUCTION,Katie's Dance Connection,,katiesdanceconnection.com,133 Taunton Rd W,Oshawa,Ontario,Canada,L1G 3T4,2017-05-18T17:22:22.439Z,City.of.Oshawa,2017-11-07T20:06:10.731Z,mmandel_oshawa,2b6228d3-58ec-4bed-8866-b321cf2c05bd
-78.834186999625345,43.904780000068392,34,CULTURAL ENTERPRISES,DANCE,DANCE STUDIOS AND INSTRUCTION,Rhythm Dynamix Dance,,RHYTHMDYNAMIXDANCE.COM‎,15 HARMONY RD N,OSHAWA,ONTARIO,CANADA,L1G6K8,2017-05-18T17:22:22.439Z,City.of.Oshawa,2017-05-18T17:22:22.439Z,City.of.Oshawa,cda1b51d-96bc-4695-b980-70d83ca8cb6d
-78.877185385833783,43.895110094793843,35,CULTURAL ENTERPRISES,DANCE,DANCE STUDIO'S & INSTRUCTION,The Bisland Dance Center,,reallydance.com,360 King St W,Oshawa,Ontario,Canada,L1J 2J9,2017-05-18T17:22:22.439Z,City.of.Oshawa,2017-11-07T19:58:45.453Z,mmandel_oshawa,cb11732a-5c2c-4cfe-b3ab-968a83ca466e
-78.848506999552043,43.902875999865884,36,CULTURAL ENTERPRISES,DANCE,DANCE STUDIOS AND INSTRUCTION,Theatre Dance Academy,,HTTP://THEATREDANCEACADEMY.COM/,435 BOND ST E,OSHAWA,ONTARIO,CANADA,L1G1B9,2017-05-18T17:22:22.439Z,City.of.Oshawa,2017-05-18T17:22:22.439Z,City.of.Oshawa,0f41a16d-7550-49b9-b337-51ec59aac354
-78.833347000274529,43.878319000100703,37,CULTURAL ENTERPRISES,DANCE,DANCE STUDIOS AND INSTRUCTION,Step With Style,,http://www.stepwithstyle.ca/,871 WILSON RD S,OSHAWA,ONTARIO,CANADA,L1H8B1,2017-05-18T17:22:22.439Z,City.of.Oshawa,2017-05-18T17:22:22.439Z,City.of.Oshawa,01ba5acd-5e03-4064-a04c-b098ad9b5b0a
-78.889636999944358,43.938592000024251,38,CULTURAL ENTERPRISES,DESIGN,GRAPHIC DESIGN SERVICES,e-zone Design,,,1668 Erindale Ct,Oshawa,Ontario,Canada,L1G 8A4,2017-05-18T17:22:22.439Z,City.of.Oshawa,2017-11-07T18:24:25.617Z,mmandel_oshawa,fc4b89ab-f430-4a74-80b1-2a26d72cb55b
-78.885487999650621,43.861437000308854,39,CULTURAL ENTERPRISES,DESIGN,GRAPHIC DESIGN SERVICES,IDP Group,,http://www.oshawaonprintingshop.ca/,1097 BOUNDARY RD,OSHAWA,ONTARIO,CANADA,L1J8P8,2017-05-18T17:22:22.439Z,City.of.Oshawa,2017-05-18T17:22:22.439Z,City.of.Oshawa,13d56d4b-8396-4b87-9ab8-3caa15b41f6c
-78.821074000368895,43.905870999975257,40,CULTURAL ENTERPRISES,DESIGN,GRAPHIC DESIGN SERVICES,Maracle Press,,http://www.maraclepress.com/,1156 KING ST E,OSHAWA,ONTARIO,CANADA,L1H1H8,2017-05-18T17:22:22.439Z,City.of.Oshawa,2017-05-18T17:22:22.439Z,City.of.Oshawa,9c9c2d55-ddc8-4e4c-8cc3-6726960249d3
-78.863613000199507,43.892981999714898,42,CULTURAL ENTERPRISES,DESIGN,GRAPHIC DESIGN SERVICES,Reid Studios Ltd,,http://reidstudioslimited.com/,157 CENTRE ST S,OSHAWA,ONTARIO,CANADA,L1H4A5,2017-05-18T17:22:22.439Z,City.of.Oshawa,2017-05-18T17:22:22.439Z,City.of.Oshawa,89bffc4c-bb11-4b0e-abce-8ee8246b916f
-78.832216999597151,43.878213000058011,43,CULTURAL ENTERPRISES,DESIGN,GRAPHIC DESIGN SERVICES,Trim Line Autographics,,http://3mtrim.com/,500 WENTWORTH ST E,OSHAWA,ONTARIO,CANADA,L1H3V9,2017-05-18T17:22:22.439Z,City.of.Oshawa,2017-05-18T17:22:22.439Z,City.of.Oshawa,f27359e4-83fb-4f07-bcda-a0ad3741d625
-78.873217000293153,43.896692999933919,44,CULTURAL ENTERPRISES,DESIGN,GRAPHIC DESIGN SERVICES,Aftershock Creative,,aftershockcreative.com,42 Warren Avenue,Oshawa,Ontario,Canada,L1J 4G2,2017-05-18T17:22:22.439Z,City.of.Oshawa,2017-11-28T18:00:54.766Z,mmandel_oshawa,b86b0766-cd8a-4de2-8242-5234177373e3
-78.866201999645583,43.882055999790623,45,CULTURAL ENTERPRISES,DESIGN,GRAPHIC DESIGN SERVICES,Wescott Graphics,,,526 LORRAINE ST,OSHAWA,ONTARIO,CANADA,L1J4C8,2017-05-18T17:22:22.439Z,City.of.Oshawa,2017-05-18T17:22:22.439Z,City.of.Oshawa,e0684326-eb4a-4788-985e-cb9f8a5e8990
-78.866892000106887,43.908083000039397,46,CULTURAL ENTERPRISES,DESIGN,INTERIOR DESIGN SERVICES,Arlene's Creative Interiors,,,388 MASSON ST,OSHAWA,ONTARIO,CANADA,L1G4Z8,2017-05-18T17:22:22.439Z,City.of.Oshawa,2017-05-18T17:22:22.439Z,City.of.Oshawa,28fb8b11-3d0f-4274-af79-bc7e9a2fa6a6
-78.878237999724732,43.931363999894252,47,CULTURAL ENTERPRISES,DESIGN,INTERIOR DESIGN SERVICES,Arts Plus Drafting & Design,,,1279 Simcoe St N,Oshawa,Ontario,Canada,L1G 4X1,2017-05-18T17:22:22.439Z,City.of.Oshawa,2017-11-07T20:26:42.853Z,mmandel_oshawa,639ac92d-fdc7-4714-a4b3-54776061102f
-78.871521999726241,43.866319000180923,48,CULTURAL ENTERPRISES,DESIGN,INTERIOR DESIGN SERVICES,BASF,,,880 STEVENSON RD S,OSHAWA,ONTARIO,CANADA,L1J7C8,2017-05-18T17:22:22.439Z,City.of.Oshawa,2017-05-18T17:22:22.439Z,City.of.Oshawa,07d94d0d-dda0-441b-baf7-83d0e7335d89
-78.884264999985163,43.923524000275712,49,CULTURAL ENTERPRISES,DESIGN,INTERIOR DESIGN SERVICES,CMH Interiors,,http://www.cmhinteriors.com/,274 Sherwood Court,Oshawa,Ontario,Canada,L1G 6R8,2017-05-18T17:22:22.439Z,City.of.Oshawa,2017-11-07T20:08:06.142Z,mmandel_oshawa,9af46fe4-898f-4c46-877a-8dcd77be5573
-78.835422999709607,43.882890000171535,50,CULTURAL ENTERPRISES,DESIGN,INTERIOR DESIGN SERVICES,House Of Quality Design & Décor,,HOUSEOFQUALITY.CA,712 WILSON RD S,OSHAWA,ONTARIO,CANADA,L1H6E9‎,2017-05-18T17:22:22.439Z,City.of.Oshawa,2017-05-18T17:22:22.439Z,City.of.Oshawa,441b7dbc-cb1c-4a36-8a70-c6c73cca5fa0
-78.835671000305027,43.896198999721221,51,CULTURAL ENTERPRISES,DESIGN,INTERIOR DESIGN SERVICES,Pier Design,,,265 FAREWELL ST,OSHAWA,ONTARIO,CANADA,L1H6L8,2017-05-18T17:22:22.439Z,City.of.Oshawa,2017-05-18T17:22:22.439Z,City.of.Oshawa,d4f8d418-06f8-48b6-8a20-b857aa49930c
-78.868345999751028,43.900298999786152,52,CULTURAL ENTERPRISES,DESIGN,INTERIOR DESIGN SERVICES,Power Of Place,,,120 COLBORNE ST W,OSHAWA,ONTARIO,CANADA,L1G7Y8,2017-05-18T17:22:22.439Z,City.of.Oshawa,2017-05-18T17:22:22.439Z,City.of.Oshawa,34abb171-802a-4edf-879a-e38857529d17
-78.871997000102397,43.916973999748762,53,CULTURAL ENTERPRISES,DESIGN,INTERIOR DESIGN SERVICES,Strictly Interiors,,,726 Simcoe St N,Oshawa,Ontario,Canada,L1G 4V8,2017-05-18T17:22:22.439Z,City.of.Oshawa,2017-11-07T20:48:06.067Z,mmandel_oshawa,b4f1bf6f-7585-4947-a409-eb881e3ba529
-78.862384999612857,43.897872999810275,54,CULTURAL ENTERPRISES,DESIGN,DESIGNER,The Labour District,,http://thelabourdistrict.com/,"29 King st E, Oshawa",OSHAWA,ONTARIO,CANADA,,2017-05-18T17:22:22.439Z,City.of.Oshawa,2017-05-18T17:22:22.439Z,City.of.Oshawa,b968961d-d0c5-40b5-b57f-132e6be3deb7
-78.820377000234885,43.898068000182455,55,CULTURAL ENTERPRISES,DIGITAL AND INTERACTIVE MEDIA,WEB DESIGN AND PRODUCTION SERVICES,"
Searchify Search Engine Services",,SEARCHIFY.CA‎,297 GRANDVIEW ST S,OSHAWA,ONTARIO,CANADA,L1H7C6,2017-05-18T17:22:22.439Z,City.of.Oshawa,2017-05-18T17:22:22.439Z,City.of.Oshawa,378e89ca-0b6a-406b-8223-198585c00709
-78.851686999725203,43.881277999795856,56,CULTURAL ENTERPRISES,DIGITAL AND INTERACTIVE MEDIA,WEB DESIGN AND PRODUCTION SERVICES,Allaboutwebservices.Com Inc,,,113 BLOOR ST E,OSHAWA,ONTARIO,CANADA,L1H3M3,2017-05-18T17:22:22.439Z,City.of.Oshawa,2017-05-18T17:22:22.439Z,City.of.Oshawa,9713840b-acf8-45ed-91f7-824875953bbb
-78.830941000228236,43.885461999862258,57,CULTURAL ENTERPRISES,DIGITAL AND INTERACTIVE MEDIA,WEB DESIGN AND PRODUCTION SERVICES,Custom System Solutions,,,610 FAREWELL ST,OSHAWA,ONTARIO,CANADA,L1H6N1,2017-05-18T17:22:22.439Z,City.of.Oshawa,2017-05-18T17:22:22.439Z,City.of.Oshawa,1edcd90a-674b-40ae-b169-914964bf49bf
-78.873870999871116,43.921667999733522,58,CULTURAL ENTERPRISES,DIGITAL AND INTERACTIVE MEDIA,WEB DESIGN AND PRODUCTION SERVICES,Deer Creek Enterprise Limited,,DEER-CREEK.CA,909 Simcoe St N,Oshawa,Ontario,Canada,L1G 4W1‎,2017-05-18T17:22:22.439Z,City.of.Oshawa,2017-11-07T20:39:53.198Z,mmandel_oshawa,df6a140d-b5ce-41a0-a5e8-a6cd9147e172
-78.859853000068199,43.913750999940106,59,CULTURAL ENTERPRISES,DIGITAL AND INTERACTIVE MEDIA,WEB DESIGN AND PRODUCTION SERVICES,Parr's Publishing,,HTTP://WWW.EPARRS.COM/,525 RITSON RD N,OSHAWA,ONTARIO,CANADA,L1G5R4,2017-05-18T17:22:22.439Z,City.of.Oshawa,2017-05-18T17:22:22.439Z,City.of.Oshawa,c8596dde-6b0a-4ac2-af59-a5246ac97ef2
-78.859896999550827,43.910617000021986,60,CULTURAL ENTERPRISES,DIGITAL AND INTERACTIVE MEDIA,WEB DESIGN AND PRODUCTION SERVICES,Poor Man's Software & Web Design,,,222 PEARSON ST,OSHAWA,ONTARIO,CANADA,L1G7C6,2017-05-18T17:22:22.439Z,City.of.Oshawa,2017-05-18T17:22:22.439Z,City.of.Oshawa,57e2530a-f938-4a4d-98bb-26abc33f6bff
-78.857456000242777,43.861133999750322,61,CULTURAL ENTERPRISES,DIGITAL AND INTERACTIVE MEDIA,WEB DESIGN AND PRODUCTION SERVICES,Shockcircuit Web Design,,,1304 LAKEFIELD CT,OSHAWA,ONTARIO,CANADA,L1J3Y6,2017-05-18T17:22:22.439Z,City.of.Oshawa,2017-05-18T17:22:22.439Z,City.of.Oshawa,e90472ca-4274-40fc-bb18-f80f1e4763be
-78.855907999988958,43.885578999943824,62,CULTURAL ENTERPRISES,DIGITAL AND INTERACTIVE MEDIA,WEB DESIGN AND PRODUCTION SERVICES,Warford Designs,,http://warford-designs.com/,477 ALBERT ST,OSHAWA,ONTARIO,CANADA,L1H4S6,2017-05-18T17:22:22.439Z,City.of.Oshawa,2017-05-18T17:22:22.439Z,City.of.Oshawa,a51bff52-fb78-42cd-a3e4-3db1910df24b
-78.86211099997648,43.899934000079178,63,CULTURAL ENTERPRISES,DIGITAL AND INTERACTIVE MEDIA,WEB DESIGN AND PRODUCTION SERVICES,Web In Motion,,,50 Richmond St. E.,OSHAWA,ONTARIO,CANADA,L1H1A8,2017-05-18T17:22:22.439Z,City.of.Oshawa,2017-05-18T17:22:22.439Z,City.of.Oshawa,f6c285f7-dca9-4a0a-8d82-ff511df81bde
-78.866764999885277,43.895833000005261,65,CULTURAL ENTERPRISES,DRAMA,DRAMA STUDIOS AND INSTRUCTION,The Drama Club,,,45 QUEEN ST,OSHAWA,ONTARIO,CANADA,L1H 3Z3,2017-05-18T17:22:22.439Z,City.of.Oshawa,2017-05-18T17:22:22.439Z,City.of.Oshawa,d753b82f-fdb3-4f62-b895-d53adaa31c60
-78.864994999873645,43.903136999946334,66,CULTURAL ENTERPRISES,FILM AND VIDEO ,MOTION PICTURE AND VIDEO PRODUCTION,Cinema Candy,, CINEMACANDY.CA ,218 DEARBORN AVE,OSHAWA,ONTARIO,CANADA,L1G4Z4,2017-05-18T17:22:22.439Z,City.of.Oshawa,2017-05-18T17:22:22.439Z,City.of.Oshawa,797d0b70-e3ef-4040-a2b3-5f445209737b
-78.865493999640918,43.898986000275791,67,CULTURAL ENTERPRISES,FILM AND VIDEO ,MOTION PICTURE AND VIDEO PRODUCTION,Durham Video Productions,,,33 RICHMOND ST W,OSHAWA,ONTARIO,CANADA,L1G1A4,2017-05-18T17:22:22.439Z,City.of.Oshawa,2017-05-18T17:22:22.439Z,City.of.Oshawa,55217b90-2963-4746-a8a5-60350239da08
-78.827869999835016,43.902951000006148,68,CULTURAL ENTERPRISES,FILM AND VIDEO ,MOTION PICTURE AND VIDEO PRODUCTION,Dynamic Production,,,101 MELROSE ST,OSHAWA,ONTARIO,CANADA,L1H6Y3,2017-05-18T17:22:22.439Z,City.of.Oshawa,2017-05-18T17:22:22.439Z,City.of.Oshawa,43ec7a26-ff0f-437e-bd8b-bbe3eaea14eb
-78.829750000349833,43.905327000197957,69,CULTURAL ENTERPRISES,FILM AND VIDEO ,MOTION PICTURE AND VIDEO PRODUCTION,Empty Cup Media,,EMPTYCUPMEDIA.CA,929 KING ST E ,OSHAWA,ONTARIO,CANADA,L1H1H3,2017-05-18T17:22:22.439Z,City.of.Oshawa,2017-05-18T17:22:22.439Z,City.of.Oshawa,4fb01378-3276-4281-9222-26dc16b30cbf
-78.874150000428685,43.89523200011083,70,CULTURAL ENTERPRISES,FILM AND VIDEO ,MOTION PICTURE AND VIDEO PRODUCTION,Legacy Films Canada,,,286 King St W,Oshawa,Ontario,Canada,L1J2J9,2017-05-18T17:22:22.439Z,City.of.Oshawa,2017-11-28T17:57:11.515Z,mmandel_oshawa,38df0f71-97b1-49a6-b75b-53acfebe8d1e
-78.849258000112712,43.884293999985687,71,CULTURAL ENTERPRISES,FILM AND VIDEO ,MOTION PICTURE AND VIDEO PRODUCTION,Quest Recording,,,215 TORONTO AVE,OSHAWA,ONTARIO,CANADA,L1H3C2,2017-05-18T17:22:22.439Z,City.of.Oshawa,2017-05-18T17:22:22.439Z,City.of.Oshawa,5b771c8d-9337-4ef3-9d5d-c1fb601c9fc7
-78.868499999736827,43.898755999763416,72,CULTURAL ENTERPRISES,FILM AND VIDEO ,MOTION PICTURE AND VIDEO PRODUCTION,WaCu Productions,,WACUPRODUCTIONS.COM,75 MCMILLAN DR,OSHAWA,ONTARIO,CANADA,L1G3Z7,2017-05-18T17:22:22.439Z,City.of.Oshawa,2017-05-18T17:22:22.439Z,City.of.Oshawa,bc5ab8f3-e6fe-41a3-97a8-247711c3eaa0
-78.871715000070097,43.87688499977952,73,CULTURAL ENTERPRISES,FILM AND VIDEO ,MOTION PICTURE AND VIDEO PRODUCTION,Pine Post Productions,,PINEPOST.COM,423 BLOOR ST W ,OSHAWA,ONTARIO,CANADA,L1J5Y5,2017-05-18T17:22:22.439Z,City.of.Oshawa,2017-05-18T17:22:22.439Z,City.of.Oshawa,7bd8de98-5643-4a17-912c-4581b7931b03
-78.871941000025913,43.920110999861208,74,CULTURAL ENTERPRISES,FILM AND VIDEO ,MOTION PICTURE AND VIDEO PRODUCTION,Lush Brothers Entertainment,,LUSHBROTHERS.COM,843 Masson Street,Oshawa,Ontario,Canada,L1G 5B1,2017-05-18T17:22:22.439Z,City.of.Oshawa,2017-11-07T21:04:45.343Z,mmandel_oshawa,f8f1cfb3-3b06-4cb1-9713-a93063ee1b5c
-78.867650000340262,43.930174000176855,75,CULTURAL ENTERPRISES,LIBRARIES AND ARCHIVES,LIBRARIES,Oshawa Public Libraries - Northview Branch,,http://www.oshawalibrary.on.ca/,250 Beatrice St E,Oshawa,Ontario,Canada,L1G 7T6,2017-05-18T17:22:22.439Z,City.of.Oshawa,2017-11-07T21:00:59.673Z,mmandel_oshawa,6098d382-c0d5-485c-9db0-8d970962ecbe
-78.851216000445334,43.869985999970979,77,CULTURAL FACILITIES,LIBRARIES AND ARCHIVES,LIBRARIES,Oshawa Public Libraries - Jess Hann Branch,,http://www.oshawalibrary.on.ca/,199 WENTWORTH ST W,OSHAWA,ONTARIO,CANADA,L1J6P4,2017-05-18T17:22:22.439Z,City.of.Oshawa,2017-10-30T18:44:06.409Z,mmandel_oshawa,efcf7105-1f8e-44b6-8b81-3f00b0cb661a
-78.864797000405247,43.895251000005409,78,CULTURAL ENTERPRISES,LIBRARIES AND ARCHIVES,LIBRARIES,Oshawa Public Libraries - McLaughlin Branch,,http://www.oshawalibrary.on.ca/,65 Bagot Street,OSHAWA,ONTARIO,CANADA,L1H 1N2,2017-05-18T17:22:22.439Z,City.of.Oshawa,2017-05-18T17:22:22.439Z,City.of.Oshawa,c3db7751-0762-4221-a934-d6d6205954a8
-78.862329000434684,43.894876999841827,79,CULTURAL FACILITIES,MUSEUMS,HISTORY MUSEUMS,Canadian Automotive Museum,,http://canadianautomotivemuseum.com/,99 SIMCOE ST S,OSHAWA,ONTARIO,CANADA,L1H4G7,2017-05-18T17:22:22.439Z,City.of.Oshawa,2017-10-30T18:38:57.535Z,mmandel_oshawa,2c379641-16b4-45b3-951e-80190d2ae873
-78.82689099966872,43.863894000177751,80,CULTURAL HERITAGE,MUSEUMS,HISTORY MUSEUMS,Oshawa Community Museum Archives,,http://www.oshawamuseum.org/,1450 SIMCOE ST S,OSHAWA,ONTARIO,CANADA,L1H8S8,2017-05-18T17:22:22.439Z,City.of.Oshawa,2017-10-30T18:42:58.322Z,mmandel_oshawa,b08ea03d-3977-49f5-af13-2e1f6af5dca3
-78.866785999801678,43.904597999978151,81,CULTURAL ENTERPRISES,MUSEUMS,HISTORY MUSEUMS,Parkwood Estate & Gardens,,http://www.parkwoodestate.com/,270 SIMCOE ST N,OSHAWA,ONTARIO,CANADA,L1G4T5,2017-05-18T17:22:22.439Z,City.of.Oshawa,2017-05-18T17:22:22.439Z,City.of.Oshawa,c4145b95-dbec-4e61-919d-a83ab4f83b82
-78.84797400034789,43.887238000008971,82,CULTURAL HERITAGE,MUSEUMS,HISTORY MUSEUMS,Slovak Canadian Heritage Museum,,,485 RITSON RD S,OSHAWA,ONTARIO,CANADA,L1H5K1,2017-05-18T17:22:22.439Z,City.of.Oshawa,2017-10-30T18:46:11.349Z,mmandel_oshawa,ae172c60-2009-4707-a6a2-579dd407f217
-78.89467045614937,43.916434825497802,83,CULTURAL ENTERPRISES,MUSEUMS,HISTORY MUSEUMS,Ontario Regiment Museum,,WWW.ONTRMUSEUM.CA,1000 Stevenson Rd N,Oshawa,Ontario,Canada,L1J 5P5,2017-05-18T17:22:22.439Z,City.of.Oshawa,2017-11-07T19:42:35.873Z,mmandel_oshawa,fdf5bd98-aad8-48ff-9744-e9826770c999
-78.858752265493152,43.896926152276748,84,CULTURAL FACILITIES,MUSEUMS,HISTORY MUSEUMS,Oshawa Sports Hall of Fame and Museum,,http://oshawasportshalloffame.com/,99 Athol Street East - General Motors Centre,OSHAWA,ONTARIO,CANADA,L1H1J8,2017-05-18T17:22:22.439Z,City.of.Oshawa,2017-10-30T18:35:54.047Z,mmandel_oshawa,550aeec8-865b-4c63-9824-47541e510102
-78.892755000193247,43.904246999804663,85,CULTURAL ENTERPRISES,MUSIC,MUSIC INSTRUCTION AND STUDIOS,Bryfel Music,,durhamregionmusiclessons.com,665 Buchan Ave,Oshawa,Ontario,Canada,L1J 3A2‎,2017-05-18T17:22:22.439Z,City.of.Oshawa,2017-11-14T15:03:08.690Z,mmandel_oshawa,84e5365d-4ef5-499c-83bf-89a3d41b13df
-78.862687999561558,43.899741000102921,86,CULTURAL ENTERPRISES,MUSIC,MUSIC INSTRUCTION AND STUDIOS,Centre For Music & Sound Design,,,50 RICHMOND ST E,OSHAWA,ONTARIO,CANADA,L1G7C7,2017-05-18T17:22:22.439Z,City.of.Oshawa,2017-05-18T17:22:22.439Z,City.of.Oshawa,3a90a699-ce7d-437b-bf67-89ffb9374943
-78.869257999970188,43.880063999880697,87,CULTURAL ENTERPRISES,MUSIC,MUSIC INSTRUCTION AND STUDIOS,Kindermusik Of Oshawa-Durham,,,540 CROMWELL AVE,OSHAWA,ONTARIO,CANADA,L1J4V4,2017-05-18T17:22:22.439Z,City.of.Oshawa,2017-05-18T17:22:22.439Z,City.of.Oshawa,f4335d8c-0b7e-491c-8385-2c7daa7e30f7
-78.81494099980327,43.904400999680142,88,CULTURAL ENTERPRISES,MUSIC,MUSIC INSTRUCTION AND STUDIOS,Liisa's Piano Studio,,,70 ELAWN ST,OSHAWA,ONTARIO,CANADA,L1H7J8,2017-05-18T17:22:22.439Z,City.of.Oshawa,2017-07-20T14:03:53.250Z,City.of.Oshawa,a3cff776-a367-4573-83ef-fd29c6391a09
-78.873918999551691,43.921407000028132,89,CULTURAL ENTERPRISES,MUSIC,MUSIC INSTRUCTION AND STUDIOS,Long & Mcquade Musical Instruments,,www.long-mcquade.com,902 Simcoe St N,Oshawa,Ontario,Canada,L1G 4W2,2017-05-18T17:22:22.439Z,City.of.Oshawa,2017-11-07T20:45:59.157Z,mmandel_oshawa,34ff34cf-b24a-430d-9b21-b389b2b8ea1a
-78.828591000258456,43.894009999815125,90,CULTURAL ENTERPRISES,MUSIC,MUSIC INSTRUCTION AND STUDIOS,PFG Music Services,,pfgmusicservices.com,438 HARCOURT DR,OSHAWA,ONTARIO,CANADA,L1H6V6,2017-05-18T17:22:22.439Z,City.of.Oshawa,2017-05-18T17:22:22.439Z,City.of.Oshawa,00c9b409-a2d4-4f73-adf2-eca831aa289c
-78.860735999975034,43.915747000264012,91,CULTURAL ENTERPRISES,MUSIC,MUSIC INSTRUCTION AND STUDIOS,Upscale Music Studios,,,605 RITSON RD N,OSHAWA,ONTARIO,CANADA,L1G5R5,2017-05-18T17:22:22.439Z,City.of.Oshawa,2017-05-18T17:22:22.439Z,City.of.Oshawa,9ca260f8-5319-4573-b828-65fb3c57c22c
-78.834186999625345,43.904780000068392,92,CULTURAL ENTERPRISES,MUSIC,MUSIC INSTRUCTION AND STUDIOS,Upscale Music Studios,,UPSCALEMUSICSTUDIOS.COM,15 HARMONY RD N,OSHAWA,ONTARIO,CANADA,L1G6K8,2017-05-18T17:22:22.439Z,City.of.Oshawa,2017-05-18T17:22:22.439Z,City.of.Oshawa,331b52ca-8a8e-44a2-85e1-50069bd2a170
-78.853229000131222,43.907331000290355,93,CULTURAL ENTERPRISES,MUSIC,MUSIC INSTRUCTION AND STUDIOS,Vocal Studio,,,370 ADELAIDE AVE E,OSHAWA,ONTARIO,CANADA,L1G2A1,2017-05-18T17:22:22.439Z,City.of.Oshawa,2017-05-18T17:22:22.439Z,City.of.Oshawa,7e5eec8c-825f-4fe5-981c-9a187bf6567c
-78.860474999859136,43.890924000251907,94,CULTURAL ENTERPRISES,MUSIC,MUSIC INSTRUMENT AND SUPPLIES STORE,Fret Fanatic,,RETFANATIC.CA,253 SIMCOE ST S,OSHAWA,ONTARIO,CANADA,L1H4H3‎,2017-05-18T17:22:22.439Z,City.of.Oshawa,2017-05-18T17:22:22.439Z,City.of.Oshawa,877aa6cd-d332-4a0a-ae90-5577f9b3b36b
-78.873918999551691,43.921407000028132,95,CULTURAL ENTERPRISES,MUSIC,MUSICAL INSTRUMENT AND SUPPLIES STORES,Long & Mcquade,,www.long-mcquade.com,902 Simcoe St N,Oshawa,Ontario,Canada,L1G 4W2,2017-05-18T17:22:22.439Z,City.of.Oshawa,2017-11-07T20:46:28.732Z,mmandel_oshawa,bd08fdca-95b5-4864-a851-d5dc1899620c
-78.880283999920906,43.930228000104542,97,CULTURAL ENTERPRISES,MUSIC,MUSICAL INSTRUMENT AND SUPPLIES STORES,Telep Piano & Clocks,,www.telep.ca,90 Russett Ave,Oshawa,Ontario,Canada,L1G 3R5,2017-05-18T17:22:22.439Z,City.of.Oshawa,2017-11-07T20:21:28.095Z,mmandel_oshawa,1b618190-b54d-4493-82e6-0ebee1e61a42
-78.860474999859136,43.890924000251907,98,CULTURAL ENTERPRISES,MUSIC,MUSICAL INSTRUMENT AND SUPPLIES STORES,Wai Music,,,253 SIMCOE ST S,OSHAWA,ONTARIO,CANADA,L1H4H3,2017-05-18T17:22:22.439Z,City.of.Oshawa,2017-05-18T17:22:22.439Z,City.of.Oshawa,e8ba9d42-2b16-4967-b4d4-c0c849ba8d5c
-78.864614000107139,43.899903999808707,99,CULTURAL ENTERPRISES,MUSIC,MUSICAL INSTRUMENT AND SUPPLIES STORES,Wilson & Lee Ltd,,wilsonandlee.ca,87 SIMCOE ST N,OSHAWA,ONTARIO,CANADA,L1G4S3,2017-05-18T17:22:22.439Z,City.of.Oshawa,2017-05-18T17:22:22.439Z,City.of.Oshawa,c7a13248-19a9-43cb-9d4e-df7207974ce0
-78.861029999702922,43.89673300029073,100,CULTURAL ENTERPRISES,MUSIC,MUSICIANS,The Music Man DJ Service,,HTTP://WWW.MUSICMANDJ.CA/,59 ALBERT ST,OSHAWA,ONTARIO,CANADA,L1H1B4,2017-05-18T17:22:22.439Z,City.of.Oshawa,2017-05-18T17:22:22.439Z,City.of.Oshawa,33f73275-0c4c-415a-bb8e-af5503c217cf
-78.849402999877668,43.895362000154051,101,CULTURAL ENTERPRISES,MUSIC,SOUND RECORDING STUDIOS,Ambassador Records,,ambrec.com,185 OSHAWA BLVD S,OSHAWA,ONTARIO,CANADA,L1H5R6,2017-05-18T17:22:22.439Z,City.of.Oshawa,2017-05-18T17:22:22.439Z,City.of.Oshawa,93361ecc-c549-4924-a888-63fdac0e3fc0
-78.849623999810618,43.87727299983387,102,CULTURAL ENTERPRISES,MUSIC,SOUND RECORDING STUDIOS,Rehearsal Factory,,www.rehearsalfactory.com,827 GORDON ST,OSHAWA,ONTARIO,CANADA,L1H4V8,2017-05-18T17:22:22.439Z,City.of.Oshawa,2017-05-18T17:22:22.439Z,City.of.Oshawa,adedadbe-d82f-47a6-9b6e-efefae7c6e65
-78.873526999914532,43.899986000167033,103,CULTURAL ENTERPRISES,PERFORMING ARTS,SYMPHONIES & ORCHESTRAS,Durham Youth Orchestra,,WWW.DYOMUSIC.COM ,168 Gladstone Avenue,Oshawa,Ontario,Canada,L1J4E7,2017-05-18T17:22:22.439Z,City.of.Oshawa,2017-11-28T18:02:14.017Z,mmandel_oshawa,38904065-e4fc-4909-8df9-1c6f66eec5d6
-78.864557000205721,43.899386000176435,104,CULTURAL ENTERPRISES,PERFORMING ARTS ,SYMPHONIES & ORCHESTRAS,Ontario Philharmonic,,http://www.ontariophil.ca,64 SIMCOE ST N,OSHAWA,ONTARIO,CANADA,L1G4S2,2017-05-18T17:22:22.439Z,City.of.Oshawa,2017-05-18T17:22:22.439Z,City.of.Oshawa,069ec711-7f2e-4e8c-834d-1bb0dc04837e
-78.843409999952442,43.882650000112498,105,CULTURAL ENTERPRISES,PERFORMING ARTS,THEATRE COMPANIES ,Dancyn Productions,,http://www.dancynproductions.com,681 DNIPRO BOULEVARD,OSHAWA,ONTARIO,CANADA,L1H5N6,2017-05-18T17:22:22.439Z,City.of.Oshawa,2017-05-18T17:22:22.439Z,City.of.Oshawa,95bbba8f-d55f-4f23-8d75-9c4e33706c48
-78.866764999885277,43.895833000005261,107,CULTURAL ENTERPRISES,PERFORMING ARTS,THEATRE COMPANIES ,Durham Shoestring Performers,,www.durhamshoestring.org,45 QUEEN ST,OSHAWA,ONTARIO,CANADA,L1H 3Z3,2017-05-18T17:22:22.439Z,City.of.Oshawa,2017-05-18T17:22:22.439Z,City.of.Oshawa,c28ff82e-74e9-4e19-be35-dff3a623846a
-78.822818182606383,43.916161668794366,108,CULTURAL ENTERPRISES,PHOTOGRAPHY,PHOTOGRAPHERS,Better Memories Photography,,www.bettermemories.ca,398 Le Sabre Street,Oshawa,Ontario,Canada,L1K 1E4,2017-05-18T17:22:22.439Z,City.of.Oshawa,2017-11-14T14:40:36.137Z,mmandel_oshawa,920d2e14-c063-4b83-a0c9-2f7005940165
-78.864764999719867,43.855809999932973,109,CULTURAL ENTERPRISES,PHOTOGRAPHY,PHOTOGRAPHERS,Caitlin Hickey Photography And Imaging,,CHPHOTOIMAGE.COM,1452 FLEMING CT,OSHAWA,ONTARIO,CANADA,L1J8A9,2017-05-18T17:22:22.439Z,City.of.Oshawa,2017-05-18T17:22:22.439Z,City.of.Oshawa,fc713297-325e-4ca2-9a4a-03d112b44a37
-78.879851000275863,43.893810999776534,110,CULTURAL ENTERPRISES,PHOTOGRAPHY,PHOTOGRAPHERS,Cherry Hill Photo,,www.cherryhillphoto.com,419 KING ST W,OSHAWA,ONTARIO,CANADA,L1J2K5,2017-05-18T17:22:22.439Z,City.of.Oshawa,2017-05-18T17:22:22.439Z,City.of.Oshawa,cfc4cdf5-894c-4bbe-8d5f-3b8219615dae
-78.889954999961688,44.006411999911172,111,CULTURAL ENTERPRISES,Photography,Photographers,Gallery 282 Ltd,,www.gallery282.com,840 Howden Rd E,Oshawa,Ontario,Canada,L1H 7K4,2017-05-18T17:22:22.439Z,City.of.Oshawa,2017-10-31T18:25:19.999Z,mmandel_oshawa,ee105b0f-de62-4d70-8a89-d1018e502cc9
-78.81565100035607,43.906360999773426,112,CULTURAL ENTERPRISES,PHOTOGRAPHY,PHOTOGRAPHERS,Goodall Media Inc,,www.goodallmedia.com,1300 KING ST E,OSHAWA,ONTARIO,CANADA,L1H8J4,2017-05-18T17:22:22.439Z,City.of.Oshawa,2017-05-18T17:22:22.439Z,City.of.Oshawa,3fd5978d-118a-47dd-80b3-cbfa6d1282d2
-78.823001999665962,43.900387999910919,113,CULTURAL ENTERPRISES,PHOTOGRAPHY,PHOTOGRAPHERS,Heather Windsor Photography,,www.heatherwindsor.com,1051 BASSWOOD CT,OSHAWA,ONTARIO,CANADA,L1H2G9,2017-05-18T17:22:22.439Z,City.of.Oshawa,2017-05-18T17:22:22.439Z,City.of.Oshawa,19558b30-d74d-45e9-a017-bb20c9e201e3
-78.81565100035607,43.906360999773426,114,CULTURAL ENTERPRISES,PHOTOGRAPHY,PHOTOGRAPHERS,Insignia Photography,,insigniaphotography.com,1300 KING ST E,OSHAWA,ONTARIO,CANADA,L1H8J4,2017-05-18T17:22:22.439Z,City.of.Oshawa,2017-05-18T17:22:22.439Z,City.of.Oshawa,7d4c1a1a-8247-4738-bded-3c8066924788
-78.864431999633936,43.93903900029806,115,CULTURAL ENTERPRISES,PHOTOGRAPHY,PHOTOGRAPHERS,Joanne's Photography Wedding,,,441 Stonegate Ave,Oshawa,Ontario,Canada,L1K 2L7,2017-05-18T17:22:22.439Z,City.of.Oshawa,2017-11-07T18:51:28.686Z,mmandel_oshawa,a6e72fb3-04bc-4b2a-abeb-445a0d40fba4
-78.851588999815931,43.859429999685652,116,CULTURAL ENTERPRISES,PHOTOGRAPHY,PHOTOGRAPHERS,Kaspi Films,,www.kaspi.ca,559 MONTEITH AVE,OSHAWA,ONTARIO,CANADA,L1J1E2,2017-05-18T17:22:22.439Z,City.of.Oshawa,2017-05-18T17:22:22.439Z,City.of.Oshawa,339df0c7-a8a7-44ce-b638-4da9b817b4ed
-78.833245017835452,43.878129278419344,117,CULTURAL ENTERPRISES,PHOTOGRAPHY,PHOTOGRAPHERS,Lifetouch Canada Inc,,lifetouch.ca,350 Wentworth St E,Oshawa,Ontario,Canada,L1H 7R7,2017-05-18T17:22:22.439Z,City.of.Oshawa,2017-11-07T20:44:44.039Z,mmandel_oshawa,db13af0e-9455-4806-8288-45e96ee3b8f2
-78.860873000242393,43.896079000083461,118,CULTURAL ENTERPRISES,PHOTOGRAPHY,PHOTOGRAPHERS,"Rod Macpherson, Photographer",,RODMACPHERSONPHOTOGRAPHY.COM,74 ALBERT ST,OSHAWA,ONTARIO,CANADA,L1H4P9,2017-05-18T17:22:22.439Z,City.of.Oshawa,2017-05-18T17:22:22.439Z,City.of.Oshawa,1cae959a-3459-4edf-a7f6-a42264cca019
-78.879851000275863,43.893810999776534,119,CULTURAL ENTERPRISES,PHOTOGRAPHY,PHOTOGRAPHERS,Sears Portrait Studio,,www.searsportrait.ca,419 KING ST W,OSHAWA,ONTARIO,CANADA,L1J2K5,2017-05-18T17:22:22.439Z,City.of.Oshawa,2017-05-18T17:22:22.439Z,City.of.Oshawa,7ff80d71-b458-4998-8096-3570fe4cc19e
-78.868105999551531,43.907634000253687,120,CULTURAL ENTERPRISES,PHOTOGRAPHY,PHOTOGRAPHERS,SLR Photography,,slrphotography.ca,382 SIMCOE ST N,OSHAWA,ONTARIO,CANADA,L1G4T6,2017-05-18T17:22:22.439Z,City.of.Oshawa,2017-05-18T17:22:22.439Z,City.of.Oshawa,ec8f31cb-6f90-419a-b8db-19a31e89d766
-78.886929999599218,43.894697000182447,121,CULTURAL ENTERPRISES,PHOTOGRAPHY,PHOTOGRAPHERS,Still Moments Wedding Photo,,stillmomentsphotography.ca/,547 Lombardy Ave,Oshawa,Ontario,Canada,L1J8H5,2017-05-18T17:22:22.439Z,City.of.Oshawa,2017-11-28T17:49:06.590Z,mmandel_oshawa,9b93cb2a-2599-4cc9-9ae9-3eebacf2dddd
-78.863222000387267,43.892166999731138,122,CULTURAL ENTERPRISES,PHOTOGRAPHY,PHOTOGRAPHERS,Portraits By Goguen,,,191 CENTRE ST S,OSHAWA,ONTARIO,CANADA,L1H4A7,2017-05-18T17:22:22.439Z,City.of.Oshawa,2017-05-18T17:22:22.439Z,City.of.Oshawa,d6c63bdd-bd9e-4e60-8b94-c8d7820d191a
-78.827756999857115,43.878170000255665,125,CULTURAL ENTERPRISES,PUBLISHING,NEWSPAPER PUBLISHERS,Metroland Durham Region Media,,http://www.durhamregion.com/durhamregion/,865 FAREWELL AVE,OSHAWA,ONTARIO,CANADA,L1H6N8,2017-05-18T17:22:22.439Z,City.of.Oshawa,2017-05-18T17:22:22.439Z,City.of.Oshawa,6cbd8250-1bfa-403b-b6ac-31cb39d7aab1
-78.862707999653054,43.895353000289681,126,CULTURAL ENTERPRISES,PUBLISHING,NEWSPAPER PUBLISHERS,Oshawa Central Newspaper,,http://www.ocentral.ca/,82 SIMCOE ST S,OSHAWA,ONTARIO,CANADA,L1H4G6,2017-05-18T17:22:22.439Z,City.of.Oshawa,2017-05-18T17:22:22.439Z,City.of.Oshawa,e3d8ddf0-c2ba-448c-8329-1c9efceb48a7
-78.88675899989498,43.876552000306695,127,CULTURAL ENTERPRISES,PUBLISHING,NEWSPAPER PUBLISHERS,Oshawa Express Newspaper,,www.oshawaexpress.ca,600 THORNTON RD S,OSHAWA,ONTARIO,CANADA,L1J6W7,2017-05-18T17:22:22.439Z,City.of.Oshawa,2017-05-18T17:22:22.439Z,City.of.Oshawa,e2d636eb-2234-40a2-8096-00541aa10053
-78.81565100035607,43.906360999773426,128,CULTURAL ENTERPRISES,PUBLISHING,NEWSPAPER PUBLISHERS,Snap Oshawa,,www.snaposhawa.com,1300 KING ST E,OSHAWA,ONTARIO,CANADA,L1H8J4,2017-05-18T17:22:22.439Z,City.of.Oshawa,2017-05-18T17:22:22.439Z,City.of.Oshawa,08af5f22-d059-401b-8837-73946553dccd
-78.853224999933261,43.881053000074715,129,CULTURAL ENTERPRISES,PUBLISHING,OTHER PUBLISHERS,Map Art Publishing Corporation,,MAPARTMAPS.COM,70 BLOOR E,OSHAWA,ONTARIO,CANADA,L1H3M2‎,2017-05-18T17:22:22.439Z,City.of.Oshawa,2017-05-18T17:22:22.439Z,City.of.Oshawa,d52d36eb-e4e8-4180-bd39-30e4e46f1397
-78.897278389496805,43.907258418366489,131,CULTURAL ENTERPRISES,PUBLISHING,PERIODICAL PUBLISHERS,Parkhurst Publishing Inc,,,553 Prestwick Dr,Oshawa,Ontario,Canada,L1J 7P4‎,2017-05-18T17:22:22.439Z,City.of.Oshawa,2017-11-14T15:00:16.653Z,mmandel_oshawa,be9febd1-1fdc-4c77-b872-0de017ae9240
-78.862588000002461,43.897740999892974,132,CULTURAL ENTERPRISES,VISUAL ARTS,VISUAL ARTS MATERIALS SUPPLIERS,Art Affairs,,HTTP://WWW.ARTAFFAIRS.BIZ/,27 KING ST E,OSHAWA,ONTARIO,CANADA,L1H1B2,2017-05-18T17:22:22.439Z,City.of.Oshawa,2017-05-18T17:22:22.439Z,City.of.Oshawa,4f4d3b4d-314d-4e3c-9df4-2fe3338858f4
-78.870205000349458,43.877169000093872,133,CULTURAL ENTERPRISES,VISUAL ARTS ,VISUAL ARTS INSTRUCTION,Ceramics Canada,,ceramicscanada.com,385 BLOOR ST WEST,OSHAWA,ONTARIO,CANADA,L1J5Y5,2017-05-18T17:22:22.439Z,City.of.Oshawa,2017-05-18T17:22:22.439Z,City.of.Oshawa,f2894d6f-7b0d-4f84-9f7b-6bf9a15985c4
-78.873121999858569,44.022554999834661,134,CULTURAL ENTERPRISES,ZOOS AND AQUARIUMS,ZOOS,Ken Jen Petting Zoo,,http://www.kenjenzoo.com/,4499 Grandview Street North,Oshawa,Ontario,Canada,L1H 7L1,2017-05-18T17:22:22.439Z,City.of.Oshawa,2017-10-31T18:18:46.654Z,mmandel_oshawa,1511046c-f7cd-4622-a253-d0e85e9ea7d5
-78.862702999630187,43.994220000157469,135,CULTURAL ENTERPRISES,ZoosAnd Aquariums,Zoos,Oshawa Zoo & Fun Farm,,www.oshawazoo.ca,3377 Grandview ST N,Oshawa,Ontario,Canada,L1H 8L7,2017-05-18T17:22:22.439Z,City.of.Oshawa,2017-10-31T18:49:55.924Z,mmandel_oshawa,6fd3c648-6ba8-42d0-8072-1f8b31e0f256
-78.839160357767796,43.941137480839195,136,CULTURAL FACILITIES,CINEMAS,CINEMAS,Cineplex Oshawa Cinemas,,cineplex.com,1351 Grandview St N,Oshawa,Ontario,Canada,L1K 0G1,2017-05-18T17:22:22.439Z,City.of.Oshawa,2017-11-14T14:07:53.955Z,mmandel_oshawa,575d58c4-b5b9-45d6-ae64-f600adceea11
-78.866764999885277,43.895833000005261,137,CULTURAL FACILITIES,COMMUNITY CENTRES,COMMUNITY CENTRES,Arts Resource Centre,,,45 QUEEN ST,OSHAWA,ONTARIO,CANADA,L1H 3Z3,2017-05-18T17:22:22.439Z,City.of.Oshawa,2017-05-18T17:22:22.439Z,City.of.Oshawa,6132393b-4803-4934-8620-c7c66b521798
-78.836437999860919,43.888214000238456,138,CULTURAL FACILITIES,COMMUNITY CENTRES,COMMUNITY CENTRES,Kingside Park/Community Hall,,,537 TENNYSON AVE,OSHAWA,ONTARIO,CANADA,,2017-05-18T17:22:22.439Z,City.of.Oshawa,2017-05-18T17:22:22.439Z,City.of.Oshawa,3b091343-6778-4890-b8c8-f9a9a40da2ce
-78.847704000011149,43.905549000260173,139,CULTURAL FACILITIES,COMMUNITY CENTRES,COMMUNITY CENTRES,Woodview Community Centre,,WOODVIEWPARK.ORG,151 CADILLAC N,OSHAWA,ONTARIO,CANADA,L1G6C3,2017-05-18T17:22:22.439Z,City.of.Oshawa,2017-05-18T17:22:22.439Z,City.of.Oshawa,457470bc-4e10-421a-ba7d-5d91b117d535
-78.831865000142969,43.899784999924513,140,CULTURAL FACILITIES,COMMUNITY CENTRES,COMMUNITY CENTRES,Donevan Recreation Complex,,,171 HARMONY RD S,OSHAWA,ONTARIO,CANADA,L1H6T4,2017-05-18T17:22:22.439Z,City.of.Oshawa,2017-05-18T17:22:22.439Z,City.of.Oshawa,6c9aa581-9f6c-4b19-a667-0db6a9b4ea1e
-78.85311805081011,43.947945599379949,141,CULTURAL FACILITIES,COMMUNITY CENTRES,COMMUNITY CENTRES,Legends Centre,,http://www.oshawa.ca/Modules/Facilities/Detail.aspx?id=362643ba-752e-464a-8d21-ea8dd40a2353,1661 Harmony Rd N,Oshawa,Ontario,Canada,L1H 7K5,2017-05-18T17:22:22.439Z,City.of.Oshawa,2017-11-07T19:14:53.645Z,mmandel_oshawa,860afe39-68c5-4c3b-81b7-d4bfc81c3288
-78.891391606874322,43.888265727825228,142,CULTURAL FACILITIES,COMMUNITY CENTRES,COMMUNITY CENTRES,Civic Recreation Complex,,oshawa.ca,99 Thornton Rd S,Oshawa,Ontario,Canada,L1J5Y1,2017-05-18T17:22:22.439Z,City.of.Oshawa,2017-11-28T17:46:43.088Z,mmandel_oshawa,8e8d65cc-1169-4f55-ba60-8d85d4d08b0b
-78.847057000105863,43.859611999847367,143,CULTURAL FACILITIES,COMMUNITY CENTRES,COMMUNITY CENTRES,South Oshawa Community Centre,,,1455 CEDAR ST,OSHAWA,ONTARIO,CANADA,L1J0A8,2017-05-18T17:22:22.439Z,City.of.Oshawa,2017-05-18T17:22:22.439Z,City.of.Oshawa,c3578c99-8f49-48e0-b41d-09750a5a41ba
-78.834186999625345,43.904780000068392,144,CULTURAL FACILITIES,COMMUNITY CENTRES,COMMUNITY CENTRES,Harmony Creek Community Centre,,,15 HARMONY RD N,OSHAWA,ONTARIO,CANADA,L1G6K8,2017-05-18T17:22:22.439Z,City.of.Oshawa,2017-05-18T17:22:22.439Z,City.of.Oshawa,06c036e9-78c5-4ec5-a1b7-28c9e210d28e
-78.872504036472037,43.897928853141345,145,CULTURAL FACILITIES,COMMUNITY CENTRES,COMMUNITY CENTRES,Valleyview Community Centre,,,81 Gladstone Ave,Oshawa,Ontario,Canada,L1J4E4 ‎,2017-05-18T17:22:22.439Z,City.of.Oshawa,2017-11-28T18:05:36.359Z,mmandel_oshawa,17400b6d-90b0-4c47-b88a-a4a8afe3fe1a
-78.870454999696392,43.928283000064191,146,CULTURAL FACILITIES,COMMUNITY CENTRES,COMMUNITY CENTRES,Northview Community Centre,,www.oshawa.ca,150 Beatrice St E,Oshawa,Ontario,Canada,L1G 7T6 ‎,2017-05-18T17:22:22.439Z,City.of.Oshawa,2017-11-07T20:58:51.769Z,mmandel_oshawa,92c90f9c-6136-4baf-bfd5-da7c92947c3e
-78.850736000046311,43.895778999931025,147,CULTURAL FACILITIES,COMMUNITY CENTRES,COMMUNITY CENTRES,Bathe Park Community Centre,,,298 EULALIE AVE,OSHAWA,ONTARIO,CANADA,L1H5R4 ‎,2017-05-18T17:22:22.439Z,City.of.Oshawa,2017-05-18T17:22:22.439Z,City.of.Oshawa,3a41a725-045d-4066-8d46-ade368cf9f02
-78.870776999911669,43.889481999817363,148,CULTURAL FACILITIES,COMMUNITY CENTRES,COMMUNITY CENTRES,Rundle Park Community Centre ,,,241 Park Rd S,Oshawa,Ontario,Canada,L1J4H1 ,2017-05-18T17:22:22.439Z,City.of.Oshawa,2017-11-28T17:59:31.712Z,mmandel_oshawa,381704e4-77a1-4ba1-8cb5-1e1f6665a0fc
-78.863835999782282,43.898142999906554,149,CULTURAL ENTERPRISES,"Antiques, Crafts, Books Store, Music Stores",,The Simcoe Mall,,,19 SIMCOE ST N,OSHAWA,ONTARIO,CANADA,L1G4R7,2017-05-18T17:22:22.439Z,City.of.Oshawa,2017-10-30T18:10:25.022Z,mmandel_oshawa,be6ef25d-1bee-458d-8660-1d450655f528
-78.837186999873452,43.911526999967506,150,CULTURAL FACILITIES,EDUCTION INSTITUTIONS & SCHOOLS,SECONDARY SCHOOLS ,Eastdale Collegiate And Vocational Institute,,,265 HARMONY RD N,OSHAWA,ONTARIO,CANADA,L1G6L4,2017-05-18T17:22:22.439Z,City.of.Oshawa,2017-05-18T17:22:22.439Z,City.of.Oshawa,e726f6c7-6df0-4c13-a678-25b86380bc4b
-78.892232905160625,43.911079063663124,151,CULTURAL FACILITIES,EDUCTION INSTITUTIONS & SCHOOLS,SECONDARY SCHOOLS ,Paul Dwyer Catholic High School,,pauldwyer.dcdsb.ca,700 Stevenson Rd N,Oshawa,Ontario,Canada,L1J 7S2,2017-05-18T17:22:22.439Z,City.of.Oshawa,2017-11-14T14:46:23.922Z,mmandel_oshawa,37466c85-fd68-4877-bce0-691e86f7b3ad
-78.866943999985409,43.905429000049494,152,CULTURAL FACILITIES,EDUCTION INSTITUTIONS & SCHOOLS,SECONDARY SCHOOLS ,O'Neill Collegiate and Vocational Institute,,,301 SIMCOE ST N,OSHAWA,ONTARIO,CANADA,L1G4T2,2017-05-18T17:22:22.439Z,City.of.Oshawa,2017-05-18T17:22:22.439Z,City.of.Oshawa,cbad754d-ae12-4506-9ff8-ff59624222a7
-78.868995036043856,43.906038952341696,153,CULTURAL FACILITIES,EDUCTION INSTITUTIONS & SCHOOLS,POST SECONDARY SCHOOLS,Queen's University At Lakeridge Health,,,1 HOSPITAL CT,OSHAWA,ONTARIO,CANADA,L1G4T5,2017-05-18T17:22:22.439Z,City.of.Oshawa,2017-10-30T19:34:54.343Z,mmandel_oshawa,50b1ed0a-b09e-4f4e-9f24-78416b9c022a
-78.851080999829151,43.878100000137536,154,CULTURAL FACILITIES,EDUCTION INSTITUTIONS & SCHOOLS,POST SECONDARY SCHOOLS,Canadian Conservatory Of Music,,,86 CONANT ST,OSHAWA,ONTARIO,CANADA,L1H3R4,2017-05-18T17:22:22.439Z,City.of.Oshawa,2017-11-01T20:06:42.059Z,mmandel_oshawa,18399ae6-8347-47f0-82c0-bbfcc1c63782
-78.845900514460112,43.887005348816537,155,CULTURAL FACILITIES,EDUCTION INSTITUTIONS & SCHOOLS,POST SECONDARY SCHOOLS,Club Lorely - German Language School Lorely Inc,,clubloreley.org/school/,389 Dean Ave,Oshawa,Ontario,Canada,L1H 3E1,2017-05-18T17:22:22.439Z,City.of.Oshawa,2017-11-14T14:23:30.972Z,mmandel_oshawa,808f069f-2e4e-48c7-a01c-23ba6dcb210a
-78.891018999618481,43.944340999926155,156,CULTURAL FACILITIES,EDUCTION INSTITUTIONS & SCHOOLS,POST SECONDARY SCHOOLS,Durham College,,durhamcollege.ca,2000 Simcoe ST N,Oshawa,Ontario,Canada,L1H7K4,2017-05-18T17:22:22.439Z,City.of.Oshawa,2017-10-31T20:10:07.028Z,mmandel_oshawa,abb7da56-eaa0-416c-b470-5f3ca5b7ad71
-78.862069999968583,43.901294000134214,157,CULTURAL FACILITIES,EDUCTION INSTITUTIONS & SCHOOLS,POST SECONDARY SCHOOLS,Mary Street Community School,,,110 MARY ST N,OSHAWA,ONTARIO,CANADA,,2017-05-18T17:22:22.439Z,City.of.Oshawa,2017-05-18T17:22:22.439Z,City.of.Oshawa,e032eb46-e0a1-4c15-815f-1d137ef4c10c
-78.879851000275863,43.893810999776534,158,CULTURAL FACILITIES,EDUCTION INSTITUTIONS & SCHOOLS,POST SECONDARY SCHOOLS,Trillium College (Oshawa),,,419 KING ST W,OSHAWA,ONTARIO,CANADA,L1J2K5‎,2017-05-18T17:22:22.439Z,City.of.Oshawa,2017-05-18T17:22:22.439Z,City.of.Oshawa,c23ae884-f048-49cc-b8f7-6ab8689c91af
-78.89090800018873,43.890074000108612,159,CULTURAL FACILITIES,EDUCTION INSTITUTIONS & SCHOOLS,POST SECONDARY SCHOOLS,Trent University Durham,,https://www.trentu.ca/durham/,55 Thornton Rd S,Oshawa,Ontario,Canada,L1J5Y1,2017-05-18T17:22:22.439Z,City.of.Oshawa,2017-11-28T17:42:52.720Z,mmandel_oshawa,86fe55e4-ee28-4a62-9453-ceab792e82c9
-78.891018999618481,43.944340999926155,160,CULTURAL FACILITIES,EDUCTION INSTITUTIONS & SCHOOLS,POST SECONDARY SCHOOLS,University Of Ontario Institute Of Technology,,,2000 SIMCOE ST N,OSHAWA,ONTARIO,CANADA,L1H7K4,2017-05-18T17:22:22.439Z,City.of.Oshawa,2017-05-18T17:22:22.439Z,City.of.Oshawa,c20363a0-46a1-46f8-9821-cc96c24d34ab
-78.857487000204912,43.89775000004375,161,CULTURAL FACILITIES,EDUCTION INSTITUTIONS & SCHOOLS,POST SECONDARY SCHOOLS,UOIT-Baagwating Indigenous Student Centre,,http://indigenous.uoit.ca/,151 Athol Street East,OSHAWA,ONTARIO,CANADA,L1H 1K2,2017-05-18T17:22:22.439Z,City.of.Oshawa,2017-05-18T17:22:22.439Z,City.of.Oshawa,74b67803-91ff-4a41-9967-7a44f4371ab6
-78.861303000412718,43.897945000171426,162,CULTURAL FACILITIES,FOOD AND ENTERTAINMENT ,BARS WITH LIVE MUSIC,The Atria,,,59 KING ST E.,OSHAWA,ONTARIO,CANADA,L1H1B4,2017-05-18T17:22:22.439Z,City.of.Oshawa,2017-05-18T17:22:22.439Z,City.of.Oshawa,f92ee0d8-cc69-4fdf-af8d-bc5e26c1a595
-78.863645999811482,43.898126999887033,163,CULTURAL FACILITIES,FOOD AND ENTERTAINMENT ,BARS WITH LIVE MUSIC,The Hub,,,15 SIMCOE ST N,OSHAWA,ONTARIO,CANADA,L1H8C1,2017-05-18T17:22:22.439Z,City.of.Oshawa,2017-05-18T17:22:22.439Z,City.of.Oshawa,9fafde85-7c77-492a-952d-ad96a3339a78
-78.857668999779776,43.884402000194569,164,CULTURAL FACILITIES,FOOD AND ENTERTAINMENT ,BARS WITH LIVE MUSIC,Excuses Dining Lounge,,,504 SIMCOE ST S,OSHAWA,ONTARIO,CANADA,L1H4J8,2017-05-18T17:22:22.439Z,City.of.Oshawa,2017-05-18T17:22:22.439Z,City.of.Oshawa,35e64cb6-b7a1-4b1d-8ccb-c5de030afd85
-78.859852000243308,43.898809999727114,165,CULTURAL FACILITIES,FOOD AND ENTERTAINMENT ,BARS WITH LIVE MUSIC,Riley's Pub Old Town Pub,,www.rileyoshawa.com,104 KING ST. E.,OSHAWA,ONTARIO,CANADA,L1H1B6,2017-05-18T17:22:22.439Z,City.of.Oshawa,2017-05-18T17:22:22.439Z,City.of.Oshawa,d99c9193-dfae-4860-ae0b-7c8eaa01c8dd
-78.86299300005841,43.898706000041059,166,CULTURAL FACILITIES,FOOD AND ENTERTAINMENT ,BARS WITH LIVE MUSIC,The Stags Head Bar And Grill,,,22 Bond St. E,OSHAWA,ONTARIO,CANADA,L1H1B4,2017-05-18T17:22:22.439Z,City.of.Oshawa,2017-05-18T17:22:22.439Z,City.of.Oshawa,542ecc81-0624-427b-b1e1-ffa056d0a5a6
-78.863776000406133,43.898030000243018,168,CULTURAL FACILITIES,FOOD AND ENTERTAINMENT ,BARS WITH LIVE MUSIC,Moustache Club,,,15 SIMCOE ST N,OSHAWA,ONTARIO,CANADA,L1H8C1,2017-05-18T17:22:22.439Z,City.of.Oshawa,2017-05-18T17:22:22.439Z,City.of.Oshawa,13dc3fad-6c2b-446a-946a-3aedab69083d
-78.893930370944645,43.890597675859723,169,CULTURAL FACILITIES,FOOD AND ENTERTAINMENT ,BARS WITH LIVE MUSIC,Whiskey John's Bar & Grill,,whiskyjohns.com,843 King St W,Oshawa,Ontario,Canada,L1J 2L4,2017-05-18T17:22:22.439Z,City.of.Oshawa,2017-11-14T14:52:10.485Z,mmandel_oshawa,ca6a8236-863e-49e6-b355-c99662e962c5
-78.838951000037326,43.89245000017376,170,CULTURAL FACILITIES,FOOD AND ENTERTAINMENT ,BARS WITH LIVE MUSIC,Wee Hideaway,,,371 WILSON RD. S.,OSHAWA,ONTARIO,CANADA,L1H6C6,2017-05-18T17:22:22.439Z,City.of.Oshawa,2017-05-18T17:22:22.439Z,City.of.Oshawa,fd848048-4529-455b-a919-9d319041682c
-78.862943999654604,43.897668999932421,172,CULTURAL FACILITIES,FOOD AND ENTERTAINMENT ,RESTAURANTS WITH LIVE MUSIC,Avanti Trattoria,,,17 KING ST E,OSHAWA,ONTARIO,CANADA,L1H1A8,2017-05-18T17:22:22.439Z,City.of.Oshawa,2017-05-18T17:22:22.439Z,City.of.Oshawa,cd74a2d5-9ad8-497e-972d-f78eaa7c68f1
-78.86415999964737,43.897524000305111,173,CULTURAL FACILITIES,FOOD AND ENTERTAINMENT ,RESTAURANTS WITH LIVE MUSIC,Beryl's Pepperpot,,,14 KING ST W,OSHAWA,ONTARIO,CANADA,L1H1A3,2017-05-18T17:22:22.439Z,City.of.Oshawa,2017-05-18T17:22:22.439Z,City.of.Oshawa,5ad09807-f14f-4735-a909-e3329328c94b
-78.839634999752533,43.892587999924729,175,CULTURAL FACILITIES,FOOD AND ENTERTAINMENT ,RESTAURANTS WITH LIVE MUSIC,Diamond's Grill,,,366 Wilson Road S. ,OSHAWA,ONTARIO,CANADA,L1H 6C7,2017-05-18T17:22:22.439Z,City.of.Oshawa,2017-05-18T17:22:22.439Z,City.of.Oshawa,cfa69925-fbd3-450d-a59a-5af7a760ff77
-78.860973999626424,43.89709700010161,177,CULTURAL FACILITIES,FOOD AND ENTERTAINMENT ,RESTAURANTS WITH LIVE MUSIC,New Globe Restaurant,,,60 ATHOL ST E,OSHAWA,ONTARIO,CANADA,L1H8B7,2017-05-18T17:22:22.439Z,City.of.Oshawa,2017-05-18T17:22:22.439Z,City.of.Oshawa,49d91c05-fcae-4d04-9326-637c61cb5fc8
-78.897621999639057,43.951055999787663,179,CULTURAL FACILITIES,Food and Entertainment,Restaurants with Live Music,Shagwell's On The Ridge,,https://www.s-h-a-g.ca/,2200 Simcoe ST N,Oshawa,Ontario,Canada,L1G4Y3,2017-05-18T17:22:22.439Z,City.of.Oshawa,2017-10-31T19:53:22.951Z,mmandel_oshawa,2dd9779e-3244-42e8-b679-89fc759a1bc2
-78.874200999584005,43.922051999866198,180,CULTURAL FACILITIES,FOOD AND ENTERTAINMENT ,RESTAURANTS WITH LIVE MUSIC,"Simcoe Blues & Jazz, Bar & Grill",,http://www.simcoeblues.com/new/,926 Simcoe ST N,Oshawa,Ontario,Canada,L1G 5B3,2017-05-18T17:22:22.439Z,City.of.Oshawa,2017-11-07T20:34:55.272Z,mmandel_oshawa,c10a62de-0fbe-4356-b2c7-15fe641c73b2
-78.874403000148675,43.922503999893124,181,CULTURAL FACILITIES,FOOD AND ENTERTAINMENT ,RESTAURANTS WITH LIVE MUSIC,Sinatra's Italian Sandwiches,,https://sinatras.ca/,944 Simcoe St N,Oshawa,Ontario,Canada,L1G 4W2,2017-05-18T17:22:22.439Z,City.of.Oshawa,2017-11-07T20:31:43.437Z,mmandel_oshawa,0035a289-6c48-439e-b20e-b1d3d6563557
-78.864169999693132,43.897406999736809,182,CULTURAL FACILITIES,FOOD AND ENTERTAINMENT ,RESTAURANTS WITH LIVE MUSIC,Sunnyside Eatery,,,15 KING ST W,OSHAWA,ONTARIO,CANADA,L1H1A1,2017-05-18T17:22:22.439Z,City.of.Oshawa,2017-05-18T17:22:22.439Z,City.of.Oshawa,e642592a-fe90-4654-b52a-8f36d84641b9
-78.850450999640941,43.919849999796085,184,CULTURAL FACILITIES,FOOD AND ENTERTAINMENT ,RESTAURANTS WITH LIVE MUSIC,Tartan Dining Lounge,,,555 ROSSLAND RD E,OSHAWA,ONTARIO,CANADA,L1K1K8,2017-05-18T17:22:22.439Z,City.of.Oshawa,2017-05-18T17:22:22.439Z,City.of.Oshawa,6a442a27-caca-4bbc-bdf0-22445add63c8
-78.858312000385425,43.886187000176179,185,CULTURAL FACILITIES,FOOD AND ENTERTAINMENT ,RESTAURANTS WITH LIVE MUSIC,The Corral,,,433 SIMCOE ST S,OSHAWA,ONTARIO,CANADA,L1H4J5,2017-05-18T17:22:22.439Z,City.of.Oshawa,2017-05-18T17:22:22.439Z,City.of.Oshawa,6ff76dbc-a116-4d04-bca6-4cab36ab90df
-78.900348000250801,43.907343999995803,186,CULTURAL FACILITIES,FOOD AND ENTERTAINMENT ,RESTAURANTS WITH LIVE MUSIC,Thornton Arms,,thorntonarms.ca,575 Thornton Rd N,Oshawa,Ontario,Canada,L1J 8L5,2017-05-18T17:22:22.439Z,City.of.Oshawa,2017-11-14T14:53:53.200Z,mmandel_oshawa,b5ed1743-6eba-4085-975e-5cf10ac342ee
-78.869013999572715,43.896313999848452,187,CULTURAL FACILITIES,FOOD AND ENTERTAINMENT ,RESTAURANTS WITH LIVE MUSIC,Volume Music Bar & Lounge,,,145 KING ST W,OSHAWA,ONTARIO,CANADA,L1J2J3,2017-05-18T17:22:22.439Z,City.of.Oshawa,2017-05-18T17:22:22.439Z,City.of.Oshawa,fec38ed5-c55f-43cd-ba01-c23b3a83d478
-78.862511999834467,43.897877000156278,188,CULTURAL FACILITIES,FOOD AND ENTERTAINMENT ,RESTAURANTS WITH LIVE MUSIC,Buster Rhino's Southern BBQ,,,28 KING ST E,OSHAWA,ONTARIO,CANADA,L1J1A9,2017-05-18T17:22:22.439Z,City.of.Oshawa,2017-05-18T17:22:22.439Z,City.of.Oshawa,cc0a67ce-d485-4bf1-ac96-817d1b7ef50b
-78.86174799975332,43.895817000012364,191,CULTURAL FACILITIES,FOOD AND ENTERTAINMENT ,CAFÉS WITH LIVE MUSIC,Wasted Space,,,74 CELINA ST,OSHAWA,ONTARIO,CANADA,L1H4N2,2017-05-18T17:22:22.439Z,City.of.Oshawa,2017-05-18T17:22:22.439Z,City.of.Oshawa,7e38f4e6-0e52-4054-8e19-c982fd2e02cf
-78.866973000297747,43.896888000286559,192,CULTURAL FACILITIES,FOOD AND ENTERTAINMENT ,CAFÉS WITH LIVE MUSIC,Berry Hill,,,82 KING ST,OSHAWA,ONTARIO,CANADA,L1H8W7,2017-05-18T17:22:22.439Z,City.of.Oshawa,2017-05-18T17:22:22.439Z,City.of.Oshawa,dd705e59-8aaf-490b-922e-b6494e60c5ef
-78.863314000448781,43.897081999900841,193,CULTURAL FACILITIES,INCUBATOR/SHARED WORKSPACE,INCUBATOR/SHARED WORKSPACE,Core21,,HTTP://CORE21.CA/ABOUT,21 SIMCOE ST S,OSHAWA,ONTARIO,CANADA,L1H4G1,2017-05-18T17:22:22.439Z,City.of.Oshawa,2017-05-18T17:22:22.439Z,City.of.Oshawa,88ce9816-9830-4b2b-93b7-c4625ab87929
-78.830300000170737,43.87871199998186,194,CULTURAL FACILITIES,MULTICULTURAL CULTURAL CENTRE,MULTICULTRUAL CULTURAL CENTRE,Caribbean Cultural Centre,,,600 WENTWORTH ST E,OSHAWA,ONTARIO,CANADA,L1H3V8‎,2017-05-18T17:22:22.439Z,City.of.Oshawa,2017-05-18T17:22:22.439Z,City.of.Oshawa,6a559b23-84d0-410e-a947-daaa2a13f54b
-78.864997000421766,43.895155999824667,195,CULTURAL FACILITIES,LIBRARIES ,LIBRARIES,Oshawa Public Libraries - McLaughlin Branch,,,65 BAGOT ST,OSHAWA,ONTARIO,CANADA,L1H1N2,2017-05-18T17:22:22.439Z,City.of.Oshawa,2017-05-18T17:22:22.439Z,City.of.Oshawa,aea3ef79-0a59-41d5-8dab-7b03563eb4f1
-78.853118072240804,43.94794500424733,197,CULTURAL FACILITIES,LIBRARIES ,LIBRARIES,Oshawa Public Libraries - Legends Branch,,http://oshlib.ca/,1661 Harmony Rd N,Oshawa,Ontario,Canada,L1H 7K5,2017-05-18T17:22:22.439Z,City.of.Oshawa,2017-11-07T19:14:56.369Z,mmandel_oshawa,410e3a5a-1e46-4757-84ed-71d50eb3dfcc
-78.851216000445334,43.869985999970979,198,CULTURAL FACILITIES,LIBRARIES ,LIBRARIES,Oshawa Public Libraries - Jess Hann Branch,,,199 WENTWORTH ST W,OSHAWA,ONTARIO,CANADA,L1J6P4,2017-05-18T17:22:22.439Z,City.of.Oshawa,2017-05-18T17:22:22.439Z,City.of.Oshawa,32f6da46-501c-44ec-8aee-9f2916cda60e
-78.861577000049081,43.898079999885731,199,CULTURAL FACILITIES,PERFORMING ART CENTRES,PERFORMING ART VENUES,Regent Theatre,,http://regenttheatre.ca/,"44, 52 KING ST E",OSHAWA,ONTARIO,CANADA,L1H1B3,2017-05-18T17:22:22.439Z,City.of.Oshawa,2017-07-28T13:00:51.084Z,mmandel_oshawa,8bcc15e1-7b28-4cea-a9c0-89b5f145f844
-78.879611999901272,43.930369000187802,200,CULTURAL FACILITIES,PERFORMING ART CENTRES,PERFORMING ART VENUES,Oshawa Little Theatre,,http://oshawalittletheatre.com/,62 Russett Ave,Oshawa,Ontario,Canada,L1G 3R5,2017-05-18T17:22:22.439Z,City.of.Oshawa,2017-11-07T20:24:13.816Z,mmandel_oshawa,2bdf9163-b41d-4494-a4a9-b639b98b5ad3
-78.866764999885277,43.895833000005261,202,CULTURAL FACILITIES,PERFORMING ART CENTRES,AUDITORIUM,Arts Resource Centre,,,45 QUEEN ST,OSHAWA,ONTARIO,CANADA,L1H 3Z3,2017-05-18T17:22:22.439Z,City.of.Oshawa,2017-05-18T17:22:22.439Z,City.of.Oshawa,16e30101-b565-4be1-8886-8c539bae2caa
-78.862613000116824,43.89446300000602,203,CULTURAL FACILITIES,URBAN SPACES AND EVENT ZONES,PARKS,Memorial Park,,,110 SIMCOE ST S,OSHAWA,ONTARIO,CANADA,L1H7M7,2017-05-18T17:22:22.439Z,City.of.Oshawa,2017-05-18T17:22:22.439Z,City.of.Oshawa,584d0922-e606-4959-a65d-3f03d42f29e5
-78.910559000066726,43.980712999909279,204,CULTURAL FACILITIES,Community Centres,Community Centres,Columbus Community Centre,,https://www.oshawa.ca/things-to-do/resources/heritageoshawa_inventoryofheritageproperties.pdf,3265 Simcoe ST N,Oshawa,Ontario,Canada,L1H 7K4,2017-05-18T17:22:22.439Z,City.of.Oshawa,2017-10-31T18:41:22.544Z,mmandel_oshawa,e76c1c6e-93c6-4317-8860-14e59b6e9363
-78.82689099966872,43.863894000177751,205,CULTURAL HERITAGE,BUILT HERITAGE PROPERTIES,DESIGNATED HERITAGE PROPERTIES,Guy House,,,1450 SIMCOE ST S,OSHAWA,ONTARIO,CANADA,L1H8J7,2017-05-18T17:22:22.439Z,City.of.Oshawa,2017-05-18T17:22:22.439Z,City.of.Oshawa,85b44032-a8a4-4dd9-a616-7c742e254ba2
-78.827520999855551,43.863959000105069,206,CULTURAL HERITAGE,BUILT HERITAGE PROPERTIES,DESIGNATED HERITAGE PROPERTIES,Henry House - Oshawa Museum,,http://oshawamuseum.org/,1446 SIMCOE ST S,OSHAWA,ONTARIO,CANADA,L1H8L1 ‎ ,2017-05-18T17:22:22.439Z,City.of.Oshawa,2017-11-01T19:49:30.592Z,mmandel_oshawa,cabc1ecb-f4d4-47b1-a3e2-b8bc870e4924
-78.86888700024943,43.909365000271173,207,CULTURAL HERITAGE,BUILT HERITAGE PROPERTIES,DESIGNATED HERITAGE PROPERTIES,Lupton House,,,452 SIMCOE ST N,OSHAWA,ONTARIO,CANADA,L1G4T6,2017-05-18T17:22:22.439Z,City.of.Oshawa,2017-05-18T17:22:22.439Z,City.of.Oshawa,4e362ffd-0f08-4afa-944b-7fb8e33b9841
-78.912673000034971,43.936771000217142,209,CULTURAL HERITAGE,Built Heritahe Properties,Designated Heritage Properties,Nesbitt House,,,1725 Thornton Rd N,Oshawa,Ontario,Canada,L1H 7K4,2017-05-18T17:22:22.439Z,City.of.Oshawa,2017-10-31T20:05:41.351Z,mmandel_oshawa,dcd0ceb1-4d10-462b-8a20-c552afab8c2b
-78.866785999801678,43.904597999978151,210,CULTURAL HERITAGE,BUILT HERITAGE PROPERTIES,DESIGNATED HERITAGE PROPERTIES,Parkwood Estate,,,270 SIMCOE ST N,OSHAWA,ONTARIO,CANADA,L1G4T5,2017-05-18T17:22:22.439Z,City.of.Oshawa,2017-05-18T17:22:22.439Z,City.of.Oshawa,321122ed-a3f0-41c6-afd3-cc56b62079e5
-78.827032000134011,43.864499000198556,211,CULTURAL HERITAGE,BUILT HERITAGE PROPERTIES,DESIGNATED HERITAGE PROPERTIES,Robinson House  - Oshawa Museum,,http://oshawamuseum.org/,1454 SIMCOE ST S,OSHAWA,ONTARIO,CANADA,L1H8J7,2017-05-18T17:22:22.439Z,City.of.Oshawa,2017-11-01T19:49:36.927Z,mmandel_oshawa,b60ce0eb-246c-4b58-ac3b-56e26685463b
-78.862817000331304,43.895754000119844,212,CULTURAL HERITAGE,BUILT HERITAGE PROPERTIES,DESIGNATED HERITAGE PROPERTIES,Simcoe St United Church,,,66 SIMCOE ST S,OSHAWA,ONTARIO,CANADA,L1H4G3,2017-05-18T17:22:22.439Z,City.of.Oshawa,2017-10-30T18:59:21.323Z,mmandel_oshawa,1184265b-0278-497b-af6e-6191cc3f3978
-78.860844999754988,43.989141999745364,213,CULTURAL HERITAGE,Built Heritage Properties,Registered Heritage Properties,Terwilligar House,,https://www.oshawa.ca/things-to-do/resources/heritageoshawa_inventoryofheritageproperties.pdf,3188 Grandview St N,Oshawa,Ontario,Canada,L1H8L7,2017-05-18T17:22:22.439Z,City.of.Oshawa,2017-10-31T19:59:31.467Z,mmandel_oshawa,036a549b-2ad0-489f-aeea-165696ba16f4
-78.861079000106727,43.898203999698872,214,CULTURAL HERITAGE,BUILT HERITAGE PROPERTIES,DESIGNATED HERITAGE PROPERTIES,The Genosha Hotel,,https://www.oshawa.ca/things-to-do/resources/heritageoshawa_inventoryofheritageproperties.pdf,68 KING ST E,OSHAWA,ONTARIO,CANADA,L1H1B4,2017-05-18T17:22:22.439Z,City.of.Oshawa,2017-10-30T18:58:08.582Z,mmandel_oshawa,9800aac6-caa0-49ad-81c8-4a9bbb30a79c
-78.861874000150024,43.898023000302587,215,CULTURAL HERITAGE,BUILT HERITAGE PROPERTIES,DESIGNATED HERITAGE PROPERTIES,The Regent Theatre,,http://regenttheatre.ca/,50 KING ST E,OSHAWA,ONTARIO,CANADA,,2017-05-18T17:22:22.439Z,City.of.Oshawa,2017-05-18T17:22:22.439Z,City.of.Oshawa,ab70acc3-177a-42c4-93d3-9e1d1c148569
-78.895750037135713,43.895988673508185,216,CULTURAL HERITAGE,BUILT HERITAGE PROPERTIES,DESIGNATED HERITAGE PROPERTIES,Thornton-Dundee Clubhouse,,,210 Thornton Rd N,Oshawa,Ontario,Canada,L1J 6T8,2017-05-18T17:22:22.439Z,City.of.Oshawa,2017-11-14T14:58:13.783Z,mmandel_oshawa,653d591c-2470-4752-bfea-a5d31d7c0c06
-78.828961999979242,43.86561999981916,217,CULTURAL HERITAGE,BUILT HERITAGE PROPERTIES,REGISTERED HERITAGE PROPERTIES,Lakeview Park (A Portion),,,0 Lakeview Park Ave,OSHAWA,ONTARIO,CANADA,,2017-05-18T17:22:22.439Z,City.of.Oshawa,2017-07-28T14:06:58.916Z,mmandel_oshawa,2d2e329f-0de3-4a07-81b7-7fd46580fceb
-78.862350000351086,43.894574999823426,218,CULTURAL HERITAGE,BUILT HERITAGE PROPERTIES,REGISTERED HERITAGE PROPERTIES,"Memorial Park, Bandshell, Cenotaph",,,110 SIMCOE ST S,OSHAWA,ONTARIO,CANADA,L1H7M7,2017-05-18T17:22:22.439Z,City.of.Oshawa,2017-05-18T17:22:22.439Z,City.of.Oshawa,bad6782f-4dca-4e88-9c98-ee27c1b1d0e6
-78.862453000283239,43.894797999982778,219,CULTURAL HERITAGE,BUILT HERITAGE PROPERTIES,REGISTERED HERITAGE PROPERTIES,Oshawa Public Utilities Commission,,,100 SIMCOE ST S,OSHAWA,ONTARIO,CANADA,L1H7M7,2017-05-18T17:22:22.439Z,City.of.Oshawa,2017-05-18T17:22:22.439Z,City.of.Oshawa,efa56914-22a7-4305-a394-5de4e8aa00d1
-78.832179999787229,43.859172000056127,220,CULTURAL HERITAGE,BUILT HERITAGE PROPERTIES,REGISTERED HERITAGE PROPERTIES,Oshawa Harbour Pioneer Cemetery,,,00 Birchcliffe Ave,OSHAWA,ONTARIO,CANADA,,2017-05-18T17:22:22.439Z,City.of.Oshawa,2017-07-28T14:02:19.783Z,mmandel_oshawa,9727e4ea-c685-4489-9e0e-b203888d2e61
-78.865821999703982,43.89506399989358,221,CULTURAL HERITAGE,BUILT HERITAGE PROPERTIES,REGISTERED HERITAGE PROPERTIES,Robert McLaughlin Gallery,,,72 QUEEN ST,OSHAWA,ONTARIO,CANADA,L1H3Z7 ‎ ,2017-05-18T17:22:22.439Z,City.of.Oshawa,2017-05-18T17:22:22.439Z,City.of.Oshawa,90197749-454a-45d6-9355-9273e6fb2b3a
-78.821685000289179,43.880528000226768,222,CULTURAL HERITAGE,BUILT HERITAGE PROPERTIES,REGISTERED HERITAGE PROPERTIES,Second Marsh (A Portion),,,795 COLONEL SAM DR,OSHAWA,ONTARIO,CANADA,L1H7Y2,2017-05-18T17:22:22.439Z,City.of.Oshawa,2017-05-18T17:22:22.439Z,City.of.Oshawa,4196bafc-a476-4990-a313-420f1ff38da7
-78.891774000377126,43.891286000218422,223,CULTURAL HERITAGE,BUILT HERITAGE PROPERTIES,REGISTERED HERITAGE PROPERTIES,Union Cemetery,,,760 KING ST W,OSHAWA,ONTARIO,CANADA,L1J2L2,2017-05-18T17:22:22.439Z,City.of.Oshawa,2017-05-18T17:22:22.439Z,City.of.Oshawa,1e7c6621-ef47-44d2-8d85-596dacee1036
-78.866785999801678,43.904597999978151,224,CULTURAL HERITAGE,HERITAGE SITES,NATIONAL HISTORIC SITE,Parkwood Estate,,,270 SIMCOE ST N,OSHAWA,ONTARIO,CANADA,L1G4T5,2017-05-18T17:22:22.439Z,City.of.Oshawa,2017-05-18T17:22:22.439Z,City.of.Oshawa,72f9a4e7-d89d-418e-9b30-5b5876061280
-78.902103888132629,43.96156835106094,225,CULTURAL HERITAGE,Other Cultural Heritage Assets,Cemeteries,Northern Dancer Gravesite,,,2300 Simcoe St N,Oshawa,Ontario,Canada,L1H 7K4,2017-05-18T17:22:22.439Z,City.of.Oshawa,2017-10-31T19:20:08.541Z,mmandel_oshawa,ae5ec58a-7eef-40df-9f46-f91a624b23b0
-78.912806999929273,43.982094000051802,226,CULTURAL HERITAGE,Other Cultural Heritage Assets,Cemeteries,Bible Christian Cemetery,,HTTP://WWW.OGS.ON.CA/DURHAM/CEMETERIES/BBLCHRIS.HTM,Columbus RD W,Oshawa,Ontario,Canada,,2017-05-18T17:22:22.439Z,City.of.Oshawa,2017-10-31T18:38:55.770Z,mmandel_oshawa,6d3ccfa5-e744-428f-9dee-75579ed2b72b
-78.833220999877838,43.903510000016873,227,CULTURAL HERITAGE,OTHER CULTURAL HERITAGE ASSETS,CEMETERIES,Farewell Memorial,,HTTP://DURHAM.OGS.ON.CA/CEMETERIES/FAREWELL.HTM,HARMONY RD AT KING,OSHAWA,ONTARIO,CANADA,,2017-05-18T17:22:22.439Z,City.of.Oshawa,2017-05-18T17:22:22.439Z,City.of.Oshawa,d6ab3632-d0d0-45b3-b759-8d5e838f2dab
-78.941216999628892,44.014710000218955,228,CULTURAL HERITAGE,Other Cultural Heritage Assets,Cemeteries,Harnden Cemetery,,https://durham.ogs.on.ca/cemeteries/harnden.htm,Raglan Road West,Oshawa,Ontario,Canada,,2017-05-18T17:22:22.439Z,City.of.Oshawa,2017-10-31T18:04:10.088Z,mmandel_oshawa,64fe127a-d3cf-4e1b-8980-27b036f16a3a
-78.878791999743612,44.02907499971765,229,CULTURAL HERITAGE,OTHER CULTURAL HERITAGE ASSETS,CEMETERIES,Mount Carmel Cemetery,,http://www.durhamgen.com/mount/cem.htm,1251 Raglan Road E,Oshawa,Ontario,Canada,L1H 7K4,2017-05-18T17:22:22.439Z,City.of.Oshawa,2017-10-31T18:17:03.727Z,mmandel_oshawa,d752d5d9-1008-403a-b389-2c4822f87676
-78.875168000054757,43.973617999747646,230,CULTURAL HERITAGE,Other Cultural Heritage Assets,Cemeteries,Elim Cemetery ,,HTTP://DURHAM.OGS.ON.CA/CEMETERIES/ELIM.HTM,900 Winchester Rd E,Oshawa,Ontario,Canada,L1H 8L7,2017-05-18T17:22:22.439Z,City.of.Oshawa,2017-10-31T18:59:39.045Z,mmandel_oshawa,8c73e008-18e4-4dd3-8920-6fcc01c48cd7
-78.871084000058332,43.896625999891079,231,CULTURAL HERITAGE,OTHER CULTURAL HERITAGE ASSETS,CEMETERIES,Pioneer Memorial Garden Cemetery,,HTTP://WWW.OGS.ON.CA/DURHAM/CEMETERIES/PIONEER.HTM,185 - 201 BOND ST W,OSHAWA,ONTARIO,CANADA,,2017-05-18T17:22:22.439Z,City.of.Oshawa,2017-07-28T12:53:42.768Z,mmandel_oshawa,b5e8159f-c8ea-477e-beee-68de1f1f8b13
-78.891774000377126,43.891286000218422,232,CULTURAL HERITAGE,OTHER CULTURAL HERITAGE ASSETS,CEMETERIES,Union Cemetery,,,760 KING ST W,OSHAWA,ONTARIO,CANADA,L1J2L2,2017-05-18T17:22:22.439Z,City.of.Oshawa,2017-05-18T17:22:22.439Z,City.of.Oshawa,8e1781f5-c092-4e9e-a937-117bd619e198
-78.90900900016311,43.983087000268014,233,CULTURAL HERITAGE,Other Cultural Heritage Assets,Cemeteries,Methodist Cemetery,,,65 Columbus Rd East,Oshawa,Ontario,Canada,L1H 7K4,2017-05-18T17:22:22.439Z,City.of.Oshawa,2017-10-31T18:35:30.367Z,mmandel_oshawa,fa250cdd-9791-4694-a1e9-955fcef9225a
-78.868960999869273,43.916351000119697,234,CULTURAL HERITAGE,PUBLIC ART,MURALS,The Games,Brianna Chase,,Crosswalk of Athol St and Mary St.,Oshawa,ONTARIO,CANADA,,2017-05-18T17:22:22.439Z,City.of.Oshawa,2017-11-07T21:05:59.498Z,mmandel_oshawa,c5ff0640-040e-471a-86b7-0d64d3e3e9a8
-78.860504999996365,43.897468999729121,235,PUBLIC ART,PUBLIC ART,MURALS,Together Everyone Achieves More,Living Room Community Art Studio,,80 ATHOL ST.,OSHAWA,ONTARIO,CANADA,L1H8B7,2017-05-18T17:22:22.439Z,City.of.Oshawa,2017-10-30T18:35:40.948Z,mmandel_oshawa,ff036751-7853-4339-9ff4-125e777737a9
-78.861930000226508,43.896951999728664,236,PUBLIC ART,PUBLIC ART,MURALS,Borsberry Music Hall,,,32 ATHOL ST E,OSHAWA,ONTARIO,CANADA,L1H4N1,2017-05-18T17:22:22.439Z,City.of.Oshawa,2017-10-30T18:54:57.231Z,mmandel_oshawa,33f42ab3-ae83-44a3-a44c-8e7bc0c489f0
-78.863542999879314,43.894698999814814,237,PUBLIC ART,PUBLIC ART,MURALS,Camp X,,,METCALFE ST,OSHAWA,ONTARIO,CANADA,,2017-05-18T17:22:22.439Z,City.of.Oshawa,2017-10-30T18:39:53.784Z,mmandel_oshawa,c721ac6a-389e-4180-8c6d-23a039ad918e
-78.862664000170426,43.897271999791286,238,PUBLIC ART,PUBLIC ART,MURALS,Driving Force,,,CELINA ST,OSHAWA,ONTARIO,CANADA,,2017-05-18T17:22:22.439Z,City.of.Oshawa,2017-10-30T18:54:52.690Z,mmandel_oshawa,26f077c9-b45d-4b1f-8d81-f40c75b2a2bb
-78.864766000443112,43.899342000059981,239,PUBLIC ART,PUBLIC ART,MURALS,Full Steam Ahead,,,RICHMOND ST,OSHAWA,ONTARIO,CANADA,,2017-05-18T17:22:22.439Z,City.of.Oshawa,2017-10-30T18:33:45.694Z,mmandel_oshawa,44cea5af-5e77-4381-bff0-0629fe6896e9
-78.865892999849081,43.897906000067522,240,CULTURAL HERITAGE,PUBLIC ART,MURALS,General Mortors Of Canada,,,BOND ST,OSHAWA,ONTARIO,CANADA,,2017-05-18T17:22:22.439Z,City.of.Oshawa,2017-05-18T17:22:22.439Z,City.of.Oshawa,c4fe1f2f-02c4-42e2-9e6a-b10296ecf1de
-78.865892999849081,43.897906000067522,241,PUBLIC ART,PUBLIC ART,MURALS,Historical Industry And Labour,,,BOND STREET AND CENTRE,OSHAWA,ONTARIO,CANADA,,2017-05-18T17:22:22.439Z,City.of.Oshawa,2017-10-30T18:34:21.248Z,mmandel_oshawa,1fc59d42-d0c7-4b69-a9f0-b00dabe5ae4c
-78.863653000382484,43.897086000299993,242,PUBLIC ART,PUBLIC ART,MURALS,Kingston Road Stage Coach,,,SIMCOE ST,OSHAWA,ONTARIO,CANADA,,2017-05-18T17:22:22.439Z,City.of.Oshawa,2017-10-30T18:40:11.545Z,mmandel_oshawa,c3d23b88-5280-494e-aecf-ab09f4ddb3f7
-78.862352000000911,43.897859999978536,243,CULTURAL HERITAGE,PUBLIC ART,MURALS,On The Lake (The Argyle),,,KING AND ONTARIO,OSHAWA,ONTARIO,CANADA,,2017-05-18T17:22:22.439Z,City.of.Oshawa,2017-05-18T17:22:22.439Z,City.of.Oshawa,036e20f7-46ac-4154-ba3a-ab1a738a68fb
-78.862204999687805,43.894610000249088,244,PUBLIC ART,PUBLIC ART,MURALS,Ontario Regiment - 130 Years Of Service,,,111 SIMCOE ST S,OSHAWA,ONTARIO,CANADA,L1H7M7,2017-05-18T17:22:22.439Z,City.of.Oshawa,2017-10-30T18:39:17.030Z,mmandel_oshawa,157cc881-7dbe-47b4-8e09-41c128b33284
-78.864733999757732,43.897262000118801,245,PUBLIC ART,PUBLIC ART,MURALS,Oshawa 1935,,,KING ST,OSHAWA,ONTARIO,CANADA,,2017-05-18T17:22:22.439Z,City.of.Oshawa,2017-10-30T18:34:57.228Z,mmandel_oshawa,59b62aae-ad8e-479b-afe0-4a9bd20a3757
-78.86195500034087,43.894375999730805,246,PUBLIC ART,PUBLIC ART,MURALS,Oshawa's 75th Anniversary,,,121 SIMCOE STREET SOUTH,OSHAWA,ONTARIO,CANADA,,2017-05-18T17:22:22.439Z,City.of.Oshawa,2017-10-30T18:38:17.265Z,mmandel_oshawa,03b94960-5892-45a4-9b7d-fc1b3e8be4bc
-78.866584999960224,43.897073000296423,247,PUBLIC ART,PUBLIC ART,MURALS,Oshawa's Famous Generals,,,KING ST,OSHAWA,ONTARIO,CANADA,,2017-05-18T17:22:22.439Z,City.of.Oshawa,2017-10-30T18:34:32.109Z,mmandel_oshawa,7ede7062-e6aa-4691-aea8-14e2dbeadf3b
-78.861879999997797,43.89588200007821,248,PUBLIC ART,PUBLIC ART,MURALS,Recreation By The Lake,,,CELINA ST,OSHAWA,ONTARIO,CANADA,,2017-05-18T17:22:22.439Z,City.of.Oshawa,2017-10-30T18:36:11.661Z,mmandel_oshawa,a1c78c64-a898-4559-9f9c-91263d704a23
-78.863653000382484,43.897086000299993,249,PUBLIC ART,PUBLIC ART,MURALS,Skae's Corners,,,SIMCOE ST,OSHAWA,ONTARIO,CANADA,,2017-05-18T17:22:22.439Z,City.of.Oshawa,2017-10-30T18:40:25.699Z,mmandel_oshawa,e2934907-a4ca-4551-94aa-08d7b46c896e
-78.865901000245017,43.897683999985318,250,PUBLIC ART,PUBLIC ART,MURALS,Victorian Order Of Nurses - 100th Anniversary,,,CENTRE ST BETWEEN BOND AND KING,OSHAWA,ONTARIO,CANADA,,2017-05-18T17:22:22.439Z,City.of.Oshawa,2017-10-30T18:34:14.719Z,mmandel_oshawa,c9176774-edcd-4825-a557-65edbc9ecc37
-78.862350000351086,43.894574999823426,251,CULTURAL HERITAGE,PUBLIC ART,MURALS,Windfields Farm,,,110 SIMCOE ST S,OSHAWA,ONTARIO,CANADA,L1H7M7,2017-05-18T17:22:22.439Z,City.of.Oshawa,2017-05-18T17:22:22.439Z,City.of.Oshawa,33bc0a1e-d264-4e68-b237-947033cc82c7
-78.864979999805016,43.895725999930406,252,PUBLIC ART,PUBLIC ART,SCULPTURE,Upstart II - Clement Meadmore,,WWW.RMG.ON.CA,50 QUEEN ST S,OSHAWA,ONTARIO,CANADA,,2017-05-18T17:22:22.439Z,City.of.Oshawa,2017-08-24T20:18:41.127Z,mmandel_oshawa,ab472c81-c536-4a18-9339-df7135f09929
-78.865821999703982,43.89506399989358,253,PUBLIC ART,PUBLIC ART,SCULPTURE,Silent Bells - Ron Baird,Robert McLaughlin Gallery,WWW.RMG.ON.CA,72 QUEEN ST S,OSHAWA,ONTARIO,CANADA,L1H3Z3,2017-05-18T17:22:22.439Z,City.of.Oshawa,2017-08-24T20:24:23.456Z,mmandel_oshawa,2143b7e9-07bc-4742-ba81-f2f8c77e078f
-78.865821999703982,43.89506399989358,254,PUBLIC ART,PUBLIC ART,SCULPTURE,River Tree/Bench - Reinhard Reitzenstein,Robert McLaughlin Gallery,WWW.RMG.ON.CA,72 QUEEN St S,OSHAWA,ONTARIO,CANADA,L1H3Z3,2017-05-18T17:22:22.439Z,City.of.Oshawa,2017-08-24T20:24:17.655Z,mmandel_oshawa,751fad66-725b-4d1b-96fa-a5093e1065ff
-78.865821999703982,43.89506399989358,255,PUBLIC ART,PUBLIC ART,SCULPTURE,Crown - Douglas Bentham,Robert McLaughlin Gallery,WWW.RMG.ON.CA,72 QUEEN ST.,OSHAWA,ONTARIO,CANADA,L1H3Z3,2017-05-18T17:22:22.439Z,City.of.Oshawa,2017-08-24T20:12:31.253Z,mmandel_oshawa,088c3c00-3157-4585-a0e6-0109fd7b9d48
-78.859168836740807,43.896858330888108,256,PUBLIC ART,PUBLIC ART,SCUPTURE,Reverb - Noel Harding,Robert McLaughlin Gallery,WWW.RMG.ON.CA,99 Athol St. E,OSHAWA,ONTARIO,CANADA,L1H1J8,2017-05-18T17:22:22.439Z,City.of.Oshawa,2017-10-30T18:14:47.270Z,mmandel_oshawa,8fc7666b-2b84-47f8-af4f-fa7abc7a9f53
-78.896182000238625,43.943407000054862,262,PUBLIC ART,PUBLIC ART,SCULPTURE,Circle of Knowledge - Edward Falkenberg,"Durham College , UOIT",,2000 Simcoe St. N,Oshawa,Ontario,Canada,L1H 7K4,2017-05-18T17:22:22.439Z,City.of.Oshawa,2017-10-31T20:06:50.204Z,mmandel_oshawa,63f9985d-b7b6-4249-99bc-4bbe5f534a96
-78.8975389997984,43.945783999942819,263,PUBLIC ART,PUBLIC ART,SCULPTURE,Dr. Gary Polonsky,"Durham College, UOIT",,2000 Simcoe St. N,Oshawa,Ontario,Canada,L1H7K4,2017-05-18T17:22:22.439Z,City.of.Oshawa,2017-10-31T20:07:20.573Z,mmandel_oshawa,c04f0f12-2033-41f2-a040-418837cbbd2d
-78.899015000082173,43.944142999939487,264,PUBLIC ART,PUBLIC ART,SCULPTURE,Gate to the Future - Andre Fournelle,"Durham College, UOIT",,2000 Simcoe St. N,Oshawa,Ontario,Canada,L1H7K4,2017-05-18T17:22:22.439Z,City.of.Oshawa,2017-10-31T20:06:16.503Z,mmandel_oshawa,6400e975-9c8d-4ca8-9147-4e381218bf30
-78.897737999990028,43.945111999725022,265,PUBLIC ART,PUBLIC ART,SCULPTURE,Saskatchewan - Douglas Bentham,"Durham College, UOIT",,2000 Simcoe St. N,Oshawa,Ontario,Canada,L1H7K4,2017-05-18T17:22:22.439Z,City.of.Oshawa,2017-10-31T20:07:05.285Z,mmandel_oshawa,ea110f16-ed84-4c0a-92b8-e677068bf807
-78.89637300003433,43.944387000312084,266,PUBLIC ART,PUBLIC ART,SCULPTURE,Universal Flight - Sam Ferrera,"Durham College, UOIT",,2000 Simcoe St. N,Oshawa,Ontario,Canada,L1H7K4,2017-05-18T17:22:22.439Z,City.of.Oshawa,2017-10-31T20:09:06.382Z,mmandel_oshawa,96687554-dd4a-4ac2-8f14-4b91f591be98
-78.895285000088066,43.943063000281384,267,PUBLIC ART,PUBLIC ART,SCULPTURE,The Compas - Darlene Bolahoold,"Durham College, UOIT",,2000 Simcoe St.N,Oshawa,Ontario,Canada,L1H 7K4,2017-05-18T17:22:22.439Z,City.of.Oshawa,2017-10-31T20:08:14.323Z,mmandel_oshawa,1455ed1d-0812-4ed1-aa3f-f828c88339a8
-78.895279000240293,43.943571999760692,268,PUBLIC ART,PUBLIC ART,SCULPTURE,The Medicine Wheel ,"Durham College, UOIT",,2000 Simcoe St. N,Oshawa,Ontario,Canada,L1H7K4,2017-05-18T17:22:22.439Z,City.of.Oshawa,2017-10-31T20:07:33.858Z,mmandel_oshawa,8aa7df96-d01e-4186-9c64-4fb6a7624780
-78.89682999996883,43.943423000191437,269,PUBLIC ART,PUBLIC ART,SCULPTURE,The Moose - Charles Pachter,"Durham College, UOIT",,2000 Simcoe St. N,Oshawa,Ontario,Canada,L1H7K4,2017-05-18T17:22:22.439Z,City.of.Oshawa,2017-10-31T20:07:58.061Z,mmandel_oshawa,6e551a1c-99c3-4aac-be22-94f5824bc59e
-78.897322000063426,43.940912999775499,270,PUBLIC ART,PUBLIC ART,SCULPTURE,The Portal,"Durham College, UOIT",,2000 Simcoe St. N,Oshawa,Ontario,Canada,L1H 7K4,2017-05-18T17:22:22.439Z,City.of.Oshawa,2017-10-31T20:06:30.490Z,mmandel_oshawa,3f8a3032-11f5-4b44-ac55-522827639dc8
-78.89610500024574,43.945777999726175,271,PUBLIC ART,PUBLIC ART,SCULPTURE,True Power- Geordie Lishman,"Durham College, UOIT",,2000 Simcoe St. N,Oshawa,Ontario,Canada,L1H7K4,2017-05-18T17:22:22.439Z,City.of.Oshawa,2017-10-31T20:08:27.197Z,mmandel_oshawa,d86eb23c-1163-4636-9a0a-c8c79fd79460
-78.896362999988597,43.944835000297218,272,PUBLIC ART,PUBLIC ART,SCULPTURE,Yukon,"Durham College, UOIT",,2000 Simcoe St. N,Oshawa,Ontario,Canada,L1H7K4,2017-05-18T17:22:22.439Z,City.of.Oshawa,2017-10-31T20:08:49.841Z,mmandel_oshawa,91bdda0c-411d-427e-82b0-cbc6c957e180
-78.897387000360752,43.944646000189728,273,PUBLIC ART,PUBLIC ART,SCULPTURE,Nova Scotia - Dawn McNutt,"Durham College, UOIT",,2000 Simcoe St. N,Oshawa,Ontario,Canada,L1H7K4,2017-05-18T17:22:22.439Z,City.of.Oshawa,2017-10-31T20:08:39.709Z,mmandel_oshawa,8a5e45fd-8b3a-4dbc-b010-228f60fd425b
-78.872284999982497,43.900387999910919,274,CULTURAL HERITAGE,PUBLIC ART,SCULPTURE,Mushrooms,City of Oshawa,www.oshawa.ca/publicart,155 ARENA ST,OSHAWA,ONTARIO,CANADA,L1J4E8,2017-05-18T17:22:22.439Z,City.of.Oshawa,2017-05-18T17:22:22.439Z,City.of.Oshawa,5624ce26-afd4-4671-bb34-45a5e38b5868
-78.865821999703982,43.89506399989358,275,PUBLIC ART,PUBLIC ART,SCULPTURE,Group Portrait 1957 - Douglas Coupland,,WWW.RMG.ON.CA,"72 Queen St, Oshawa",OSHAWA,ONTARIO,CANADA,,2017-05-18T17:22:22.439Z,City.of.Oshawa,2017-08-24T20:12:27.198Z,mmandel_oshawa,cb0833a4-92ed-4137-90e0-ab2b91a43ebe
-78.864979999805016,43.895725999930406,276,PUBLIC ART,PUBLIC ART,SCULPTURE,Oshawa Rising - Ron Baird,,WWW.RMG.ON.CA,50 QUEEN ST S,OSHAWA,ONTARIO,CANADA,,2017-05-18T17:22:22.439Z,City.of.Oshawa,2017-08-24T20:19:48.406Z,mmandel_oshawa,11a61f15-0351-460c-ad4e-5f2b48fb8b41
-78.865821999703982,43.89506399989358,277,PUBLIC ART,PUBLIC ART,SCULPTURE,Grace - Mary Ann Barkhouse,,WWW.RMG.ON.CA,"72 Queen St, Oshawa",OSHAWA,ONTARIO,CANADA,,2017-05-18T17:22:22.439Z,City.of.Oshawa,2017-08-24T20:12:21.490Z,mmandel_oshawa,984f012f-11e6-49cb-acbe-16321d367865
-78.844374999875043,43.870015999769677,278,FESTIVALS AND EVENTS,ABORIGINAL FESTIVALS & EVENTS,ABORIGINAL FESTIVALS & EVENTS,Big Drum Socials & Other Aboriginal Events & Festivals,Oshawa Community Health Centre,WWW.OCHC.CA,115 GRASSMERE AVE,OSHAWA,ONTARIO,CANADA,L1H3X7,2017-05-18T17:22:22.439Z,City.of.Oshawa,2017-05-18T17:22:22.439Z,City.of.Oshawa,6d9fd4b8-4b10-45ab-b46a-ecd50564e6d9
-78.862350000351086,43.894574999823426,279,FESTIVALS AND EVENTS,ABORIGINAL FESTIVALS & EVENTS,ABORIGINAL FESTIVALS & EVENTS,Metis Festival,Oshawa and Durham Métis Council,WWW.OSHAWADURHAMMETIS.COM,110 SIMCOE ST S,OSHAWA,ONTARIO,CANADA,L1H7M7,2017-05-18T17:22:22.439Z,City.of.Oshawa,2017-05-18T17:22:22.439Z,City.of.Oshawa,db5fc665-0b85-429c-b773-903e03c8eb89
-78.828103000361835,43.865073000238375,280,FESTIVALS AND EVENTS,CELEBRATIONS,HOLIDAY CELEBRATION,Canada Day Celebration,City of Oshawa,WWW.OSHAWA.CA/CULTURECOUNTS,1500 SIMCOE ST S,OSHAWA,ONTARIO,CANADA,L1J8S7,2017-05-18T17:22:22.439Z,City.of.Oshawa,2017-05-18T17:22:22.439Z,City.of.Oshawa,845d089c-f395-49f9-9057-895252158c5a
-78.827520999855551,43.863959000105069,281,FESTIVALS AND EVENTS,CELEBRATIONS,HOLIDAY CELEBRATION,Christmas Lamplight Tour,Oshawa Community Museum,WWW.OSHAWAMUSEUM.ORG,1446 SIMCOE ST S,OSHAWA,ONTARIO,CANADA,L1J8S8,2017-05-18T17:22:22.439Z,City.of.Oshawa,2017-05-18T17:22:22.439Z,City.of.Oshawa,de725ad1-db66-4159-bd6e-5390991ab57b
-78.82689099966872,43.863894000177751,282,FESTIVALS AND EVENTS,CELEBRATIONS,HOLIDAY CELEBRATION,Family Day At The Museum,Oshawa Community Museum,WWW.OSHAWAMUSEUM.ORG,1450 SIMCOE ST S,OSHAWA,ONTARIO,CANADA,L1H8S8,2017-05-18T17:22:22.439Z,City.of.Oshawa,2017-05-18T17:22:22.439Z,City.of.Oshawa,e48b79c0-10c3-4c57-a579-b281a3278cef
-78.878694999659245,43.879894000130463,283,FESTIVALS AND EVENTS,CELEBRATIONS,HOLIDAY CELEBRATION,Holiday Train,Canadian Pacific Railway,WWW.CPR.CA/EN/MOBILE/PAGES/HOLIDAY-TRAIN.ASPX,680 LAVAL DR,OSHAWA,ONTARIO,CANADA,L1J0B5,2017-05-18T17:22:22.439Z,City.of.Oshawa,2017-05-18T17:22:22.439Z,City.of.Oshawa,1173e8b4-dda9-49dd-afea-63fcf6a394fb
-78.862350000351086,43.894574999823426,284,FESTIVALS AND EVENTS,CELEBRATIONS,SEASONAL CELEBRATIONS,Annual Tree Lighting Event,City of Oshawa,WWW.OSHAWA.CA/CULTURECOUNTS,110 SIMCOE ST S,OSHAWA,ONTARIO,CANADA,L1H7M7,2017-05-18T17:22:22.439Z,City.of.Oshawa,2017-05-18T17:22:22.439Z,City.of.Oshawa,b812d551-6c1d-4545-969b-87c3efe13df0
-78.853115622484154,43.947944362664565,286,FESTIVALS AND EVENTS,CELEBRATIONS,SEASONAL CELEBRATIONS,Oshawa Celebrates (New Years Event),City of Oshawa,WWW.OSHAWA.CA,1661 HARMONY RD N,Oshawa,Ontario,Canada,L1H 7K5,2017-05-18T17:22:22.439Z,City.of.Oshawa,2017-11-07T19:14:58.961Z,mmandel_oshawa,a5c4664e-a611-4a3c-b28f-ab63e2678f75
-78.865893999674014,43.899007999822317,287,FESTIVALS AND EVENTS,CELEBRATIONS,SEASONAL CELEBRATIONS,Santa's Parade Of Lights,Santa's Parade of Lights Committee,HTTP://OSHAWASANTACLAUSPARADE.ORG/INDEX.HTM,44 RICHMOND ST W,OSHAWA,ONTARIO,CANADA,L1G1C7,2017-05-18T17:22:22.439Z,City.of.Oshawa,2017-05-18T17:22:22.439Z,City.of.Oshawa,cb06f92c-3fd0-4dfa-bdb4-04c6b0a68aea
-78.856328000113535,43.890619000278321,288,FESTIVALS AND EVENTS,CHARITABLE EVENTS ,RUNS AND WALKS ,Coldest Night Of The Year Walk,The Refuge,WWW.REFUGEOUTREACH.COM,300 COURT ST,OSHAWA,ONTARIO,CANADA,L1H4X3,2017-05-18T17:22:22.439Z,City.of.Oshawa,2017-05-18T17:22:22.439Z,City.of.Oshawa,ea5c8dfc-0cac-4d77-bc29-e83000eb0ace
-78.857847999879937,43.885173999678486,289,FESTIVALS AND EVENTS,CHARITABLE EVENTS ,RUNS AND WALKS ,Korean Veterans Appreciation Day,Royal Canadian Legion Oshawa Branch 606 and 43,,471 SIMCOE ST S,OSHAWA,ONTARIO,CANADA,L1H4J7,2017-05-18T17:22:22.439Z,City.of.Oshawa,2017-05-18T17:22:22.439Z,City.of.Oshawa,b81d574c-a336-47c2-b25b-05aa541cda59
-78.871539000342992,43.895857000310279,290,FESTIVALS AND EVENTS,CHARITABLE EVENTS ,RUNS AND WALKS ,Oshawa Kicks 5K Run,Oshawa Kicks,WWW.OSHAWAKICKS.COM,212 KING ST W,OSHAWA,ONTARIO,CANADA,L1J2S2,2017-05-18T17:22:22.439Z,City.of.Oshawa,2017-05-18T17:22:22.439Z,City.of.Oshawa,4ff3b227-1fbe-4e2a-a772-a637c03ba089
-78.856328000113535,43.890619000278321,291,FESTIVALS AND EVENTS,CHARITABLE EVENTS ,RUNS AND WALKS ,Refuge Run Quarter Marathon,The Refuge,WWW.REFUGEOUTREACH.COM,300 COURT ST,OSHAWA,ONTARIO,CANADA,L1H4X3,2017-05-18T17:22:22.439Z,City.of.Oshawa,2017-05-18T17:22:22.439Z,City.of.Oshawa,f3e9d07b-48e2-4a72-80e4-1038728fb593
-78.859395000308794,43.888628000139256,292,FESTIVALS AND EVENTS,CHARITABLE EVENTS ,RUNS AND WALKS ,Ride With The Mayor(s),United Way,WWW.UNITEDWAYDR.COM,345 SIMCOE ST S,OSHAWA,ONTARIO,CANADA,L1H4J2,2017-05-18T17:22:22.439Z,City.of.Oshawa,2017-05-18T17:22:22.439Z,City.of.Oshawa,9d5f28f0-d294-4313-a1ac-cdc276d5efcb
-78.828103000361835,43.865073000238375,293,FESTIVALS AND EVENTS,CHARITABLE EVENTS ,RUNS AND WALKS ,Run For The Cure,Canadian Breast Cancer Foundation,RUNFORTHECURE.COM,1500 SIMCOE ST S,OSHAWA,ONTARIO,CANADA,L1J8S7,2017-05-18T17:22:22.439Z,City.of.Oshawa,2017-05-18T17:22:22.439Z,City.of.Oshawa,102bc6a4-e3bf-4d8e-835e-5800c8cf9709
-78.862163999679936,43.894520999903044,294,FESTIVALS AND EVENTS,CHARITABLE EVENTS ,RUNS AND WALKS ,Walk With Me So They Can Be Free,Catholic Family Services of Durham,WWW.CFSDURHAM.COM/ENGLISH/WALKATHON_2013.HTML,115 SIMCOE ST,OSHAWA,ONTARIO,CANADA,L1H4G7,2017-05-18T17:22:22.439Z,City.of.Oshawa,2017-05-18T17:22:22.439Z,City.of.Oshawa,408248d2-9031-40d9-982e-e82bb1c88c32
-78.865124999569971,43.895858999903687,295,FESTIVALS AND EVENTS,CULTURAL HERITAGE FESTIVALS & EVENTS,CULTURAL HERITAGE FESTIVALS & EVENTS,Doors Open Oshawa,Heritage Oshawa,WWW.HERITAGEOSHAWA.CA,50 CENTRE ST ,OSHAWA,ONTARIO,CANADA,L1H3Z7,2017-05-18T17:22:22.439Z,City.of.Oshawa,2017-05-18T17:22:22.439Z,City.of.Oshawa,483ff4f6-a8bb-48f8-9a15-f7317af067b4
-78.82689099966872,43.863894000177751,296,FESTIVALS AND EVENTS,CULTURAL HERITAGE FESTIVALS & EVENTS,CULTURAL HERITAGE FESTIVALS & EVENTS,Oshawa Historical Society Speaker Series,Oshawa Historical Society,WWW.OSHAWAHISTORICALSOCIETY.ORG,1450 SIMCOE ST S,OSHAWA,ONTARIO,CANADA,L1H8S8,2017-05-18T17:22:22.439Z,City.of.Oshawa,2017-05-18T17:22:22.439Z,City.of.Oshawa,3af27c45-8735-4d13-9ba7-b5be8cbb4995
-78.894657618975202,43.91642506026178,297,FESTIVALS AND EVENTS,CULTURAL HERITAGE FESTIVALS & EVENTS,CULTURAL HERITAGE FESTIVALS & EVENTS,Tank Saturdays,Ontario Regiment Museum,WWW.ONTRMUSEUM.CA,1000 Stevenson Rd N,Oshawa,Ontario,Canada,L1J 5P5,2017-05-18T17:22:22.439Z,City.of.Oshawa,2017-11-07T19:40:35.029Z,mmandel_oshawa,ccf0c935-af73-443e-a6f5-f21879755fd8
-78.827520999855551,43.863959000105069,298,FESTIVALS AND EVENTS,CULTURAL HERITAGE FESTIVALS & EVENTS,CULTURAL HERITAGE FESTIVALS & EVENTS,Victorian Summer Teas ,Oshawa Community Museum,WWW.OSHAWAMUSEUM.ORG,1446 SIMCOE ST S,OSHAWA,ONTARIO,CANADA,L1J8S8,2017-05-18T17:22:22.439Z,City.of.Oshawa,2017-05-18T17:22:22.439Z,City.of.Oshawa,a8bfa597-98de-4af0-a32a-78f765e1dacb
-78.891774000377126,43.891286000218422,299,FESTIVALS AND EVENTS,CULTURAL HERITAGE FESTIVALS & EVENTS,CULTURAL HERITAGE FESTIVALS & EVENTS,"Union Cemetery Tours
",Oshawa Community Museum,WWW.OSHAWAMUSEUM.ORG,760 KING ST W,OSHAWA,ONTARIO,CANADA,L1J5Y1,2017-05-18T17:22:22.439Z,City.of.Oshawa,2017-05-18T17:22:22.439Z,City.of.Oshawa,4d129088-15a8-4420-b293-4595a8896eb3
-78.865124999569971,43.895858999903687,300,FESTIVALS AND EVENTS,CULTURAL HERITAGE FESTIVALS & EVENTS,CULTURAL HERITAGE FESTIVALS & EVENTS,Heritage Week,,,50 CENTRE ST ,OSHAWA,ONTARIO,CANADA,L1H3Z7,2017-05-18T17:22:22.439Z,City.of.Oshawa,2017-05-18T17:22:22.439Z,City.of.Oshawa,87633911-7969-4fde-80d5-882f5d3446d8
-78.864997000421766,43.895155999824667,301,FESTIVALS AND EVENTS,"FARM EVENTS
",,From Country To City,Oshawa Public Libraries,WWW.OSHAWALIBRARY.ON.CA,65 BAGOT ST,OSHAWA,ONTARIO,CANADA,L1H1N2,2017-05-18T17:22:22.439Z,City.of.Oshawa,2017-05-18T17:22:22.439Z,City.of.Oshawa,95b0c07a-0772-48de-852f-055af07f907b
-78.853092184389908,43.947931415859131,302,FESTIVALS AND EVENTS,"FARM EVENTS
",FARMER'S MARKETS,North Oshawa Farmer's Market,North Oshawa Farmer's Market,http://www.northoshawafarmersmarket.ca,1661 HARMONY RD N,Oshawa,Ontario,Canada,L1H 7K5,2017-05-18T17:22:22.439Z,City.of.Oshawa,2017-11-07T19:21:23.901Z,mmandel_oshawa,34cef48a-9023-4524-abcf-2c4a18d99bc6
-78.879851000275863,43.893810999776534,303,FESTIVALS AND EVENTS,"FARM EVENTS
",FARMER'S MARKETS,Oshawa Centre Farmer's Market,Durham Farm Fresh,http://durhamfarmfresh.ca/member_categories/farmers-market/,"419 KING ST W
",OSHAWA,ONTARIO,CANADA,L1J2K5,2017-05-18T17:22:22.439Z,City.of.Oshawa,2017-05-18T17:22:22.439Z,City.of.Oshawa,17553f61-7e19-4002-a075-29fb1d8c9003
-78.839181718323232,43.941130262499769,304,FESTIVALS AND EVENTS,FILM FESTIVALS & EVENTS,,Cinefest,Oshawa Public Libraries,WWW.OSHLIB.CA/CINEFEST,1351 Grandview St N,Oshawa,Ontario,Canada,L1K 0G1,2017-05-18T17:22:22.439Z,City.of.Oshawa,2017-11-14T14:06:35.999Z,mmandel_oshawa,a939d56d-60da-4bcc-9f28-806a9fe6ecab
-78.861577000049081,43.898079999885731,305,FESTIVALS AND EVENTS,FILM FESTIVALS & EVENTS,,Classic Movie Nights,Regent Theatre,http://regenttheatre.ca/,50 KING ST E,OSHAWA,ONTARIO,CANADA,L1H1B3,2017-05-18T17:22:22.439Z,City.of.Oshawa,2017-05-18T17:22:22.439Z,City.of.Oshawa,88097adf-51a0-4f3c-bddc-54cef1d7768f
-78.864997000421766,43.895155999824667,306,FESTIVALS AND EVENTS,FILM FESTIVALS & EVENTS,,Film Festivals (McLaughlin Branch),Oshawa Public Libraries,WWW.OSHAWALIBRARY.ON.CA,65 BAGOT ST,OSHAWA,ONTARIO,CANADA,L1H1N2,2017-05-18T17:22:22.439Z,City.of.Oshawa,2017-05-18T17:22:22.439Z,City.of.Oshawa,5cbdf1bc-b578-4cf8-a076-4f78c89dca89
-78.828103000361835,43.865073000238375,307,FESTIVALS AND EVENTS,FOOD & WINE,FOOD FESTIVALS,Ribfest,Rotary Club of Oshawa,WWW.OSHAWARIBFEST.COM,1500 SIMCOE ST S,OSHAWA,ONTARIO,CANADA,L1J8S7,2017-05-18T17:22:22.439Z,City.of.Oshawa,2017-05-18T17:22:22.439Z,City.of.Oshawa,b5f90a43-67dc-4e78-8215-6b6a9b6e8012
-78.864997000421766,43.895155999824667,308,FESTIVALS AND EVENTS,"LITERARY FESTIVALS & EVENTS
",,Author Visits & Readings (Library),Oshawa Public Libraries,WWW.OSHAWALIBRARY.ON.CA,65 BAGOT ST,OSHAWA,ONTARIO,CANADA,L1H1N2,2017-05-18T17:22:22.439Z,City.of.Oshawa,2017-05-18T17:22:22.439Z,City.of.Oshawa,ade2879b-c702-461a-9d6c-cb3e2e633bde
-78.864997000421766,43.895155999824667,309,FESTIVALS AND EVENTS,"LITERARY FESTIVALS & EVENTS
",,Darklit Festival (Library),Oshawa Public Libraries,WWW.OSHAWALIBRARY.ON.CA,65 BAGOT ST,OSHAWA,ONTARIO,CANADA,L1H1N2,2017-05-18T17:22:22.439Z,City.of.Oshawa,2017-05-18T17:22:22.439Z,City.of.Oshawa,7024f980-e762-4dc3-b016-f92b0c3a8fa8
-78.864997000421766,43.895155999824667,310,FESTIVALS AND EVENTS,"LITERARY FESTIVALS & EVENTS
",,Pass The Book Community Read (Library),Pass the Book: Durham Reads,WWW.PASSTHEBOOK.CA,65 BAGOT ST,OSHAWA,ONTARIO,CANADA,L1H1N2,2017-05-18T17:22:22.439Z,City.of.Oshawa,2017-05-18T17:22:22.439Z,City.of.Oshawa,70b71c49-ef16-4b5e-9747-f816cee36ff8
-78.864997000421766,43.895155999824667,311,FESTIVALS AND EVENTS,"LITERARY FESTIVALS & EVENTS
",,Seniors' Writing Competition (Library),Oshawa Public Libraries,WWW.OSHAWALIBRARY.ON.CA,65 BAGOT ST,OSHAWA,ONTARIO,CANADA,L1H1N2,2017-05-18T17:22:22.439Z,City.of.Oshawa,2017-05-18T17:22:22.439Z,City.of.Oshawa,1a82a3b5-0511-47d0-a7cf-9cff6ef4c4a7
-78.864997000421766,43.895155999824667,312,FESTIVALS AND EVENTS,"LITERARY FESTIVALS & EVENTS
",,Summer Reading Club (Library),Oshawa Public Libraries,WWW.OSHAWALIBRARY.ON.CA,65 BAGOT ST,OSHAWA,ONTARIO,CANADA,L1H1N2,2017-05-18T17:22:22.439Z,City.of.Oshawa,2017-05-18T17:22:22.439Z,City.of.Oshawa,821cd6ff-ae66-4412-a194-28d495187d3e
-78.864997000421766,43.895155999824667,313,FESTIVALS AND EVENTS,"LITERARY FESTIVALS & EVENTS
",,Teen Writing Competition (Library),Oshawa Public Libraries,WWW.OSHAWALIBRARY.ON.CA,65 BAGOT ST,OSHAWA,ONTARIO,CANADA,L1H1N2,2017-05-18T17:22:22.439Z,City.of.Oshawa,2017-05-18T17:22:22.439Z,City.of.Oshawa,3bfd26f6-056b-4e17-9824-adaed59b59eb
-78.86341900003076,43.894590000008371,314,FESTIVALS AND EVENTS,MUSIC FESTIVALS AND EVENTS,,Concerts In The Park,City of Oshawa,WWW.OSHAWA.CA/CULTURECOUNTS,53 METCALFE ST,OSHAWA,ONTARIO,CANADA,,2017-05-18T17:22:22.439Z,City.of.Oshawa,2017-05-18T17:22:22.439Z,City.of.Oshawa,df15895d-d085-445c-a9cb-ea89db6e7bf3
-78.86341900003076,43.894590000008371,315,FESTIVALS AND EVENTS,MUSIC FESTIVALS AND EVENTS,,Irie Festival,,,53 METCALFE ST,OSHAWA,ONTARIO,CANADA,,2017-05-18T17:22:22.439Z,City.of.Oshawa,2017-05-18T17:22:22.439Z,City.of.Oshawa,71685c30-05a2-4af4-b3fb-ea80a77cb7f6
-78.960802000282982,43.875751000148433,316,FESTIVALS AND EVENTS,MUSIC FESTIVALS AND EVENTS,,Oshawa-Whitby Kiwanis Music Festival,Oshawa-Whitby Kiwanis Club,WWW.OSHAWAWHITBYKIFEST.CA,910 DUNDAS ST W,OSHAWA,ONTARIO,CANADA,L1P1P7,2017-05-18T17:22:22.439Z,City.of.Oshawa,2017-05-18T17:22:22.439Z,City.of.Oshawa,5ff9956f-28ec-4eae-822b-e945e6d66336
-78.872576000235625,43.900203999891637,317,FESTIVALS AND EVENTS,NATURAL HERITAGE FESTIVALS AND EVENTS,,Peony Festival,City of Oshawa,WWW.OSHAWA.CA/CULTURECOUNTS,155 ARENA ST,OSHAWA,ONTARIO,CANADA,L1J4E8,2017-05-18T17:22:22.439Z,City.of.Oshawa,2017-05-18T17:22:22.439Z,City.of.Oshawa,f3725cba-b2f7-4741-a444-7557657c529b
-78.919568999958514,44.037152999696573,318,FESTIVALS AND EVENTS,NATURAL HERITAGE FESTIVALS AND EVENTS,,Purple Woods Maple Syrup Festival,Central Lake Ontario Conservation,http://www.cloca.com/msf/,"38 Coates Road, East Oshawa",Oshawa,Ontario,Canada,L1H3T3,2017-05-18T17:22:22.439Z,City.of.Oshawa,2017-10-31T17:57:20.599Z,mmandel_oshawa,4107cdb8-a090-4ab4-b17d-05aee86c9c75
-78.863620999697119,43.89759099998485,319,FESTIVALS AND EVENTS,STREET FESTIVALS AND EVENTS,,Autofest Kick Off ,Downtown Oshawa Business Improvement Area,WWW.DOWNTOWNOSHAWA.CA,SIMCOE ST AND KING ST,OSHAWA,ONTARIO,CANADA,,2017-05-18T17:22:22.439Z,City.of.Oshawa,2017-05-18T17:22:22.439Z,City.of.Oshawa,2ef4a0f3-0dad-46c3-a8fe-2fee2e60c102
-78.863930000391917,43.898475999741699,320,FESTIVALS AND EVENTS,STREET FESTIVALS AND EVENTS,,Bikes On Bond,Downtown Oshawa Business Improvement Area,WWW.DOWNTOWNOSHAWA.CA,BOND ST FROM MARY TO SIMCOE,OSHAWA,ONTARIO,CANADA,,2017-05-18T17:22:22.439Z,City.of.Oshawa,2017-05-18T17:22:22.439Z,City.of.Oshawa,7568b27c-d385-42dc-9808-66c20eec2311
-78.864979999805016,43.895725999930406,321,FESTIVALS AND EVENTS,STREET FESTIVALS AND EVENTS,,Show & Shine,Downtown Oshawa Business Improvement Area,WWW.DOWNTOWNOSHAWA.CA,50 Centre Street ,OSHAWA,ONTARIO,CANADA,,2017-05-18T17:22:22.439Z,City.of.Oshawa,2017-05-18T17:22:22.439Z,City.of.Oshawa,747cce0c-13b9-4122-aa04-1c2d0d8d22ef
-78.865821999703982,43.89506399989358,322,FESTIVALS AND EVENTS,VISUAL ARTS FESTIVALS AND EVENTS,,Oshawa Senior Citizens Annual Exhibition,"Oshawa Senior Citizens Centres, Oshawa Public Libraries, Robert McLaughlin Gallery",,72 QUEEN ST,OSHAWA,ONTARIO,CANADA,L1H3Z3,2017-05-18T17:22:22.439Z,City.of.Oshawa,2017-05-18T17:22:22.439Z,City.of.Oshawa,1ef51640-2616-4d23-be6e-55bcd48afa0f
-78.867821999869392,43.900421000068839,323,FESTIVALS AND EVENTS,VISUAL ARTS FESTIVALS AND EVENTS,,Artists In The Garden,Hearth Place Cancer Support Centre,WWW.HEARTHPLACE.ORG,86 COLBORNE ST W,OSHAWA,ONTARIO,CANADA,"L1G1L7
",2017-05-18T17:22:22.439Z,City.of.Oshawa,2017-05-18T17:22:22.439Z,City.of.Oshawa,a7657429-bb35-4655-bd76-ffa546656f39
-78.865821999703982,43.89506399989358,324,FESTIVALS AND EVENTS,VISUAL ARTS FESTIVALS AND EVENTS,,Oshawa Spring Studio Tour,Oshawa Art Association,WWW.OSHAWAARTASSOCIATION.COM ,,OSHAWA,ONTARIO,CANADA,L1J8L8,2017-05-18T17:22:22.439Z,City.of.Oshawa,2017-05-18T17:22:22.439Z,City.of.Oshawa,70d8975a-583d-4da1-ade2-c6ac6af9a1e1
-78.865821999703982,43.89506399989358,326,FESTIVALS AND EVENTS,VISUAL ARTS FESTIVALS AND EVENTS,,Durham Aids Annual Exhibition,,,72 QUEEN ST,OSHAWA,ONTARIO,CANADA,L1H3Z3,2017-05-18T17:22:22.439Z,City.of.Oshawa,2017-05-18T17:22:22.439Z,City.of.Oshawa,60a88730-2b45-43a1-93fe-a9dba769aab3
-78.865821999703982,43.89506399989358,327,FESTIVALS AND EVENTS,VISUAL ARTS FESTIVALS AND EVENTS,,OPG Second Sundays,Robert McLaughlin Gallery,WWW.RMG.ON.CA,72 QUEEN ST,OSHAWA,ONTARIO,CANADA,L1H3Z3,2017-05-18T17:22:22.439Z,City.of.Oshawa,2017-05-18T17:22:22.439Z,City.of.Oshawa,a4bf502d-b5bb-4775-9b2c-7fcf0bb6d3d6
-78.865821999703982,43.89506399989358,328,FESTIVALS AND EVENTS,VISUAL ARTS FESTIVALS AND EVENTS,,RMG First Fridays,Robert McLaughlin Gallery,WWW.RMG.ON.CA,73 QUEEN ST,OSHAWA,ONTARIO,CANADA,L1H3Z4,2017-05-18T17:22:22.439Z,City.of.Oshawa,2017-05-18T17:22:22.439Z,City.of.Oshawa,3a777a33-130d-4f87-80ed-6b7184d2f912
-78.864997000421766,43.895155999824667,329,FESTIVALS AND EVENTS,VISUAL ARTS FESTIVALS AND EVENTS,,Seniors' Juried Art Show,Oshawa Public Libraries,WWW.OSHAWALIBRARY.ON.CA,65 BAGOT ST,OSHAWA,ONTARIO,CANADA,L1H1N2,2017-05-18T17:22:22.439Z,City.of.Oshawa,2017-05-18T17:22:22.439Z,City.of.Oshawa,cb7a0f4d-747c-468f-a76a-f0ea4945572f
-78.865821999703982,43.89506399989358,330,FESTIVALS AND EVENTS,"VISUAL ARTS FESTIVALS AND EVENTS
",,Juried Art Exhibition,Robert McLaughlin Gallery,WWW.RMG.ON.CA,72 QUEEN ST,OSHAWA,ONTARIO,CANADA,L1H3Z3,2017-05-18T17:22:22.439Z,City.of.Oshawa,2017-05-18T17:22:22.439Z,City.of.Oshawa,c6e9a379-0e61-440c-8962-c5c127feb775
-78.828103000361835,43.865073000238375,331,FESTIVALS AND EVENTS,OTHER FESTIVALS AND EVENTS,,Autofest,Auto Fest Oshawa,WWW.AUTOFESTOSHAWA.COM,Lakeview Park,OSHAWA,ONTARIO,CANADA,L1J8L6,2017-05-18T17:22:22.439Z,City.of.Oshawa,2017-05-18T17:22:22.439Z,City.of.Oshawa,93392728-5fe9-4910-9d4e-8869f1445449
-78.870445693587001,43.928285905855731,332,FESTIVALS AND EVENTS,OTHER FESTIVALS AND EVENTS,SEASONAL CELEBRATIONS,Deck The Halls ,City of Oshawa,www.oshawa.ca,150 Beatrice St,Oshawa,Ontario,Canada,L1G 7T6,2017-05-18T17:22:22.439Z,City.of.Oshawa,2017-11-07T20:18:33.479Z,mmandel_oshawa,b42ca034-bcd7-4f94-bcf9-d134b0dddbbd
-78.828103000361835,43.865073000238375,333,FESTIVALS AND EVENTS,OTHER FESTIVALS AND EVENTS,,Driftwood Theatre In The Park ,Driftwood Theatre,HTTP://WWW.DRIFTWOODTHEATRE.COM/BARDS-BUS-TOUR/BARDS-BUS-TOUR-DATES/ ,1500 SIMCOE ST S,OSHAWA,ONTARIO,CANADA,,2017-05-18T17:22:22.439Z,City.of.Oshawa,2017-05-18T17:22:22.439Z,City.of.Oshawa,9a8c5574-f7be-4fce-bee7-512fc76698e4
-78.828103000361835,43.865073000238375,334,FESTIVALS AND EVENTS,OTHER FESTIVALS AND EVENTS,,Fireworks Festival 2014,,OSHAWOW.CA,1500 SIMCOE ST S,OSHAWA,ONTARIO,CANADA,L1J8S7,2017-05-18T17:22:22.439Z,City.of.Oshawa,2017-05-18T17:22:22.439Z,City.of.Oshawa,079c4aeb-1245-49c9-b2c2-74c824e48975
-78.870452451271731,43.928281267554453,335,FESTIVALS AND EVENTS,OTHER FESTIVALS AND EVENTS,,Northview Community BBQ,City of Oshawa,www.oshawa.ca,150 Beatrice St,Oshawa,Ontario,Canada,L1G 7T6,2017-05-18T17:22:22.439Z,City.of.Oshawa,2017-11-07T20:20:18.006Z,mmandel_oshawa,8f3c12d6-e8cb-4fca-b74e-7ffa1b0462ec
-78.862350000351086,43.894574999823426,336,FESTIVALS AND EVENTS,OTHER FESTIVALS AND EVENTS,,Oshawa Children's Community Fair,Oshawa Community Health Centre,WWW.OCHC.CA,110 SIMCOE ST S,OSHAWA,ONTARIO,CANADA,L1H7M7,2017-05-18T17:22:22.439Z,City.of.Oshawa,2017-05-18T17:22:22.439Z,City.of.Oshawa,3f1b4b24-612b-49d7-ae96-2f8fce0fac3f
-78.881314999965753,43.893618000021249,337,FESTIVALS AND EVENTS,OTHER FESTIVALS AND EVENTS,,Pride Parade/Queerstock,Pride Durham,WWW.PRIDEDURHAM.COM/,470 KING ST W,Oshawa,Ontario,Canada,L1H6E9,2017-05-18T17:22:22.439Z,City.of.Oshawa,2017-11-28T17:51:21.955Z,mmandel_oshawa,5e2e6860-fb15-42ea-bb24-6fbfab647a60
-78.862408000077394,43.894899000259201,338,FESTIVALS AND EVENTS,OTHER FESTIVALS AND EVENTS,,Remembrance Day,,,,OSHAWA,ONTARIO,CANADA,,2017-05-18T17:22:22.439Z,City.of.Oshawa,2017-05-18T17:22:22.439Z,City.of.Oshawa,69273578-c48a-458c-bd56-7cd91a6576a2
-78.862350000351086,43.894574999823426,339,FESTIVALS AND EVENTS,OTHER FESTIVALS AND EVENTS,,Swing Into Summer,Oshawa Senior Citizens Centres,WWW.OSCC.CA,110 SIMCOE ST S,OSHAWA,ONTARIO,CANADA,L1H7M7,2017-05-18T17:22:22.439Z,City.of.Oshawa,2017-05-18T17:22:22.439Z,City.of.Oshawa,35f90a1e-0c41-451d-8945-0d95b9f78623
-78.855076999960673,43.882190999912915,340,FESTIVALS AND EVENTS,OTHER FESTIVALS AND EVENTS,,JCI Durham Ocktoberfest,JCI Durham,HTTP://WWW.DURHAMOKTOBERFEST.COM/,38 LVIV BLVD,OSHAWA,ONTARIO,CANADA,L1H3C3,2017-05-18T17:22:22.439Z,City.of.Oshawa,2017-05-18T17:22:22.439Z,City.of.Oshawa,2d3592ff-1bd6-4167-9f0a-1bcb5d4b5947
-78.891018999618481,43.944340999926155,341,FESTIVALS AND EVENTS,OTHER FESTIVALS AND EVENTS,,ScrapFest,ScrapFest,WWW.SCRAPFEST.CA,2000 SIMCOE ST N,OSHAWA,ONTARIO,CANADA,L1H7K4,2017-05-18T17:22:22.439Z,City.of.Oshawa,2017-05-18T17:22:22.439Z,City.of.Oshawa,188558f1-3cec-40bf-8432-1ebdd09239c4
-78.898285000336216,44.042277000155558,342,NATURAL HERITAGE,Parks,,Purple Woods Conservation Area,,http://www.cloca.com/con_areas/CApurplewoods.php,38 Coates Road East,Oshawa,Ontario,Canada,L1H 3T3,2017-05-18T17:22:22.439Z,City.of.Oshawa,2017-10-31T17:55:38.833Z,mmandel_oshawa,5e5f79fa-3fa2-444a-ac30-8c33ad6bfa7c
-78.867620000203033,43.90472199980843,343,NATURAL HERITAGE,GARDENS,,Parkwood Estate,,http://www.parkwoodestate.com/,270 Simcoe Street N.,OSHAWA,ONTARIO,CANADA,,2017-05-18T17:22:22.439Z,City.of.Oshawa,2017-05-18T17:22:22.439Z,City.of.Oshawa,a9c734fd-151d-4a27-a281-b3d375ea00f4
-78.872576000235625,43.900203999891637,344,NATURAL HERITAGE,GARDENS,CITY PARK,Oshawa Valley Botanical Gardens,,Oshawa.ca,155 ARENA ST,OSHAWA,ONTARIO,CANADA,L1J 4E8,2017-05-18T17:22:22.439Z,City.of.Oshawa,2017-11-28T18:04:19.550Z,mmandel_oshawa,c3dee7d1-f64d-458d-9ada-d4e7722c9a89
-78.853117441386601,43.947939632567575,345,NATURAL HERITAGE,GARDENS,COMMUNITY GARDEN,Legends Community Garden,,https://www.oshawa.ca/Modules/Facilities/Detail.aspx?CategoryIds=23&FacilityTypeIds=&Keywords=&ScrollMap=true&id=1a95f281-b3dd-4a38-a5ff-43cab84b8054,1661 Harmony Rd N,Oshawa,Ontario,Canada,,2017-05-18T17:22:22.439Z,City.of.Oshawa,2017-11-07T19:09:59.995Z,mmandel_oshawa,f49d3408-0b93-49fa-b774-912efe7d6a01
-78.872849000047111,43.92633499970708,346,NATURAL HERITAGE,GARDENS,COMMUNITY GARDEN,Mary Street Community Garden,,,1139 MARY ST N,OSHAWA,ONTARIO,CANADA,,2017-05-18T17:22:22.439Z,City.of.Oshawa,2017-05-18T17:22:22.439Z,City.of.Oshawa,49fb8723-36c0-4f52-813f-5969f7ab60ab
-78.890718000217916,43.889856999771823,347,NATURAL HERITAGE,COMMUNITY GARDENS,,Trent University Community Garden,,http://www.trentu.ca/oshawa/,55 Thornton Rd S,Oshawa,Ontario,Canada,L1J 5Y1,2017-05-18T17:22:22.439Z,City.of.Oshawa,2017-11-28T17:42:12.566Z,mmandel_oshawa,3bc24e24-bba9-4f02-8e16-877ca202c0a5
-78.844733999900257,43.869747000301366,348,NATURAL HERITAGE,COMMUNITY GARDENS,Community Park,Oshawa Community Health Centre Community Garden,,http://www.ochc.ca/,115 Grassmere Avenue,OSHAWA,ONTARIO,CANADA,,2017-05-18T17:22:22.439Z,City.of.Oshawa,2017-11-01T20:03:20.830Z,mmandel_oshawa,38e6b4ba-c84e-4b0e-98dd-8c913d509e22
-78.799331000263948,43.871391999908603,349,NATURAL HERITAGE,NATURE RESERVE,,McLaughlin Bay Wildlife Reserve ,,HTTP://WWW.MCLAUGHLINBAY.ORG/,,OSHAWA,ONTARIO,CANADA,L1H8W8‎,2017-05-18T17:22:22.439Z,City.of.Oshawa,2017-05-18T17:22:22.439Z,City.of.Oshawa,39fd6958-0fd1-4092-a048-95226a70c254
-78.836899999818272,43.860408000240085,350,NATURAL HERITAGE,NATURE RESERVE,Parks,Pumphouse Marsh Wildlife Reserve,,,1518 RITSON RD S,OSHAWA,ONTARIO,CANADA,,2017-05-18T17:22:22.439Z,City.of.Oshawa,2017-11-01T19:47:07.546Z,mmandel_oshawa,d2059074-696a-42d9-bdef-a3598dbc1556
-78.884074178345884,43.937763046535956,351,NATURAL HERITAGE,PARKS,CITY PARK,Cedar Valley Park ,,https://www.oshawa.ca/Modules/Facilities/Detail.aspx?CategoryIds=&FacilityTypeIds=&Keywords=&Page=4&Scroll=true&id=3b1b5585-9ea4-457a-b8b1-649a5f1f0532,1510 Simcoe St N,Oshawa,Ontario,Canada,L1G 8B6‎,2017-05-18T17:22:22.439Z,City.of.Oshawa,2017-11-07T18:22:48.368Z,mmandel_oshawa,6181859a-47a5-4242-9edd-8127b2d31186
-78.872576000236961,43.900203999894529,352,NATURAL HERITAGE,PARKS,CITY PARK,Kinsmen Park,,Oshawa.ca,155 ARENA ST,OSHAWA,ONTARIO,CANADA,L1J 4E8,2017-05-18T17:22:22.439Z,City.of.Oshawa,2017-11-28T18:04:07.057Z,mmandel_oshawa,d4b461e5-97e7-43d7-8590-b539ea1381db
-78.87312600005653,43.855067999798905,353,NATURAL HERITAGE,PARKS,CITY PARK,Lakefront West Park,,,1221 PHILLIP MURRAY AVE,OSHAWA,ONTARIO,CANADA,,2017-05-18T17:22:22.439Z,City.of.Oshawa,2017-05-18T17:22:22.439Z,City.of.Oshawa,2d4aecec-dbbe-4dea-93f1-1de61e546ce4
-78.889340999668335,43.885083000167199,354,NATURAL HERITAGE,PARKS ,CITY PARK,Civic Fields ,,oshawa.ca,101 Thornton Rd S,Oshawa,Ontario,Canada,,2017-05-18T17:22:22.439Z,City.of.Oshawa,2017-11-28T17:46:13.829Z,mmandel_oshawa,f5cae914-dfc4-4823-94b6-cf36e70041af
-78.82959899983878,43.863076999860603,355,NATURAL HERITAGE,PARKS,CITY PARK,Lakeview Park,,,55 LAKEVIEW PARK AVE,OSHAWA,ONTARIO,CANADA,L1J8S7,2017-05-18T17:22:22.439Z,City.of.Oshawa,2017-05-18T17:22:22.439Z,City.of.Oshawa,e691ab68-25c8-4bed-8cef-e75703cfc64c
-78.863587000260239,43.897335000019702,356,NATURAL HERITAGE,PARKS,CITY PARK,Memorial Park,,,10 SIMCOE ST S,OSHAWA,ONTARIO,CANADA,L1H7M7,2017-05-18T17:22:22.439Z,City.of.Oshawa,2017-05-18T17:22:22.439Z,City.of.Oshawa,767f33cb-130e-4831-846d-9b36e10904ae
-78.870951609897361,43.939885493262011,357,NATURAL HERITAGE,PARKS,CITY PARK,Ritson Fields,,https://www.oshawa.ca/Modules/Facilities/Detail.aspx?CategoryIds=&FacilityTypeIds=11&Keywords=Ritson+Field&ScrollMap=true&id=b7ea2779-7691-41ba-9720-823f91d8b43f,1523 Ritson Rd N,Oshawa,Ontario,Canada,,2017-05-18T17:22:22.439Z,City.of.Oshawa,2017-11-07T18:43:37.630Z,mmandel_oshawa,47a5df82-8421-46df-bb82-fff6ada0f8c4
-78.871828999872918,43.910222999783016,358,NATURAL HERITAGE,PARKS,COMMUNITY PARK,Alexandra Park,,oshawa.ca,65 Buckingham Ave,Oshawa,Ontario,Canada,,2017-05-18T17:22:22.439Z,City.of.Oshawa,2017-11-14T15:10:07.330Z,mmandel_oshawa,b06741a2-3686-46b2-996c-87c732ba4609
-78.8656119996417,43.893206000178296,359,NATURAL HERITAGE,PARKS,COMMUNITY PARK,Brick Valley Park,,,101 JOHN ST W,OSHAWA,ONTARIO,CANADA,,2017-05-18T17:22:22.439Z,City.of.Oshawa,2017-05-18T17:22:22.439Z,City.of.Oshawa,8cad9d24-b3eb-4121-91b4-9cdc5801ffb8
-78.860279999865483,43.914352999727875,360,NATURAL HERITAGE,PARKS,COMMUNITY PARK,Centennial Park,,,550 RITSON RD N,OSHAWA,ONTARIO,CANADA,,2017-05-18T17:22:22.439Z,City.of.Oshawa,2017-05-18T17:22:22.439Z,City.of.Oshawa,7978bbf0-1727-4109-8ca6-a00b85567978
-78.834501000343025,43.913317000198191,361,NATURAL HERITAGE,PARKS,COMMUNITY PARK,Easton Park,,oshawa.ca,900 Adelaide Ave E,Oshawa,Ontario,Canada,,2017-05-18T17:22:22.439Z,City.of.Oshawa,2017-11-14T14:41:32.249Z,mmandel_oshawa,b2ed92d5-b0f4-42db-962a-efc4192e1f64
-78.883562999828271,43.88724999995231,362,NATURAL HERITAGE,PARKS,COMMUNITY PARK,Glen Stewart Park,,,201 Cabot St,Oshawa,Ontario,Canada,L1J,2017-05-18T17:22:22.439Z,City.of.Oshawa,2017-11-28T17:47:40.488Z,mmandel_oshawa,c3ded680-348b-4c50-8edc-53338e9b7789
-78.837141999667622,43.899686999689038,363,NATURAL HERITAGE,PARKS,COMMUNITY PARK,Knights Of Columbus Fields,,,137 FAREWELL ST,OSHAWA,ONTARIO,CANADA,,2017-05-18T17:22:22.439Z,City.of.Oshawa,2017-05-18T17:22:22.439Z,City.of.Oshawa,1db4cd6f-bdbf-40ef-8398-599bf9447b42
-78.891957389488937,43.898178579499927,364,NATURAL HERITAGE,PARKS,COMMUNITY PARK,McLaughlin Park,,oshawa.ca,630 Adelaide Ave W,Oshawa,Ontario,Canada,,2017-05-18T17:22:22.439Z,City.of.Oshawa,2017-11-14T15:06:06.090Z,mmandel_oshawa,6016bd58-2a7b-4e0d-b401-c684772fae90
-78.872849000047111,43.92633499970708,365,NATURAL HERITAGE,PARKS,COMMUNITY PARK,North Oshawa Park,,,1139 MARY ST N,OSHAWA,ONTARIO,CANADA,,2017-05-18T17:22:22.439Z,City.of.Oshawa,2017-05-18T17:22:22.439Z,City.of.Oshawa,8306a33b-b87e-4e39-8ed1-340401c5b0b1
-78.874357999942831,43.889096000108736,366,NATURAL HERITAGE,PARKS,COMMUNITY PARK,Radio Park,,Oshawa.ca,200 Grenfell St,Oshawa,Ontario,Canada,,2017-05-18T17:22:22.439Z,City.of.Oshawa,2017-11-28T17:56:19.049Z,mmandel_oshawa,35ecb26f-1f33-48c7-bfa7-7b47847c6842
-78.862617000314771,43.890462999938585,367,NATURAL HERITAGE,PARKS,COMMUNITY PARK,Rotary Park,,,254 CENTRE ST S,OSHAWA,ONTARIO,CANADA,,2017-05-18T17:22:22.439Z,City.of.Oshawa,2017-05-18T17:22:22.439Z,City.of.Oshawa,e4e0652f-e293-4f42-bc4f-729c241d710c
-78.838475999661171,43.868576000170584,368,NATURAL HERITAGE,PARKS,COMMUNITY PARK,Southmead Park,,,103 KAWARTHA AVE,OSHAWA,ONTARIO,CANADA,,2017-05-18T17:22:22.439Z,City.of.Oshawa,2017-05-18T17:22:22.439Z,City.of.Oshawa,8dde47c6-9d8c-4495-95ab-aef4ee0b44c9
-78.846195000115415,43.857546000291627,369,NATURAL HERITAGE,PARKS,COMMUNITY PARK,Stone Street Park,,,1535 CEDAR ST,OSHAWA,ONTARIO,CANADA,,2017-05-18T17:22:22.439Z,City.of.Oshawa,2017-05-18T17:22:22.439Z,City.of.Oshawa,1208bcc3-4988-4dc2-a0d7-cfad62a5ca0d
-78.861124000312557,43.883769000209625,370,NATURAL HERITAGE,PARKS,COMMUNITY PARK,Storie Park,,,101 MILL ST,OSHAWA,ONTARIO,CANADA,,2017-05-18T17:22:22.439Z,City.of.Oshawa,2017-05-18T17:22:22.439Z,City.of.Oshawa,f42dc4f2-3133-4651-a273-13feae12d79c
-78.847704000011149,43.905549000260173,371,NATURAL HERITAGE,PARKS,COMMUNITY PARK,Woodview Park,,,151 CADILLAC AVE N,OSHAWA,ONTARIO,CANADA,L1G6C3,2017-05-18T17:22:22.439Z,City.of.Oshawa,2017-05-18T17:22:22.439Z,City.of.Oshawa,feeb3236-d955-46fb-8d5e-2677655209a4
-78.89549199977732,43.917689999781551,372,NATURAL HERITAGE,PARKS,NEIGHBOURHOOD PARK,Airmen's Park,,https://www.oshawa.ca/Modules/Facilities/Detail.aspx?id=3fba9691-e4a3-4d07-a1d7-c1f86fd07b35,1200 Stevenson Rd N,Oshawa,Ontario,Canada,,2017-05-18T17:22:22.439Z,City.of.Oshawa,2017-11-07T19:37:32.773Z,mmandel_oshawa,9d769acb-5aa3-49f0-a2bb-be2c9d0484c8
-78.879041000163966,43.91473399977491,373,NATURAL HERITAGE,PARKS,NEIGHBOURHOOD PARK,Ansley Park,,https://www.oshawa.ca/Modules/Facilities/Detail.aspx?id=f1326c22-928f-47e5-9763-f7c99f019e75,700 Ansley Ct,Oshawa,Ontario,Canada,,2017-05-18T17:22:22.439Z,City.of.Oshawa,2017-11-07T20:10:14.396Z,mmandel_oshawa,49e149bb-fd22-4719-a1ab-4324919c0ab8
-78.848102000394405,43.928318000081369,374,NATURAL HERITAGE,PARKS,NEIGHBOURHOOD PARK,Attersley Park,,oshawa.ca,1000 Attersley Dr,Oshawa,Ontario,Canada,,2017-05-18T17:22:22.439Z,City.of.Oshawa,2017-11-14T14:02:44.753Z,mmandel_oshawa,1e019ade-be57-481a-ad3f-fe491655d39a
-78.832333999773027,43.909854999782901,375,NATURAL HERITAGE,PARKS,NEIGHBOURHOOD PARK,Baker Park,,,151 BAKER CT,OSHAWA,ONTARIO,CANADA,,2017-05-18T17:22:22.439Z,City.of.Oshawa,2017-05-18T17:22:22.439Z,City.of.Oshawa,f1673841-8096-4e13-9c09-bf42958345b1
-78.850582999885432,43.895427000069219,376,NATURAL HERITAGE,PARKS,NEIGHBOURHOOD PARK,Bathe Park,,,298 EULALIE AVE,OSHAWA,ONTARIO,CANADA,,2017-05-18T17:22:22.439Z,City.of.Oshawa,2017-05-18T17:22:22.439Z,City.of.Oshawa,0d614204-2a87-4596-b902-5b876c61acb8
-78.883218000046782,43.869951999878637,377,NATURAL HERITAGE,PARKS,NEIGHBOURHOOD PARK,Bermuda Park,,,799 THORNTON RD N,OSHAWA,ONTARIO,CANADA,,2017-05-18T17:22:22.439Z,City.of.Oshawa,2017-05-18T17:22:22.439Z,City.of.Oshawa,d8c5ce34-6eec-4025-9b1d-70d52ad0bc5d
-78.841870999919493,43.883520999776842,378,NATURAL HERITAGE,PARKS,NEIGHBOURHOOD PARK,Bloor Parkette,,,385 BLOOR ST E,OSHAWA,ONTARIO,CANADA,,2017-05-18T17:22:22.439Z,City.of.Oshawa,2017-05-18T17:22:22.439Z,City.of.Oshawa,6613da30-8f71-4cb8-a580-881d12adf469
-78.856394000235781,43.880274999932041,379,NATURAL HERITAGE,PARKS,NEIGHBOURHOOD PARK,Bloor/Simcoe Parkette,,,55 BLOOR ST W,OSHAWA,ONTARIO,CANADA,,2017-05-18T17:22:22.439Z,City.of.Oshawa,2017-05-18T17:22:22.439Z,City.of.Oshawa,cd40553c-b76f-4914-8bbc-c253b729792d
-78.891823999707512,43.951530999941305,380,NATURAL HERITAGE,PARKS,NEIGHBOURHOOD PARK,Bridle Park,,https://www.oshawa.ca/Modules/Facilities/Detail.aspx?id=0ee440bc-4086-490a-af68-bbb7cc6a5d88,2100 Bridle Rd,Oshawa,Ontario,Canada,L1L 0A8,2017-05-18T17:22:22.439Z,City.of.Oshawa,2017-10-31T19:28:23.418Z,mmandel_oshawa,8cac0233-16eb-4470-a72f-cb4ff3e78979
-78.886947000215969,43.91565000020865,381,NATURAL HERITAGE,PARKS,NEIGHBOURHOOD PARK,Brookside Park,,https://www.oshawa.ca/Modules/Facilities/Detail.aspx?id=7e6b34cd-7935-4ec5-8df0-97096990cf98,370 Glencastle Ave,Oshawa,Ontario,Canada,,2017-05-18T17:22:22.439Z,City.of.Oshawa,2017-11-07T20:02:20.991Z,mmandel_oshawa,d27f40fb-6bc4-4cd4-b13e-78068ad24c0e
-78.883900000112178,43.934443999790993,382,NATURAL HERITAGE,PARKS,NEIGHBOURHOOD PARK,Cedar Ridge Park,,https://www.oshawa.ca/Modules/Facilities/Detail.aspx?CategoryIds=&FacilityTypeIds=&Keywords=&Page=4&Scroll=true&id=aa30066a-129e-4819-9e7e-4c7b926bd6f2,120 Cayuga Ave,Oshawa,Ontario,CANADA,L1G 3X6,2017-05-18T17:22:22.439Z,City.of.Oshawa,2017-11-07T18:26:55.639Z,mmandel_oshawa,a9912841-fcc1-40ec-a402-5a91b32e9341
-78.855375999711413,43.914194000005935,383,NATURAL HERITAGE,PARKS,NEIGHBOURHOOD PARK,Central Park,,,500 CENTRAL PARK BLVD N,OSHAWA,ONTARIO,CANADA,,2017-05-18T17:22:22.439Z,City.of.Oshawa,2017-05-18T17:22:22.439Z,City.of.Oshawa,95610ea0-6ffa-42ae-8cc1-647d062a1468
-78.843974000017056,43.884742999688903,384,NATURAL HERITAGE,PARKS,NEIGHBOURHOOD PARK,Chopin Park,,,595 MONTGOMERY ST,OSHAWA,ONTARIO,CANADA,,2017-05-18T17:22:22.439Z,City.of.Oshawa,2017-05-18T17:22:22.439Z,City.of.Oshawa,00730250-937b-4c80-b04d-a63c07380aa5
-78.838418481992719,43.947568685533071,385,NATURAL HERITAGE,PARKS,NEIGHBOURHOOD PARK,Coldstream Park,,https://www.oshawa.ca/Modules/Facilities/Detail.aspx?CategoryIds=&FacilityTypeIds=&Keywords=&Page=7&Scroll=true&id=d1f96cc9-beb9-4e0b-97e4-b95ffb8a98e3,1467 Coldstream Dr,Oshawa,Ontario,Canada,,2017-05-18T17:22:22.439Z,City.of.Oshawa,2017-11-07T19:24:52.483Z,mmandel_oshawa,ddc7a7cc-4927-4844-a627-063b159e848b
-78.91155099975353,43.982970999845861,386,NATURAL HERITAGE,Parks,Neighbourhood Parks,Columbus Park,,https://www.oshawa.ca/Modules/Facilities/Index.aspx?CategoryIds=&FacilityTypeIds=11&Keywords=Columbus+Park&ScrollMap=true,3365 Simcoe St North,Oshawa,Ontario,Canada,L1H 7K4,2017-05-18T17:22:22.439Z,City.of.Oshawa,2017-10-31T18:37:08.038Z,mmandel_oshawa,ed0d114a-62f9-4a41-99ed-1e10fe63a94d
-78.873042771857811,43.950084721316664,387,NATURAL HERITAGE,PARKS,NEIGHBOURHOOD PARK,Conlin Meadows Park,,https://www.oshawa.ca/Modules/Facilities/Detail.aspx?CategoryIds=&FacilityTypeIds=1&Keywords=&ScrollMap=true&id=2908fb38-0a20-4736-abb8-8980a6f87849,1091 Ormond Dr,Oshawa,Ontario,Canada,,2017-05-18T17:22:22.439Z,City.of.Oshawa,2017-11-07T18:45:13.741Z,mmandel_oshawa,0dd8d389-8f34-4967-b278-08c88b6c81c4
-78.892823999790224,43.947578000045752,388,NATURAL HERITAGE,Parks,Neighbourhood Park,Conlin Woods Park,,https://www.oshawa.ca/Modules/Facilities/Detail.aspx?CategoryIds=&FacilityTypeIds=1&Keywords=&ScrollMap=true&id=19860bcf-95c2-446b-9fb8-95b8bbe10594,1975 Walreg Drive,Oshawa,Ontario,Canada,,2017-05-18T17:22:22.439Z,City.of.Oshawa,2017-10-31T20:02:31.474Z,mmandel_oshawa,1690ac07-8a82-4e43-a4b9-144623f87017
-78.863248000326536,43.910295000093726,389,NATURAL HERITAGE,PARKS,NEIGHBOURHOOD PARK,Connaught Park,,,435 JARVIS ST,OSHAWA,ONTARIO,CANADA,,2017-05-18T17:22:22.439Z,City.of.Oshawa,2017-05-18T17:22:22.439Z,City.of.Oshawa,2a514f77-84dd-4205-a2c1-c08d814ba65f
-78.838187979008538,43.919143673629797,390,NATURAL HERITAGE,PARKS,NEIGHBOURHOOD PARK,Copperfield Park,,oshawa.ca,860 Peggoty Circle,Oshawa,Ontario,Canada,,2017-05-18T17:22:22.439Z,City.of.Oshawa,2017-11-14T14:35:37.092Z,mmandel_oshawa,26f7da8f-6eb6-416f-8b15-2d74a7a78aba
-78.835707000290043,43.927823000050182,391,NATURAL HERITAGE,PARKS,NEIGHBOURHOOD PARK,Corbett's Park,,oshawa.ca,885 Grandview St N,Oshawa,Ontario,Canada,,2017-05-18T17:22:22.439Z,City.of.Oshawa,2017-11-14T14:34:28.147Z,mmandel_oshawa,65814ea6-3bee-4d10-b69a-fa74b1a50cef
-78.859324000163681,43.875731999861138,392,NATURAL HERITAGE,PARKS,NEIGHBOURHOOD PARK,Cordova Park,,,787 OXFORD ST,OSHAWA,ONTARIO,CANADA,,2017-05-18T17:22:22.439Z,City.of.Oshawa,2017-05-18T17:22:22.439Z,City.of.Oshawa,e3b6fa4c-86ec-4912-bee5-9e1a5afcb44f
-78.851622000326188,43.877549999837321,393,NATURAL HERITAGE,PARKS,NEIGHBOURHOOD PARK,Conant Park,,,420 CONANT ST,OSHAWA,ONTARIO,CANADA,,2017-05-18T17:22:22.439Z,City.of.Oshawa,2017-05-18T17:22:22.439Z,City.of.Oshawa,c02906b4-e0b2-4b92-830e-95ae11faf9df
-78.856821999857956,43.875687999751989,394,NATURAL HERITAGE,PARKS,NEIGHBOURHOOD PARK,Cordova Valley Park,,,811 GLEN ST,OSHAWA,ONTARIO,CANADA,,2017-05-18T17:22:22.439Z,City.of.Oshawa,2017-05-18T17:22:22.439Z,City.of.Oshawa,66c5c4f7-8971-46d9-9725-c0516c02c4a1
-78.855340999551316,43.889541999839253,395,NATURAL HERITAGE,PARKS,NEIGHBOURHOOD PARK,Cowan Park,,,125 OLIVE AVE,OSHAWA,ONTARIO,CANADA,,2017-05-18T17:22:22.439Z,City.of.Oshawa,2017-05-18T17:22:22.439Z,City.of.Oshawa,68abb2c4-cc2c-4f6c-8fe5-aec351ffe4ce
-78.90376600007535,43.903935000214297,396,NATURAL HERITAGE,PARKS,NEIGHBOURHOOD PARK,Crimson Court Park,,oshawa.ca,528 Crimson Ct,Oshawa,Ontario,Canada,,2017-05-18T17:22:22.439Z,City.of.Oshawa,2017-11-14T14:47:45.887Z,mmandel_oshawa,1a58b13c-8900-4b3f-b85a-503f7760bfdc
-78.906224999825071,43.91455399996498,397,NATURAL HERITAGE,PARKS,NEIGHBOURHOOD PARK,Deer Valley Park,,https://www.oshawa.ca/Modules/Facilities/Detail.aspx?CategoryIds=&FacilityTypeIds=10&Keywords=Deer+Valley+Park&ScrollMap=true&id=7206c8ce-42f5-42f9-aefc-287c99cd6a88,870 Deer Valley Dr,Oshawa,Ontario,Canada,,2017-05-18T17:22:22.439Z,City.of.Oshawa,2017-11-07T19:28:37.917Z,mmandel_oshawa,0c805cc9-6559-4956-a395-847a66a9f40c
-78.892821000315493,43.901041000008284,398,NATURAL HERITAGE,PARKS,NEIGHBOURHOOD PARK,Dundee Park,,oshawa.ca,700 Dundee Ave,Oshawa,Ontario,Canada,,2017-05-18T17:22:22.439Z,City.of.Oshawa,2017-11-14T15:04:59.645Z,mmandel_oshawa,b4cbc8cf-5a8a-45c5-95e9-fb1c243abe2c
-78.884514000405503,43.883805999861934,399,NATURAL HERITAGE,PARKS,NEIGHBOURHOOD PARK,Durham Court Park,,,330 WAVERLEY ST S,OSHAWA,ONTARIO,CANADA,,2017-05-18T17:22:22.439Z,City.of.Oshawa,2017-05-18T17:22:22.439Z,City.of.Oshawa,a37ca437-06b2-4113-8bb0-37005bff00ed
-78.840311999795048,43.908436000064306,400,NATURAL HERITAGE,PARKS,NEIGHBOURHOOD PARK,Eastbourne Park,,,190 EDALE ST,OSHAWA,ONTARIO,CANADA,,2017-05-18T17:22:22.439Z,City.of.Oshawa,2017-05-18T17:22:22.439Z,City.of.Oshawa,bbb25ae8-edee-4e77-87d4-7faf4bbd2a3d
-78.845598000438827,43.896473000080668,401,NATURAL HERITAGE,PARKS,NEIGHBOURHOOD PARK,Eastview Park,,,433 EULALIE AVE,OSHAWA,ONTARIO,CANADA,,2017-05-18T17:22:22.439Z,City.of.Oshawa,2017-05-18T17:22:22.439Z,City.of.Oshawa,9b008d16-4117-4636-91f6-4b73c8b72015
-78.878542000396678,43.948738999734218,402,NATURAL HERITAGE,PARKS,NEIGHBOURHOOD PARK,Edenwood Park,,https://www.oshawa.ca/Modules/Facilities/Detail.aspx?CategoryIds=1&FacilityTypeIds=1&Keywords=&ScrollMap=true&id=89f58bf2-4cdc-44b7-aefe-a0f758177c2d,1899 Edenwood Dr,Oshawa,Ontario,Canada,,2017-05-18T17:22:22.439Z,City.of.Oshawa,2017-11-07T18:33:34.178Z,mmandel_oshawa,abd6a21b-8d3d-4ff3-b934-620c81634a56
-78.85575999985096,43.884889000311027,403,NATURAL HERITAGE,PARKS,NEIGHBOURHOOD PARK,Elena Park,,,500 ALBERT ST,OSHAWA,ONTARIO,CANADA,,2017-05-18T17:22:22.439Z,City.of.Oshawa,2017-05-18T17:22:22.439Z,City.of.Oshawa,1a57779f-4510-4b47-9254-def92b1e9d1e
-78.853843000424547,43.878105000284755,404,NATURAL HERITAGE,PARKS,NEIGHBOURHOOD PARK,Erie Park,,,43 ERIE ST,OSHAWA,ONTARIO,CANADA,,2017-05-18T17:22:22.439Z,City.of.Oshawa,2017-05-18T17:22:22.439Z,City.of.Oshawa,583de693-1db0-45c0-b034-046fa5cbceb7
-78.837812999862336,43.903478000269061,405,NATURAL HERITAGE,PARKS,NEIGHBOURHOOD PARK,Farewell Park,,,725 KING ST E,OSHAWA,ONTARIO,CANADA,,2017-05-18T17:22:22.439Z,City.of.Oshawa,2017-05-18T17:22:22.439Z,City.of.Oshawa,af059404-1c30-4b19-bd0f-5b021d4b5080
-78.827063999921066,43.894894999713131,406,NATURAL HERITAGE,PARKS,NEIGHBOURHOOD PARK,Florell Drive Park,,,960 FLORELL DR,OSHAWA,ONTARIO,CANADA,,2017-05-18T17:22:22.439Z,City.of.Oshawa,2017-05-18T17:22:22.439Z,City.of.Oshawa,21ef2dd8-e87b-479d-a41a-8bc8ec08cc60
-78.867660294176844,43.93973443489552,407,NATURAL HERITAGE,PARKS,NEIGHBOURHOOD PARK,Everglades Park,,,365 Pompano Ct,Oshawa,Ontario,Canada,L1K 1M9,2017-05-18T17:22:22.439Z,City.of.Oshawa,2017-11-07T18:46:23.295Z,mmandel_oshawa,6dbb2a7b-956e-4f5b-877b-debd55c4b359
-78.862225999604206,43.924130000061837,408,NATURAL HERITAGE,PARKS,NEIGHBOURHOOD PARK,Exeter Park,,oshawa.ca,896 Exeter St,Oshawa,Ontario,Canada,,2017-05-18T17:22:22.439Z,City.of.Oshawa,2017-11-14T13:52:27.878Z,mmandel_oshawa,9289306e-51f3-4092-914f-08b60804a83c
-78.854161000441863,43.86473700019075,409,NATURAL HERITAGE,PARKS,NEIGHBOURHOOD PARK,Fenelon/Venus Park,,https://www.oshawa.ca/Modules/Facilities/Detail.aspx?CategoryIds=&FacilityTypeIds=&Keywords=&Page=12&Scroll=true&id=ffc37cff-9e93-47ff-85fa-e7517ffeddf4,1230 VENUS CRES,OSHAWA,ONTARIO,CANADA,,2017-05-18T17:22:22.439Z,City.of.Oshawa,2017-11-01T19:46:02.551Z,mmandel_oshawa,2130c884-1ad7-4aeb-b958-743cbfbdcf78
-78.882639999738473,43.897504999841182,410,NATURAL HERITAGE,PARKS,NEIGHBOURHOOD PARK,Fernhill Park,,oshawa.ca,144 Fernhill Blvd,Oshawa,Ontario,Canada,,2017-05-18T17:22:22.439Z,City.of.Oshawa,2017-11-28T17:49:43.445Z,mmandel_oshawa,8c5e6358-ac14-4622-937b-0d895e13a157
-78.844410000035168,43.917972999918661,411,NATURAL HERITAGE,PARKS,NEIGHBOURHOOD PARK,Galahad Park,,,889 GENTRY CRES,OSHAWA,ONTARIO,CANADA,,2017-05-18T17:22:22.439Z,City.of.Oshawa,2017-05-18T17:22:22.439Z,City.of.Oshawa,e180bd64-fe68-4217-8dda-85fe91e44465
-78.843734999642464,43.916077999782843,412,NATURAL HERITAGE,PARKS,NEIGHBOURHOOD PARK,Gentry Tot Lot,,,478 GAYLORD DR,OSHAWA,ONTARIO,CANADA,,2017-05-18T17:22:22.439Z,City.of.Oshawa,2017-05-18T17:22:22.439Z,City.of.Oshawa,62fcbca1-322b-47b1-9234-6ff3b19fbe13
-78.828300999830233,43.934811000280881,413,NATURAL HERITAGE,PARKS,NEIGHBOURHOOD PARK,Glenbourne Park,,oshawa.ca,1212 Glenbourne Dr,Oshawa,Ontario,Canada,,2017-05-18T17:22:22.439Z,City.of.Oshawa,2017-11-14T14:32:11.389Z,mmandel_oshawa,0ccfee3a-3891-4a1b-9a68-ddfaa209ddf5
-78.841603000130888,43.904694999924814,414,NATURAL HERITAGE,PARKS,NEIGHBOURHOOD PARK,Goodman Park,,,640 BOND ST W,OSHAWA,ONTARIO,CANADA,,2017-05-18T17:22:22.439Z,City.of.Oshawa,2017-05-18T17:22:22.439Z,City.of.Oshawa,e9719005-af68-4a3c-92d8-5f5865b3a40f
-78.852721999968026,43.935519999711346,415,NATURAL HERITAGE,PARKS,NEIGHBOURHOOD PARK,Grand Ridge Park,,oshawa.ca,725 Grand Ridge Ave,Oshawa,Ontario,Canada,,2017-05-18T17:22:22.439Z,City.of.Oshawa,2017-11-14T14:01:38.155Z,mmandel_oshawa,e6de40e8-0b94-41e6-949e-d6f42fdb5451
-78.815479999753521,43.889376999795445,416,NATURAL HERITAGE,PARKS,NEIGHBOURHOOD PARK,Grandview Village Park,,,1101 BLOOR ST E,OSHAWA,ONTARIO,CANADA,,2017-05-18T17:22:22.439Z,City.of.Oshawa,2017-05-18T17:22:22.439Z,City.of.Oshawa,4cfcf9d9-d405-4120-bde5-f22380dd8031
-78.840038000158643,43.913778000245898,417,NATURAL HERITAGE,PARKS,NEIGHBOURHOOD PARK,Greenbriar Park,,,691 GREENBRIAR DR,OSHAWA,ONTARIO,CANADA,,2017-05-18T17:22:22.439Z,City.of.Oshawa,2017-05-18T17:22:22.439Z,City.of.Oshawa,15976b74-2bde-4d41-8e8e-790cb645fbed
-78.859839093076616,43.951144903995754,418,NATURAL HERITAGE,PARKS,NEIGHBOURHOOD PARK,Greenhill Park,,https://www.oshawa.ca/Modules/Facilities/Detail.aspx?CategoryIds=&FacilityTypeIds=1&Keywords=&Page=6&Scroll=true&id=45fbb239-3544-40d3-a9d0-0080c2dd4a25,730 Greenhill Ave,Oshawa,Ontario,Canada,,2017-05-18T17:22:22.439Z,City.of.Oshawa,2017-11-07T18:56:25.763Z,mmandel_oshawa,89847266-0842-42b2-89c5-740eccfa01d8
-78.903591000174487,43.909314999753605,419,NATURAL HERITAGE,PARKS,NEIGHBOURHOOD PARK,Griffith Park,,,721 Griffith St,Oshawa,Ontario,Canada,,2017-05-18T17:22:22.439Z,City.of.Oshawa,2017-11-07T19:29:58.397Z,mmandel_oshawa,dfc49134-996b-4f65-adf8-c5ac3e0e2d95
-78.830717999747179,43.897158999769388,420,NATURAL HERITAGE,PARKS,NEIGHBOURHOOD PARK,Harmony Valley Park,,,259 HARMONY RD S,OSHAWA,ONTARIO,CANADA,,2017-05-18T17:22:22.439Z,City.of.Oshawa,2017-05-18T17:22:22.439Z,City.of.Oshawa,c529ce46-207a-4010-baf7-35d9d20a02e0
-78.901862000169402,43.89900899988978,421,NATURAL HERITAGE,PARKS,NEIGHBOURHOOD PARK,Homestead Park,,oshawa.ca,360 Homestead Ct,Oshawa,Ontario,Canada,,2017-05-18T17:22:22.439Z,City.of.Oshawa,2017-11-14T14:48:47.015Z,mmandel_oshawa,d3bf0c54-85bd-47f8-8142-13c00020c2f1
-78.85122200029312,43.885547000270812,422,NATURAL HERITAGE,PARKS,NEIGHBOURHOOD PARK,Howard Park,,,513 HOWARD ST,OSHAWA,ONTARIO,CANADA,,2017-05-18T17:22:22.439Z,City.of.Oshawa,2017-05-18T17:22:22.439Z,City.of.Oshawa,ec30b57d-a04e-440a-8963-d2ae88167b2e
-78.858781000015483,43.917189999860028,423,NATURAL HERITAGE,PARKS,NEIGHBOURHOOD PARK,Humewood Park,,,350 HUMEWOOD AVE,OSHAWA,ONTARIO,CANADA,,2017-05-18T17:22:22.439Z,City.of.Oshawa,2017-05-18T17:22:22.439Z,City.of.Oshawa,93d97468-2490-4d9e-88f3-66095b34402e
-78.854286000115351,43.895525000195619,424,NATURAL HERITAGE,PARKS,NEIGHBOURHOOD PARK,Huron Park,,,130 HURON ST,OSHAWA,ONTARIO,CANADA,,2017-05-18T17:22:22.439Z,City.of.Oshawa,2017-05-18T17:22:22.439Z,City.of.Oshawa,2fcd5a7e-5fd5-4fb5-b96b-0c4177a1da46
-78.853630999814129,43.921970999822058,425,NATURAL HERITAGE,PARKS,NEIGHBOURHOOD PARK,Hyde Park,,oshawa.ca,600 Cannonberry Ct,Oshawa,Ontario,Canada,,2017-05-18T17:22:22.439Z,City.of.Oshawa,2017-11-14T13:55:34.797Z,mmandel_oshawa,3ad97d28-0b15-4117-b67e-8d80dd2d32a4
-78.838689088483648,43.939272665587161,426,NATURAL HERITAGE,PARKS,NEIGHBOURHOOD PARK,Iroquois Shoreline Park,,oshawa.ca,1300 Grandview St N,Oshawa,Ontario,Canada,,2017-05-18T17:22:22.439Z,City.of.Oshawa,2017-11-14T14:09:06.433Z,mmandel_oshawa,be141b34-ef31-4f6b-8361-257032f68685
-78.88663099984845,43.95534000015369,427,NATURAL HERITAGE,Parks,Neighbourhood Park,Kedron Park,,https://www.oshawa.ca/Modules/Facilities/Detail.aspx?CategoryIds=&FacilityTypeIds=11&Keywords=Kedron+Park&ScrollMap=true&id=ddd9593b-63d5-4ce6-b346-8a0ce988b783,399 Brittania Ave,Oshawa,Ontario,Canada,,2017-05-18T17:22:22.439Z,City.of.Oshawa,2017-10-31T19:22:28.060Z,mmandel_oshawa,f109bf5c-1ab4-48ad-a4f4-505c85e2375d
-78.827371999892634,43.907983000038705,428,NATURAL HERITAGE,PARKS,NEIGHBOURHOOD PARK,Keewatin Park,,,105 KEEWATIN ST N,OSHAWA,ONTARIO,CANADA,,2017-05-18T17:22:22.439Z,City.of.Oshawa,2017-05-18T17:22:22.439Z,City.of.Oshawa,0b6c4872-036a-4f37-aff3-c034a6a27b9a
-78.824872000135045,43.923057000107917,429,NATURAL HERITAGE,PARKS,NEIGHBOURHOOD PARK,Kettering Park,,oshawa.ca,1225 Kettering Dr,Oshawa,Ontario,Canada,,2017-05-18T17:22:22.439Z,City.of.Oshawa,2017-11-14T14:36:40.576Z,mmandel_oshawa,c72e6c38-1da0-4bc7-a55b-847dda493727
-78.849483000243609,43.861604000105935,430,NATURAL HERITAGE,PARKS,NEIGHBOURHOOD PARK,Lake Vista Park,,,450 EMERALD AVE,OSHAWA,ONTARIO,CANADA,,2017-05-18T17:22:22.439Z,City.of.Oshawa,2017-05-18T17:22:22.439Z,City.of.Oshawa,b5d76152-1c39-4a15-b7a4-7b448f3dc364
-78.832578999995405,43.859258999927903,431,NATURAL HERITAGE,Cemeteries,Cemeteries,Lakewoods Park,,,1580 BIRCHCLIFFE AVE,OSHAWA,ONTARIO,CANADA,,2017-05-18T17:22:22.439Z,City.of.Oshawa,2017-11-01T19:48:05.337Z,mmandel_oshawa,b4e4686d-0dc3-4084-a732-54453e7bd551
-78.875213000260587,43.881325000107978,432,NATURAL HERITAGE,PARKS,NEIGHBOURHOOD PARK,Laval Park,,,475 SALISBURY ST,OSHAWA,ONTARIO,CANADA,,2017-05-18T17:22:22.439Z,City.of.Oshawa,2017-05-18T17:22:22.439Z,City.of.Oshawa,c209fb34-e2b1-45e2-a617-03cd802d1281
-78.875213000260587,43.881325000107978,433,NATURAL HERITAGE,PARKS,NEIGHBOURHOOD PARK,Laval Park,,,475 SALISBURY ST,OSHAWA,ONTARIO,CANADA,,2017-05-18T17:22:22.439Z,City.of.Oshawa,2017-05-18T17:22:22.439Z,City.of.Oshawa,d378cf8f-d914-425f-be3a-24dc038abc66
-78.865061999820796,43.889521000259279,434,NATURAL HERITAGE,PARKS,NEIGHBOURHOOD PARK,Limerick Park,,,900 GIBB ST,OSHAWA,ONTARIO,CANADA,,2017-05-18T17:22:22.439Z,City.of.Oshawa,2017-05-18T17:22:22.439Z,City.of.Oshawa,50d98a52-7d75-4a6f-b456-8892b1a66ce4
-78.813181999662291,43.898400999789665,435,NATURAL HERITAGE,PARKS,NEIGHBOURHOOD PARK,Mackenzie Park,,,1234 ATHABASCA ST,OSHAWA,ONTARIO,CANADA,,2017-05-18T17:22:22.439Z,City.of.Oshawa,2017-05-18T17:22:22.439Z,City.of.Oshawa,897aa678-b14d-46f9-a631-6d8c1cd255ba
-78.824642999806187,43.918878999747186,436,NATURAL HERITAGE,PARKS,NEIGHBOURHOOD PARK,Margate Park,,oshawa.ca,535 Nottingham Cres,Oshawa,Ontario,Canada,,2017-05-18T17:22:22.439Z,City.of.Oshawa,2017-11-14T14:37:13.271Z,mmandel_oshawa,8ffbe6a1-5119-4392-a97a-9bf24b78be50
-78.862069999968583,43.901294000134214,437,NATURAL HERITAGE,PARKS,NEIGHBOURHOOD PARK,Mary Street Park,,,110 MARY ST N,OSHAWA,ONTARIO,CANADA,,2017-05-18T17:22:22.439Z,City.of.Oshawa,2017-05-18T17:22:22.439Z,City.of.Oshawa,0dbd346c-8d23-438c-af87-5e778cb9d509
-78.831486000026288,43.892085000257488,438,NATURAL HERITAGE,PARKS,NEIGHBOURHOOD PARK,Milton Park,,,425 MILTON ST,OSHAWA,ONTARIO,CANADA,,2017-05-18T17:22:22.439Z,City.of.Oshawa,2017-05-18T17:22:22.439Z,City.of.Oshawa,c92b5249-cecf-4379-90b9-1a753963ab44
-78.848299999862817,43.890391000241536,439,NATURAL HERITAGE,PARKS,NEIGHBOURHOOD PARK,Mitchell Park,,,301 MITCHELL AVE,OSHAWA,ONTARIO,CANADA,,2017-05-18T17:22:22.439Z,City.of.Oshawa,2017-05-18T17:22:22.439Z,City.of.Oshawa,1766bd6e-ccde-416b-a5e2-4934d38142f1
-78.857079999600813,43.945268999731269,440,NATURAL HERITAGE,PARKS,NEIGHBOURHOOD PARK,Mount Joy Park,,https://www.oshawa.ca/Modules/Facilities/Detail.aspx?CategoryIds=&FacilityTypeIds=11&Keywords=Mount+Joy+Park&ScrollMap=true&id=4367576e-8bdf-45d8-bc4c-b271e89c2fb7,900 Coldstream Dr,Oshawa,Ontario,Canada,,2017-05-18T17:22:22.439Z,City.of.Oshawa,2017-11-07T18:59:34.183Z,mmandel_oshawa,b2495740-b939-47fd-bd0d-73c88477a688
-78.890895999594832,43.94156800025722,441,NATURAL HERITAGE,PARKS,NEIGHBOURHOOD PARK,Niagara Park,,https://www.oshawa.ca/Modules/Facilities/Detail.aspx?CategoryIds=&FacilityTypeIds=10&Keywords=Niagara+Park&ScrollMap=true&id=0ab1de0b-88fb-4cad-a29b-b676e0f69773,360 Niagara Dr,Oshawa,Ontario,Canada,,2017-05-18T17:22:22.439Z,City.of.Oshawa,2017-11-07T18:18:13.921Z,mmandel_oshawa,3d2d218e-390f-4eea-a9e3-c8c001a5f099
-78.88270699968561,43.908842999861541,442,NATURAL HERITAGE,PARKS,NEIGHBOURHOOD PARK,Nipigon Park,,oshawa.ca,540 Nipigon St,Oshawa,Ontario,Canada,,2017-05-18T17:22:22.439Z,City.of.Oshawa,2017-11-14T15:08:42.289Z,mmandel_oshawa,dddbd3b4-e7d0-4d1a-997c-a268b40e9985
-78.859751961344898,43.929438359549515,443,NATURAL HERITAGE,PARKS,NEIGHBOURHOOD PARK,North Pond Park,,oshawa.ca,509 Charrington Ave,Oshawa,Ontario,Canada,,2017-05-18T17:22:22.439Z,City.of.Oshawa,2017-11-14T13:50:37.661Z,mmandel_oshawa,66a5a4ba-7884-48c0-9441-656510bf94af
-78.86825899971241,43.922674999978511,444,NATURAL HERITAGE,PARKS,NEIGHBOURHOOD PARK,Northway Court Park,,www.oshawa.ca,922 Oshawa Blvd N,Oshawa,Ontario,Canada,,2017-05-18T17:22:22.439Z,City.of.Oshawa,2017-11-07T21:03:50.333Z,mmandel_oshawa,6c3baad4-069c-420b-8b4e-19c18ad19d63
-78.867425506769706,43.930564053014109,445,NATURAL HERITAGE,PARKS,NEIGHBOURHOOD PARK,Northview Park,,oshawa.ca,1196 Ritson Rd N,Oshawa,Ontario,Canada,,2017-05-18T17:22:22.439Z,City.of.Oshawa,2017-11-14T13:50:57.788Z,mmandel_oshawa,f2f99d4b-db4e-462a-81e7-42649d49b48d
-78.867246999934139,43.948858999914684,447,NATURAL HERITAGE,PARKS,NEIGHBOURHOOD PARK,Parkwood Meadows Park,,https://www.oshawa.ca/Modules/Facilities/Detail.aspx?CategoryIds=&FacilityTypeIds=&Keywords=&Page=25&Scroll=true&id=2adb3e5a-c378-4137-87cd-b55b9203a196,860 Ormond Dr,Oshawa,Ontario,Canada,,2017-05-18T17:22:22.439Z,City.of.Oshawa,2017-11-07T18:54:23.521Z,mmandel_oshawa,72e9ab4a-ee98-4539-be0d-4c3a946f8069
-78.850710000107043,43.903782999755087,448,NATURAL HERITAGE,PARKS,NEIGHBOURHOOD PARK,Patricia Tot Lot,,,106 PATRICIA AVE,OSHAWA,ONTARIO,CANADA,,2017-05-18T17:22:22.439Z,City.of.Oshawa,2017-05-18T17:22:22.439Z,City.of.Oshawa,dbbaf5c5-f68b-4736-a097-0dadf7a242c7
-78.876152337494332,43.926037496540616,449,NATURAL HERITAGE,PARKS,NEIGHBOURHOOD PARK,Pinecrest Park,,www.oshawa.ca,1350 Beatrice St E,Oshawa,Ontario,Canada,,2017-05-18T17:22:22.439Z,City.of.Oshawa,2017-11-07T20:28:30.306Z,mmandel_oshawa,8b5b4f65-d555-447a-b268-6c11cbdb4516
-78.897298999598874,43.905718999928801,450,NATURAL HERITAGE,PARKS,NEIGHBOURHOOD PARK,Prestwick Park,,,505 Prestwick Dr,Oshawa,Ontario,Canada,,2017-05-18T17:22:22.439Z,City.of.Oshawa,2017-11-14T15:01:16.171Z,mmandel_oshawa,793de86c-69d3-450d-b1fd-f44837a5118c
-78.92796899975491,44.019713999752156,451,NATURAL HERITAGE,Parks,Neighbourhood Park,Raglan Park,,,79 Hurd Street,Oshawa,Ontario,Canada,L1H 7K4,2017-05-18T17:22:22.439Z,City.of.Oshawa,2017-10-31T18:14:41.598Z,mmandel_oshawa,15503145-6cca-4fed-92cf-102e157819ea
-78.862956000248474,43.854864999883148,452,NATURAL HERITAGE,PARKS,NEIGHBOURHOOD PARK,Renaissance Park,,,1529 CONNERY CRES,OSHAWA,ONTARIO,CANADA,,2017-05-18T17:22:22.439Z,City.of.Oshawa,2017-05-18T17:22:22.439Z,City.of.Oshawa,7ccd35fc-7e9e-4484-a9d7-b956e3d4edf3
-78.878207999587531,43.920549999698927,453,NATURAL HERITAGE,PARKS,NEIGHBOURHOOD PARK,Reservoir Park,,www.oshawa.ca,915 Somerville St,Oshawa,Ontario,Canada,,2017-05-18T17:22:22.439Z,City.of.Oshawa,2017-11-07T20:51:42.086Z,mmandel_oshawa,b42e34ff-a205-4189-b2d5-9fe1666364a2
-78.902639999595948,43.901282999813375,454,NATURAL HERITAGE,PARKS,NEIGHBOURHOOD PARK,Rimosa Park,,oshawa.ca,410 Rimosa Ct,Oshawa,Ontario,Canada,,2017-05-18T17:22:22.439Z,City.of.Oshawa,2017-11-14T14:48:15.429Z,mmandel_oshawa,d4090dbb-90aa-45f1-a4fb-6fc2c99c556d
-78.871364487367231,43.889264261695345,456,NATURAL HERITAGE,PARKS,NEIGHBOURHOOD PARK,Rundle Park,,Oshawa.ca,241 Park Rd S,Oshawa,Ontario,Canada,,2017-05-18T17:22:22.439Z,City.of.Oshawa,2017-11-28T17:59:53.684Z,mmandel_oshawa,f19fd2cb-e709-44f3-a1fa-307a3d5812db
-78.883380000428488,43.930667999868589,457,NATURAL HERITAGE,PARKS,NEIGHBOURHOOD PARK,Russett Park,,https://www.oshawa.ca/Modules/Facilities/Detail.aspx?CategoryIds=&FacilityTypeIds=1&Keywords=&ScrollMap=true&id=0433e2a0-da4f-48bc-bc2e-0d8d19b317ce,1290 Somerville St,Oshawa,Ontario,Canada,,2017-05-18T17:22:22.439Z,City.of.Oshawa,2017-11-07T20:07:05.192Z,mmandel_oshawa,80d8f248-1178-49f7-9f3f-e9b7144aad0b
-78.87642300040693,43.897364000197832,458,NATURAL HERITAGE,PARKS,NEIGHBOURHOOD PARK,Saguenay Park,,oshawa.ca,340 Saguenay Ave,Oshawa,Ontario,Canada,,2017-05-18T17:22:22.439Z,City.of.Oshawa,2017-11-28T17:55:33.780Z,mmandel_oshawa,986e8c94-f4cd-47cd-97bf-faf5cdf740b4
-78.864733999757732,43.941362000069837,459,NATURAL HERITAGE,PARKS,NEIGHBOURHOOD PARK,Sherwood Park,,https://www.oshawa.ca/Modules/Facilities/Detail.aspx?CategoryIds=&FacilityTypeIds=&Keywords=&Page=28&Scroll=true&id=55af577b-37d2-4c0e-a481-9ba588532f21,585 Ormond Dr,Oshawa,Ontario,Canada,,2017-05-18T17:22:22.439Z,City.of.Oshawa,2017-11-07T18:52:36.978Z,mmandel_oshawa,bccda940-4090-4859-910e-0426dc05628a
-78.839363999590873,43.871620000133539,460,NATURAL HERITAGE,PARKS,NEIGHBOURHOOD PARK,Snowbird Park,,,31 COTTINGHAM CRES,OSHAWA,ONTARIO,CANADA,,2017-05-18T17:22:22.439Z,City.of.Oshawa,2017-05-18T17:22:22.439Z,City.of.Oshawa,0d539800-bc1f-4e4d-8406-8ceefbe0b9cb
-78.882290999759022,43.919403999955342,461,NATURAL HERITAGE,PARKS,NEIGHBOURHOOD PARK,Somerset Park,,https://www.oshawa.ca/Modules/Facilities/Detail.aspx?CategoryIds=&FacilityTypeIds=&Keywords=&Page=28&Scroll=true&id=c4329d39-66b2-4e79-8f08-740b77dd8a14,250 Switzer Dr,Oshawa,Ontario,Canada,,2017-05-18T17:22:22.439Z,City.of.Oshawa,2017-11-07T20:09:06.244Z,mmandel_oshawa,68359ecf-b030-436a-9d39-6fbf4bd7e0fc
-78.80312300018231,43.882730000239569,462,NATURAL HERITAGE,PARKS,NEIGHBOURHOOD PARK,Southport Park,,,946 TOWNLINE RD S,OSHAWA,ONTARIO,CANADA,,2017-05-18T17:22:22.439Z,City.of.Oshawa,2017-05-18T17:22:22.439Z,City.of.Oshawa,7a6768c2-0196-46bb-8630-c4fa69b9a5a8
-78.806283000264003,43.884389000011936,463,NATURAL HERITAGE,PARKS,NEIGHBOURHOOD PARK,Southridge Park,,,SOUTHDALE AVENUE AND SOUTHDOWN DRIVE,OSHAWA,ONTARIO,CANADA,,2017-05-18T17:22:22.439Z,City.of.Oshawa,2017-05-18T17:22:22.439Z,City.of.Oshawa,69cc0561-99be-4e16-b5cf-d5cf77c4bcb6
-78.843654000349929,43.95990400020559,464,NATURAL HERITAGE,Parks,Neighbourhood Parks,Mackie Park,,https://www.oshawa.ca/Modules/Facilities/Detail.aspx?CategoryIds=&FacilityTypeIds=&Keywords=&Page=30&Scroll=true&id=4c098d2a-d13c-496f-b66a-522fc8617dab,1449 Conlin Rd E,Oshawa,Ontario,Canada,L1H 8L7,2017-05-18T17:22:22.439Z,City.of.Oshawa,2017-10-31T19:57:09.960Z,mmandel_oshawa,7ed9c0ad-e231-4f6b-8339-bcd9c4915f85
-78.85383599985353,43.941410000177271,465,NATURAL HERITAGE,PARKS,NEIGHBOURHOOD PARK,Stonecrest Parkette,,https://www.oshawa.ca/Modules/Facilities/Detail.aspx?CategoryIds=&FacilityTypeIds=1&Keywords=&Page=12&Scroll=true&id=ebeae5b2-3502-4c31-9b0a-95f5a8a588ce,1431 Cordick St,Oshawa,Ontario,Canada,,2017-05-18T17:22:22.439Z,City.of.Oshawa,2017-11-07T19:01:15.907Z,mmandel_oshawa,93538f64-a383-4e19-bb55-62f1f8c91bdc
-78.896598999990147,43.915121999843144,466,NATURAL HERITAGE,PARKS,NEIGHBOURHOOD PARK,Summerglen Park,,https://www.oshawa.ca/Modules/Facilities/Detail.aspx?id=b4c15e9b-780b-41ef-b9e7-509204cb2864,642 Fairglen Ave,Oshawa,Ontario,Canada,,2017-05-18T17:22:22.439Z,City.of.Oshawa,2017-11-07T19:31:56.558Z,mmandel_oshawa,3ff8856e-6b5a-4c95-9f65-0813f63cfbab
-78.893541000015716,43.886410000019929,467,NATURAL HERITAGE,PARKS,NEIGHBOURHOOD PARK,Sunnydale Park,,oshawa.ca,200 Londonderry St,Oshawa,Ontario,Canada,,2017-05-18T17:22:22.439Z,City.of.Oshawa,2017-11-28T17:45:32.475Z,mmandel_oshawa,54f38c10-dcd1-459c-98c5-de4b9e099ba8
-78.855179999892826,43.892167999913504,468,NATURAL HERITAGE,PARKS,NEIGHBOURHOOD PARK,Sunnyside Park,,,260 MCKIM ST,OSHAWA,ONTARIO,CANADA,,2017-05-18T17:22:22.439Z,City.of.Oshawa,2017-05-18T17:22:22.439Z,City.of.Oshawa,0aaba499-e23b-4027-996e-b6092c8a4198
-78.865142000186736,43.893318999933392,469,NATURAL HERITAGE,PARKS,NEIGHBOURHOOD PARK,Sunrise Senior,,,81 JOHN ST W,OSHAWA,ONTARIO,CANADA,,2017-05-18T17:22:22.439Z,City.of.Oshawa,2017-05-18T17:22:22.439Z,City.of.Oshawa,058b2f73-8ef8-4369-9942-7c003a2f5d0b
-78.843635999908273,43.937210000017025,470,NATURAL HERITAGE,PARKS,NEIGHBOURHOOD PARK,Swiss Height Park,,oshawa.ca,1005 Swiss Height,Oshawa,Ontario,Canada,,2017-05-18T17:22:22.439Z,City.of.Oshawa,2017-11-14T14:12:01.120Z,mmandel_oshawa,5f2ac395-cab9-42ed-a869-b26fcf1c2a8c
-78.876270000244688,43.935225000265348,471,NATURAL HERITAGE,PARKS,NEIGHBOURHOOD PARK,Tampa Park,,https://www.oshawa.ca/Modules/Facilities/Detail.aspx?CategoryIds=&FacilityTypeIds=&Keywords=&Page=31&Scroll=true&id=618fe47b-acc0-4c55-abb9-84b04026f1b0,86 Ormond D,Oshawa,Ontario,Canada,,2017-05-18T17:22:22.439Z,City.of.Oshawa,2017-11-07T18:40:55.378Z,mmandel_oshawa,fa2ce77e-903c-49e9-bc43-b6b1b9101ee3
-78.855801999683763,43.880471000031484,472,NATURAL HERITAGE,PARKS,NEIGHBOURHOOD PARK,Terry Fox Park,,,1300 BLOOR ST E,OSHAWA,ONTARIO,CANADA,,2017-05-18T17:22:22.439Z,City.of.Oshawa,2017-05-18T17:22:22.439Z,City.of.Oshawa,76d554ab-95ed-46de-8fe9-593601691333
-78.895732860525243,43.896476223593339,473,NATURAL HERITAGE,PARKS,NEIGHBOURHOOD PARK,Thornton Park,,,210 Thornton Rd N,Oshawa,Ontario,Canada,,2017-05-18T17:22:22.439Z,City.of.Oshawa,2017-11-14T14:58:34.127Z,mmandel_oshawa,7f46fc8a-d459-40fd-94b2-e65fc4d4ebdc
-78.858602999740256,43.931584999706359,474,NATURAL HERITAGE,PARKS,NEIGHBOURHOOD PARK,Trowbridge Park,,oshawa.ca,500 Beatrice St E,Oshawa,Ontario,Canada,,2017-05-18T17:22:22.439Z,City.of.Oshawa,2017-11-14T13:50:28.931Z,mmandel_oshawa,a7216c75-9f53-4398-8e6e-fbe3f7493390
-78.853691999913494,43.896515000156647,475,NATURAL HERITAGE,PARKS,NEIGHBOURHOOD PARK,Tylor Park,,,237 GLIDDON AVE,OSHAWA,ONTARIO,CANADA,,2017-05-18T17:22:22.439Z,City.of.Oshawa,2017-05-18T17:22:22.439Z,City.of.Oshawa,9eb68414-ff2a-467f-944d-fc81f2cd5916
-78.872496999694604,43.89793499996464,476,NATURAL HERITAGE,PARKS,NEIGHBOURHOOD PARK,Valleyview Park,,,81 GLADSTONE AVE,OSHAWA,ONTARIO,CANADA,,2017-05-18T17:22:22.439Z,City.of.Oshawa,2017-05-18T17:22:22.439Z,City.of.Oshawa,e2d0768b-ac89-46ec-9f44-62c210cc7c52
-78.833234000296613,43.884120999698681,477,NATURAL HERITAGE,PARKS,NEIGHBOURHOOD PARK,Veterans Tot Lot,,,575 VETERANS RD,OSHAWA,ONTARIO,CANADA,,2017-05-18T17:22:22.439Z,City.of.Oshawa,2017-05-18T17:22:22.439Z,City.of.Oshawa,12275fa5-cbf2-404b-818b-09314100df52
-78.872583999733237,43.885180000182075,478,NATURAL HERITAGE,PARKS,NEIGHBOURHOOD PARK,Warne Park,,,430 GRENFELL ST,OSHAWA,ONTARIO,CANADA,,2017-05-18T17:22:22.439Z,City.of.Oshawa,2017-05-18T17:22:22.439Z,City.of.Oshawa,5eec6509-0566-480f-87a2-57f057aa3487
-78.838251000428571,43.871261000117649,479,NATURAL HERITAGE,PARKS,NEIGHBOURHOOD PARK,Wellington Park,,,1101 TILBURY ST,OSHAWA,ONTARIO,CANADA,,2017-05-18T17:22:22.439Z,City.of.Oshawa,2017-05-18T17:22:22.439Z,City.of.Oshawa,0508198f-0712-4769-b5ba-258bd8ec2dd3
-78.862223000129475,43.927082999679939,480,NATURAL HERITAGE,PARKS,NEIGHBOURHOOD PARK,Whitehall Park,,oshawa.ca,1001 Central Park Blvd N,Oshawa,Ontario,Canada,,2017-05-18T17:22:22.439Z,City.of.Oshawa,2017-11-14T13:50:00.070Z,mmandel_oshawa,b7a0a322-5466-4fda-8e2b-03140e5ae556
-78.824437999766772,43.90080199997891,481,NATURAL HERITAGE,PARKS,NEIGHBOURHOOD PARK,Willowdale Park,,,200 KEEWATIN ST,OSHAWA,ONTARIO,CANADA,,2017-05-18T17:22:22.439Z,City.of.Oshawa,2017-05-18T17:22:22.439Z,City.of.Oshawa,c33fd314-50ab-4137-ab53-9f917546e34d
-78.877605000063156,43.917634999717585,482,NATURAL HERITAGE,PARKS,NEIGHBOURHOOD PARK,Woodland Heights,,www.oshawa.ca,159 Glenwood Ave,Oshawa,Ontario,Canada,,2017-05-18T17:22:22.439Z,City.of.Oshawa,2017-11-07T20:50:29.912Z,mmandel_oshawa,a1842c51-6c8f-41de-9024-ca500af10b5a
-78.863892999683685,43.925826999801302,483,NATURAL HERITAGE,PARKS,NEIGHBOURHOOD PARK,Highgate Park,,oshawa.ca,280 Highgate Ave,Oshawa,Ontario,Canada,,2017-05-18T17:22:22.439Z,City.of.Oshawa,2017-11-14T13:53:26.450Z,mmandel_oshawa,15b01689-22e9-41f9-a665-c0c310edb030
-78.862968999768967,43.884819999972898,484,NATURAL HERITAGE,TRAILS ,LOCAL TRAIL,Joseph Kolodzie Oshawa Creek Bike Path,,http://www.oshawa.ca/mun_res/trails.asp,,OSHAWA,ONTARIO,CANADA,,2017-05-18T17:22:22.439Z,City.of.Oshawa,2017-05-18T17:22:22.439Z,City.of.Oshawa,8c526f18-fffa-47c8-ac97-e53a1c02c7ae
-78.858528000295493,43.894353000269312,485,NATURAL HERITAGE,TRAILS ,LOCAL TRAIL,Michael Starr Trail,,http://www.oshawa.ca/mun_res/trails.asp,,OSHAWA,ONTARIO,CANADA,,2017-05-18T17:22:22.439Z,City.of.Oshawa,2017-05-18T17:22:22.439Z,City.of.Oshawa,86a0700c-6e8e-45e9-8c70-b02a08ff0fdd
-78.839644999798281,43.905647999863547,486,NATURAL HERITAGE,TRAILS ,LOCAL TRAIL,Harmony Creek Trail,,http://www.oshawa.ca/mun_res/trails.asp,,OSHAWA,ONTARIO,CANADA,,2017-05-18T17:22:22.439Z,City.of.Oshawa,2017-05-18T17:22:22.439Z,City.of.Oshawa,25e73d7a-da51-4940-8576-faee33282141
-78.814377999563575,43.879607999715148,487,NATURAL HERITAGE,TRAILS ,NATURE TRAIL,"Boardwalk, Second Marsh",,http://secondmarsh.outdoorontario.ca/,,OSHAWA,ONTARIO,CANADA,,2017-05-18T17:22:22.439Z,City.of.Oshawa,2017-05-18T17:22:22.439Z,City.of.Oshawa,9390ebb0-3024-4d60-bd56-f8b812e73c5e
-78.812866000193097,43.882229000247101,488,NATURAL HERITAGE,TRAILS ,NATURE TRAIL,Marshland Trail - McLaughlin Bay Wildlife Reserve,,http://secondmarsh.outdoorontario.ca/,,OSHAWA,ONTARIO,CANADA,,2017-05-18T17:22:22.439Z,City.of.Oshawa,2017-05-18T17:22:22.439Z,City.of.Oshawa,accf5802-bbd5-4987-8efd-dcb1fc7655c6
-78.89578700022841,43.890315999817155,489,NATURAL HERITAGE,WATERWAYS,CREEKS,Corbett Creek,,,901 King St W,Oshawa,Ontario,Canada,,2017-05-18T17:22:22.439Z,City.of.Oshawa,2017-11-14T14:50:42.023Z,mmandel_oshawa,543116b3-f652-4b33-8911-88a0192b298d
-78.845831999892255,43.906536000064541,494,NATURAL HERITAGE,WATERWAYS,CREEKS,Harmony Creek,,,165 WILSON RD N,OSHAWA,ONTARIO,CANADA,,2017-05-18T17:22:22.439Z,City.of.Oshawa,2017-05-18T17:22:22.439Z,City.of.Oshawa,e1ad114c-1985-4b65-b06c-7d20e1eafca1
-78.837755000136028,43.904342999698152,495,NATURAL HERITAGE,WATERWAYS,CREEKS,Harmony Creek,,,720 BOND ST W,OSHAWA,ONTARIO,CANADA,,2017-05-18T17:22:22.439Z,City.of.Oshawa,2017-05-18T17:22:22.439Z,City.of.Oshawa,76ed10f8-3713-4991-b354-e66bf81780ae
-78.831500000269983,43.90803700004701,496,NATURAL HERITAGE,WATERWAYS,CREEKS,Harmony Creek,,,909 REGENT DR,OSHAWA,ONTARIO,CANADA,,2017-05-18T17:22:22.439Z,City.of.Oshawa,2017-05-18T17:22:22.439Z,City.of.Oshawa,c9edbc54-085e-42b0-b32e-8bdceb903e72
-78.854511000246234,43.912514000307603,497,NATURAL HERITAGE,WATERWAYS,CREEKS,Harmony Creek,,,447 CENTRAL PARK BLVD N,OSHAWA,ONTARIO,CANADA,,2017-05-18T17:22:22.439Z,City.of.Oshawa,2017-05-18T17:22:22.439Z,City.of.Oshawa,7a2aece7-4ea2-49be-b50a-fc0217d6576a
-78.86119600028259,43.916420000163001,498,NATURAL HERITAGE,WATERWAYS,CREEKS,Harmony Creek,,,650 RITSON RD N,OSHAWA,ONTARIO,CANADA,,2017-05-18T17:22:22.439Z,City.of.Oshawa,2017-05-18T17:22:22.439Z,City.of.Oshawa,f419b3fd-5a5f-42e5-ab00-5b897b372ed9
-78.871070999639528,43.927584000159015,499,NATURAL HERITAGE,WATERWAYS,CREEKS,Harmony Creek,,,133 BEATRICE ST E,OSHAWA,ONTARIO,CANADA,,2017-05-18T17:22:22.439Z,City.of.Oshawa,2017-05-18T17:22:22.439Z,City.of.Oshawa,16b7305d-8218-4eb7-9188-7d56fdfd9900
-78.854322000100339,43.926086000300423,500,NATURAL HERITAGE,WATERWAYS,CREEKS,Harmony Creek,,,885 Wilson Rd N,Oshawa,Ontario,Canda,,2017-05-18T17:22:22.439Z,City.of.Oshawa,2017-11-14T13:54:42.691Z,mmandel_oshawa,8fc3d1bf-e928-46b4-a847-30c4f531b7e5
-78.843922000138519,43.927165000122052,501,NATURAL HERITAGE,WATERWAYS,CREEKS,Harmony Creek,,,875 Harmony Rd N,Oshawa,Ontario,Canada,,2017-05-18T17:22:22.439Z,City.of.Oshawa,2017-11-14T14:03:01.011Z,mmandel_oshawa,f92c7e31-a2e9-4e71-a265-083efddf77a6
-78.841107999663237,43.941434000216461,502,NATURAL HERITAGE,WATERWAYS,CREEKS,Harmony Creek,,,1020 Taunton Rd E,Oshawa,Ontario,Canada,,2017-05-18T17:22:22.439Z,City.of.Oshawa,2017-11-14T14:03:38.043Z,mmandel_oshawa,8a21cb69-d096-46c3-93e5-9042e262bab8
-78.843203000263202,43.910295999971588,504,NATURAL HERITAGE,WATERWAYS,CREEKS,Harmony Creek,,,650 ADELAIDE AVE E,OSHAWA,ONTARIO,CANADA,,2017-05-18T17:22:22.439Z,City.of.Oshawa,2017-05-18T17:22:22.439Z,City.of.Oshawa,0f400076-e6bd-443f-be0d-badd784a5d5f
-78.856682999940787,43.880208000196191,506,NATURAL HERITAGE,WATERWAYS,CREEKS,Oshawa Creek,,,77 BLOOR ST W,OSHAWA,ONTARIO,CANADA,,2017-05-18T17:22:22.439Z,City.of.Oshawa,2017-05-18T17:22:22.439Z,City.of.Oshawa,e8176936-88f9-4dac-9039-f8aebc27e7d5
-78.856658999651316,43.880328000085306,507,NATURAL HERITAGE,WATERWAYS,CREEKS,Oshawa Creek,,,74 BLOOR ST W,OSHAWA,ONTARIO,CANADA,,2017-05-18T17:22:22.439Z,City.of.Oshawa,2017-05-18T17:22:22.439Z,City.of.Oshawa,a15f6331-8fb4-4c3c-8a82-da2f9ee8c402
-78.865083999562103,43.88945500014384,508,NATURAL HERITAGE,WATERWAYS,CREEKS,Oshawa Creek,,,119 GIBB ST,OSHAWA,ONTARIO,CANADA,,2017-05-18T17:22:22.439Z,City.of.Oshawa,2017-05-18T17:22:22.439Z,City.of.Oshawa,67601c07-f754-40b0-8249-87e1fb21e889
-78.873800245200229,43.902145192852792,509,NATURAL HERITAGE,WATERWAYS,CREEKS,Oshawa Creek,,,218 Adelaide Ave,Oshawa,Ontario,Canada,,2017-05-18T17:22:22.439Z,City.of.Oshawa,2017-11-14T15:09:28.232Z,mmandel_oshawa,470114c1-5593-49c4-a885-1f1aad435537
-78.862695999957481,43.887510999903085,510,NATURAL HERITAGE,WATERWAYS,CREEKS,Oshawa Creek,,,95 ROYAL ST,OSHAWA,ONTARIO,CANADA,,2017-05-18T17:22:22.439Z,City.of.Oshawa,2017-05-18T17:22:22.439Z,City.of.Oshawa,b7428153-d898-4282-8160-a5bc04b4965d
-78.843850999993407,43.902191000037604,511,NATURAL HERITAGE,WATERWAYS,CREEKS,Oshawa Creek,,,1920 WILSON RD N,OSHAWA,ONTARIO,CANADA,,2017-05-18T17:22:22.439Z,City.of.Oshawa,2017-05-18T17:22:22.439Z,City.of.Oshawa,4bfa0656-be63-4501-8c7b-486754aad2ff
-78.886962000284555,43.950000999931575,512,NATURAL HERITAGE,WATERWAYS,CREEKS,Oshawa Creek,,,250 CONLIN RD E,OSHAWA,ONTARIO,CANADA,,2017-05-18T17:22:22.439Z,City.of.Oshawa,2017-05-18T17:22:22.439Z,City.of.Oshawa,327143e2-c3d1-48aa-8928-573b28097a9e
-78.876505000421332,43.951406000166784,513,NATURAL HERITAGE,WATERWAYS,CREEKS,Oshawa Creek,,,1970 Ritson Rd N,Oshawa,Ontario,Canada,,2017-05-18T17:22:22.439Z,City.of.Oshawa,2017-11-07T18:32:32.858Z,mmandel_oshawa,53637040-53d6-4d88-a4a4-50c52b750f76
-78.843850999993407,43.902191000037604,516,NATURAL HERITAGE,WATERWAYS,CREEKS,Oshawa Creek,,,1945 WILSON RD N,OSHAWA,ONTARIO,CANADA,,2017-05-18T17:22:22.439Z,City.of.Oshawa,2017-05-18T17:22:22.439Z,City.of.Oshawa,65b0f70f-650f-434d-956a-4b2850dca7ea
-78.88663099984845,43.95534000015369,517,NATURAL HERITAGE,WATERWAYS,CREEKS,Oshawa Creek,,https://www.oshawa.ca/things-to-do/resources/city-of-oshawa-trails-brochure.pdf,296 BRITANNIA AVE,Oshawa,Ontario,Canada,,2017-05-18T17:22:22.439Z,City.of.Oshawa,2017-10-31T19:23:06.686Z,mmandel_oshawa,72343148-d966-4853-87c0-5f446464d8ab
-78.876572000368498,43.946144000191545,518,NATURAL HERITAGE,WATERWAYS,CREEKS,Oshawa Creek,,,350 Woodmount Dr,Oshawa,Ontario,Canada,,2017-05-18T17:22:22.439Z,City.of.Oshawa,2017-11-07T18:42:09.105Z,mmandel_oshawa,fce2d0a5-2e3a-4c2c-9335-9206565ad9b8
-78.823588000370194,43.880194999745797,519,NATURAL HERITAGE,WATERWAYS,MARSHES,Second Marsh,,,795 COLONEL SAM DR,OSHAWA,ONTARIO,CANADA,,2017-05-18T17:22:22.439Z,City.of.Oshawa,2017-05-18T17:22:22.439Z,City.of.Oshawa,0af3b93c-8650-495d-9c42-a349ae02ff06
-78.87312600005653,43.855067999798905,520,NATURAL HERITAGE,WATERWAYS,MARSHES,Gold Point Marsh,,,1221 PHILLIP MURRAY AVE,OSHAWA,ONTARIO,CANADA,,2017-05-18T17:22:22.439Z,City.of.Oshawa,2017-05-18T17:22:22.439Z,City.of.Oshawa,32ef8b93-32a3-4ca3-8f6c-9618ab41a5e9
-78.813234000439138,43.890114999949176,521,NATURAL HERITAGE,OTHER SIGNIFICANT NATURAL HERITAGE,,Grandview/Annandale,,,1200 BLOOR ST E,OSHAWA,ONTARIO,CANADA,,2017-05-18T17:22:22.439Z,City.of.Oshawa,2017-05-18T17:22:22.439Z,City.of.Oshawa,eb010b24-67ff-4849-913b-f0baddf86e49
-78.86280889771632,43.895610376767266,523,COMMUNITY CULTURAL ORGANIZATIONS,ABORIGINAL GROUPS,ABORIGINAL GROUPS,Oshawa And Durham Region Metis Council,,http://www.metisnation.org/community-councils/council-contacts/,74 Simcoe St S,Oshawa,Ontario,Canada,L1H 4G6,2017-05-18T17:22:22.439Z,City.of.Oshawa,2017-11-07T20:57:41.697Z,mmandel_oshawa,08ff7c54-940e-4681-a976-31469a3db6b3
-78.844374999875043,43.870015999769677,524,COMMUNITY CULTURAL ORGANIZATIONS,ABORIGINAL GROUPS,ABORIGINAL GROUPS,Aboriginal Advisory Circle,,,115 GRASSMERE AVE,OSHAWA,ONTARIO,CANADA,L1H3X7,2017-05-18T17:22:22.439Z,City.of.Oshawa,2017-05-18T17:22:22.439Z,City.of.Oshawa,50e3db9f-96aa-4696-9f54-37b0e85a5502
-78.836878000076965,43.909081000070586,525,COMMUNITY CULTURAL ORGANIZATIONS,CRAFT GROUPS,,Durham Woodworking Group (Oshawa),,,797 Eastborne St.,OSHAWA,ONTARIO,CANADA,L1G 1N9,2017-05-18T17:22:22.439Z,City.of.Oshawa,2017-05-18T17:22:22.439Z,City.of.Oshawa,760150f5-248b-4b4c-832a-8eb3b71587a7
-78.894581749333483,43.917081136718515,526,COMMUNITY CULTURAL ORGANIZATIONS,HERITAGE GROUPS,GENEALOGICAL SOCIETIES,Genealogy Society Durham Region,,,1000 Stevenson Rd N,Oshawa,Ontario,Canada,L1J 5P5,2017-05-18T17:22:22.439Z,City.of.Oshawa,2017-11-07T19:53:55.017Z,mmandel_oshawa,e08e9c55-930b-4c9e-8e1e-69b1c1940a85
-78.865124999569971,43.895858999903687,527,COMMUNITY CULTURAL ORGANIZATIONS,HERITAGE GROUPS,OTHER HERITAGE GROUPS,Heritage Oshawa,,WWW.HERITAGEOSHAWA.CA,50 CENTRE ST S,OSHAWA,ONTARIO,CANADA,L1H3Z7,2017-05-18T17:22:22.439Z,City.of.Oshawa,2017-05-18T17:22:22.439Z,City.of.Oshawa,c773de5c-b3d9-47f0-92d9-6ff665f511fc
-78.865124999569971,43.895858999903687,528,COMMUNITY CULTURAL ORGANIZATIONS,HERITAGE GROUPS,HISTORICAL SOCIETIES,Art & History Committee,,,50 CENTRE ST S,OSHAWA,ONTARIO,CANADA,L1H3Z7,2017-05-18T17:22:22.439Z,City.of.Oshawa,2017-05-18T17:22:22.439Z,City.of.Oshawa,a1e88f29-0c01-4ecd-aa96-ce4d3845bdbe
-78.82689099966872,43.863894000177751,529,COMMUNITY CULTURAL ORGANIZATIONS,HERITAGE GROUPS,HISTORICAL SOCIETIES,Oshawa Historical Society,,WWW.OSHAWAHISTORICALSOCIETY.ORG,1450 SIMCOE ST S,OSHAWA,ONTARIO,CANADA,L1H8S8,2017-05-18T17:22:22.439Z,City.of.Oshawa,2017-05-18T17:22:22.439Z,City.of.Oshawa,d40ae900-df86-4e00-bbed-3c09b6c54a04
-78.894657618976524,43.916425060264622,530,COMMUNITY CULTURAL ORGANIZATIONS,HERITAGE GROUPS,OTHER HERITAGE GROUPS,420 Wing RCAF Association,,http://www.420wing.com/,1000 Stevenson Rd N,Oshawa,Ontario,Canada,L1J 5P5,2017-05-18T17:22:22.439Z,City.of.Oshawa,2017-11-07T19:42:31.663Z,mmandel_oshawa,708b7936-8598-4526-a69c-181a105eae1e
-78.895903066779383,43.89611551364073,531,COMMUNITY CULTURAL ORGANIZATIONS,MULTICULTURAL GROUPS,MULTICULTURAL GROUPS,Canadian Jamaican Club of Oshawa,,canadianjamaicanclubofoshawa.org,210 Thornton Rd N,Oshawa,Ontario,Canada,L1J6T7,2017-05-18T17:22:22.439Z,City.of.Oshawa,2017-11-14T14:58:11.958Z,mmandel_oshawa,b8f3bb70-19c3-4540-8d0e-167c10975607
-78.830300000170737,43.87871199998186,532,COMMUNITY CULTURAL ORGANIZATIONS,MULTICULTURAL GROUPS,MULTICULTURAL GROUPS,Club Carib Of Oshawa,,https://www.facebook.com/The-Official-Club-Carib-of-Oshawa-Inc-165309146854614/,600 WENTWORTH ST. E,OSHAWA,ONTARIO,CANADA,L1H3V9,2017-05-18T17:22:22.439Z,City.of.Oshawa,2017-11-01T20:05:02.365Z,mmandel_oshawa,c204911f-d240-4299-aa09-89951fec91a9
-78.843788000244231,43.888447999719666,533,COMMUNITY CULTURAL ORGANIZATIONS,MULTICULTURAL GROUPS,MULTICULTURAL GROUPS,Club Lorely (German Canadian Club),,,389 DEAN AVE,OSHAWA,ONTARIO,CANADA,L1H3E1,2017-05-18T17:22:22.439Z,City.of.Oshawa,2017-05-18T17:22:22.439Z,City.of.Oshawa,3294b0fe-df69-4ab0-b3e4-01fbd23005d3
-78.862838000247706,43.89598500004724,534,COMMUNITY CULTURAL ORGANIZATIONS,MULTICULTURAL GROUPS,MULTICULTURAL GROUPS,Conseil Des Organismes Franchphones De La Region De Durham,,,57 SIMCOE ST S,OSHAWA,ONTARIO,CANADA,L1J5M1,2017-05-18T17:22:22.439Z,City.of.Oshawa,2017-05-18T17:22:22.439Z,City.of.Oshawa,49260b0d-e7c8-4896-bf25-3ebdf63e5eda
-78.843503999663767,43.882526999982673,535,COMMUNITY CULTURAL ORGANIZATIONS,MULTICULTURAL GROUPS,MULTICULTURAL GROUPS,Dnipro Hall - Ukranian Cultural Centre,,,681 DNIPRO BLVD,OSHAWA,ONTARIO,CANADA,L1H5N5,2017-05-18T17:22:22.439Z,City.of.Oshawa,2017-05-18T17:22:22.439Z,City.of.Oshawa,655346c0-cb08-4789-b10e-b02d628851fb
-78.891018999618481,43.944340999926155,536,COMMUNITY CULTURAL ORGANIZATIONS,MULTICULTURAL GROUPS,MULTICULTURAL GROUPS,Durham Chinese-Canadian Culture Centre,,,2000 SIMCOE ST N,OSHAWA,ONTARIO,CANADA,L1H7K4,2017-05-18T17:22:22.439Z,City.of.Oshawa,2017-05-18T17:22:22.439Z,City.of.Oshawa,5c9e8cb9-341f-49e3-9a3e-57c0f0f8e02b
-78.900296000372265,43.933133000120982,537,COMMUNITY CULTURAL ORGANIZATIONS,MULTICULTURAL GROUPS,MULTICULTURAL GROUPS,General W. Sikorski Polish Veterans Association Hall,,http://www.generalsikorskihall.com/,1551 Stevenson Rd N,Oshawa,Ontario,Canada,L1H 7K4,2017-05-18T17:22:22.439Z,City.of.Oshawa,2017-11-07T18:15:47.977Z,mmandel_oshawa,70b73182-333c-4f3d-b760-00cf42cc1d78
-78.847256000297477,43.882406999990302,538,COMMUNITY CULTURAL ORGANIZATIONS,MULTICULTURAL GROUPS,MULTICULTURAL GROUPS,Maltese Canadian Social Club,,,236 BLOOR ST E,OSHAWA,ONTARIO,CANADA,L1H3M6,2017-05-18T17:22:22.439Z,City.of.Oshawa,2017-05-18T17:22:22.439Z,City.of.Oshawa,b30d7165-a7ba-46cc-a3d3-2b367899808c
-78.850968999674805,43.939284000310359,539,COMMUNITY CULTURAL ORGANIZATIONS,MULTICULTURAL GROUPS,MULTICULTURAL GROUPS,Mulicultural Council Of Oshawa Durham,,,784 Taunton Rd E,Oshawa,Ontario,Canada,L1H 7K0,2017-05-18T17:22:22.439Z,City.of.Oshawa,2017-11-07T19:03:37.724Z,mmandel_oshawa,ea14efca-f2b2-46dd-af10-02a7e7828df2
-78.856076000218451,43.88649299981541,540,COMMUNITY CULTURAL ORGANIZATIONS,MULTICULTURAL GROUPS,MULTICULTURAL GROUPS,Oshawa Hungarian Culture Club,,,64 ALBANY ST,OSHAWA,ONTARIO,CANADA,L1H2Z2,2017-05-18T17:22:22.439Z,City.of.Oshawa,2017-05-18T17:22:22.439Z,City.of.Oshawa,276888da-b486-4c96-9cc8-af46a13e63fe
-78.860593999684838,43.891168999693768,541,COMMUNITY CULTURAL ORGANIZATIONS,MULTICULTURAL GROUPS,MULTICULTURAL GROUPS,Oshawa Italian Recreation Club,,,245 SIMCOE ST S,OSHAWA,ONTARIO,CANADA,L1H4H3,2017-05-18T17:22:22.439Z,City.of.Oshawa,2017-05-18T17:22:22.439Z,City.of.Oshawa,c78dcb62-115a-47df-9bb9-d5ccdb8b8456
-78.86724899958395,43.935627000060926,542,COMMUNITY CULTURAL ORGANIZATIONS,MUSIC GROUPS,BANDS AND CHOIRS,Durham Girls Choir,,,300 Taunton Rd E,Oshawa,Ontario,Canada,L1G 7W7,2017-05-18T17:22:22.439Z,City.of.Oshawa,2017-11-07T18:49:03.358Z,mmandel_oshawa,74037807-e13c-409b-9bcc-97f5af39c0d7
-78.864997000421766,43.895155999824667,543,COMMUNITY CULTURAL ORGANIZATIONS,LITERARY GROUPS,BOOK CLUBS,Book Clubs (Library),,WWW.OSHAWALIBRARY.ON.CA,65 BAGOT ST,OSHAWA,ONTARIO,CANADA,L1H1N2,2017-05-18T17:22:22.439Z,City.of.Oshawa,2017-05-18T17:22:22.439Z,City.of.Oshawa,389e03f6-413e-4b21-b36e-cb40c9455659
-78.856102000157733,43.89940999969663,544,COMMUNITY CULTURAL ORGANIZATIONS,NATURAL HERITAGE GROUPS,NATURAL HERITAGE GROUPS,Friends Of Second Marsh,,HTTP://SECONDMARSH.OUTDOORONTARIO.CA,206 King Street East,OSHAWA,ONTARIO,CANADA,L1H8R4,2017-05-18T17:22:22.439Z,City.of.Oshawa,2017-05-18T17:22:22.439Z,City.of.Oshawa,0ff01295-cf1a-4b36-bae2-0363b8432fb7
-78.900910413019787,43.957505850854425,568,CULTURAL HERITAGE,Other Cultural Heritage Assets,Cemeteries,Trillium Horse Cemetery,,https://www.oshawa.ca/things-to-do/resources/heritageoshawa_inventoryofheritageproperties.pdf,2370 Simcoe St N,Oshawa,Ontario,Canada,,2017-07-28T13:33:03.203Z,mmandel_oshawa,2017-10-31T19:14:28.213Z,mmandel_oshawa,2d8afffe-f7fc-4b57-9505-a7b1e421cc6a
-78.891777687639689,43.891293580218708,572,CULTURAL HERITAGE,,Designated Heritage Properties,Mausoleum,,,760 King St W,Oshawa,Ontario,Canada,,2017-07-28T14:05:15.601Z,mmandel_oshawa,2017-10-30T19:00:51.817Z,mmandel_oshawa,f0ebd0d2-c6ea-47fc-ada9-3bb2674287ca
-78.854598259441545,43.880401097232195,574,CULTURAL HERITAGE,Built Heritage Properties,Designated Heritage Properties,St John the Baptist Ukrainian Orthodox Church,,http://www.stjohnoshawa.com/,31 Bloor St E,,ON,,L1H 3L9,2017-07-28T14:36:05.756Z,mmandel_oshawa,2017-11-01T20:07:30.701Z,mmandel_oshawa,feffefd3-6b1b-4ad5-8347-f7542118d56a
-78.864581325965034,43.898457389152952,575,CULTURAL HERITAGE,Built Heritage Properties,Designated Heritage Properties,Traicus Buildings,,,"10, 12, 14 Bond St W",Oshawa,ON,,L1G 1A2,2017-07-28T14:37:33.015Z,mmandel_oshawa,2017-10-30T19:12:09.061Z,mmandel_oshawa,b00d5eb5-b491-4224-863d-221b792ebe3c
-78.862406836697431,43.888889967001468,577,CULTURAL HERITAGE,Built Heritage,Designated Heritage Property,Pinewood Centre,,,300 Centre St S,Oshawa,On,Canada,L1H 2K5,2017-07-28T14:57:01.331Z,mmandel_oshawa,2017-10-30T19:27:23.298Z,mmandel_oshawa,39fb3155-292a-4b0f-aa0d-b2036cd9d25d
-78.857821545390635,43.897290471365565,578,CULTURAL HERITAGE,Built Heritage Properties,Designated Heritage Properties,Alger Press Building,,,61 Charles St,Oshawa,ON,canada,L1H 4X8,2017-07-28T14:58:29.288Z,mmandel_oshawa,2017-10-30T19:42:18.071Z,mmandel_oshawa,c0e69c2a-c1bd-4439-9f80-9d73482a8603
-78.838986592389816,43.902462841567022,579,CULTURAL HERITAGE,,,Gifford Hill,,,0 Farewell St,,,,,2017-07-28T15:11:38.325Z,mmandel_oshawa,2017-07-28T15:11:52.987Z,mmandel_oshawa,41f2006a-e284-49b2-97b6-5c330f220d4c
-78.811428608710088,43.889883880487865,580,CULTURAL HERITAGE,,,St. Mary's Ukrainian Orthodox Cemetery,,,0 Grandview & Bloor,,,,,2017-07-28T15:22:25.566Z,mmandel_oshawa,2017-07-28T15:23:13.214Z,mmandel_oshawa,4deb44c7-bea3-43bd-9c5a-6e9dc497fa7e
-78.867499862269227,43.977162884188822,581,CULTURAL HERITAGE,Other Cultural Heritage Assets,Cemeteries,Farewell-Harmony Cemetery,,https://archaeologyinoshawa.wordpress.com/farewell-cemetery-site/,0 Harmony Rd S,Oshawa,Ontario,Canada,L1H 6T1,2017-07-28T15:34:02.048Z,mmandel_oshawa,2017-10-31T18:59:59.061Z,mmandel_oshawa,c7f20575-ce4a-4f18-89d0-b20e65d10da5
-78.831060472014968,43.901010216593157,582,CULTURAL HERITAGE,,,Harmony Road Public School,,,149 Harmony Rd S,,,,,2017-07-28T15:35:03.707Z,mmandel_oshawa,2017-07-28T15:35:22.645Z,mmandel_oshawa,b864954b-f4f6-4512-8c25-b1f4717ec025
-78.868931890546435,43.90602763856787,583,CULTURAL HERITAGE,Built Heritage,Designated Heritage Properties,McLaughlin Hall,,,1 Hospital Ct,Oshawa,On,Canada,L1G4T5,2017-07-28T15:37:23.889Z,mmandel_oshawa,2017-10-30T19:34:57.782Z,mmandel_oshawa,ade95779-31d4-475b-8687-a484f183e03f
-78.853769034632663,43.886782300184763,584,CULTURAL HERITAGE,Built Heritage Properties,Designated Heritage Properties,Ontario Malleable Iron,,,500 Howard St,Oshawa,ON,Canada,L1H 4Y8,2017-07-28T15:41:15.265Z,mmandel_oshawa,2017-10-30T19:36:05.995Z,mmandel_oshawa,b6845c86-139d-46c3-96ca-2c4b3e31ac3e
-78.86407429142929,43.897649756890665,585,CULTURAL HERITAGE,Built Heritage Properties,Designated Heritage Properties,Lovell Drugs,,,"6, 18 King St E",Oshawa,ON,Canada,L1H 1A9,2017-07-28T16:58:39.214Z,mmandel_oshawa,2017-10-30T19:36:57.594Z,mmandel_oshawa,1d49fd03-38cc-45f3-865e-ef96001eb7f5
-78.859194174511572,43.898325452171562,587,CULTURAL HERITAGE,Built Heritage Properties,Designated Heritage Properties,Oshawa Clinic,,,117 King St E,Oshawa,ON,Canada,L1H 1B9,2017-07-28T17:05:28.531Z,mmandel_oshawa,2017-10-30T19:43:22.579Z,mmandel_oshawa,5987ab00-9ca7-41a2-a6bf-beb40f96663c
-78.859530619750117,43.898865361260512,588,CULTURAL HERITAGE,Built Heritage Properties,Designated Heritage Property,Beth Zion Synagogue,,www.bethzionoshawa.ca,144 King St E,Oshawa,On,Canada,L1H 1B6,2017-07-28T17:06:15.900Z,mmandel_oshawa,2017-10-30T19:43:47.346Z,mmandel_oshawa,d096eb70-1439-4175-93ce-08d5dcb00954
-78.866079373615918,43.897244999848297,589,CULTURAL HERITAGE,Built Heritage Properties,,Oshawa House Hotel,,,62 King St W,,,,,2017-07-28T17:16:17.592Z,mmandel_oshawa,2017-10-30T18:34:27.755Z,mmandel_oshawa,3ad1d74e-9a52-4eeb-af6b-261db7ead6f3
-78.83360256614985,43.86297022819943,591,CULTURAL ENTERPRISES,Built Heritage Properties,Auditorium,Jubilee Pavilion,,http://www.jubileepavilion.com/,55 Lakeview Park Ave,Oshawa,On,,,2017-07-28T17:19:21.263Z,mmandel_oshawa,2017-10-30T18:42:00.615Z,mmandel_oshawa,0ec9b28d-d576-4194-8a1e-35d6954279cb
-78.858112176533879,43.888795481206259,592,CULTURAL HERITAGE,,,New Life Centre,,,33 Olive Ave,,,,,2017-07-28T17:43:25.447Z,mmandel_oshawa,2017-07-28T17:43:37.179Z,mmandel_oshawa,4c5a8bb0-eac0-412e-ba98-e35be26df6bd
-78.853987955733544,43.862121920612012,593,COMMUNITY CULTURAL ORGANIZATIONS,Cultural Centres,Community Centres,St. Philip's Roman Catholic Church,,http://www.stphiliptheapostle.com/,1314 Oxford St,Oshawa,ON,Canada,L1J 3W6,2017-07-28T17:45:39.164Z,mmandel_oshawa,2017-11-01T19:45:07.474Z,mmandel_oshawa,433dff83-6514-44a8-a45e-f104f31ba144
-78.85092091830299,43.891920062160068,594,CULTURAL HERITAGE,,,Ritson Public School,,,300 Ritson Rd S,,,,,2017-07-28T18:18:25.179Z,mmandel_oshawa,2017-07-28T18:18:50.497Z,mmandel_oshawa,4950e8f8-04f6-4e5f-a86b-7255cee55465
-78.918064461054001,44.036118097267654,595,CULTURAL HERITAGE,Nature Reserve,Park,Purple Woods Conservation Area,,http://www.ontariotrails.on.ca/trails/view/purple-woods-conservation-area,"38 Coates Rd, E",Oshawa,On,Canada,L1H 3T3,2017-07-28T18:25:24.025Z,mmandel_oshawa,2017-10-31T18:24:48.949Z,mmandel_oshawa,2a05fac9-d092-436f-ad54-73dff44d3919
-78.86366187528867,43.897190921146269,597,CULTURAL ENTERPRISES,Broadcasting,,Channel 12 Studio,,,10 Simcoe St N,,,,,2017-07-28T18:27:47.843Z,mmandel_oshawa,2017-10-30T18:40:18.586Z,mmandel_oshawa,bfa6fd63-ea97-441e-a2c8-14481602eb88
-78.864522730055469,43.898912645446423,598,CULTURAL HERITAGE,Built Heritage Properties,Designated Heritage Properties,Lovell Building,,,50 Simcoe S N,,,,,2017-07-28T18:30:53.633Z,mmandel_oshawa,2017-10-30T18:53:55.169Z,mmandel_oshawa,b5ae66fc-30ef-467d-a84e-4b159ac2525c
-78.863590174338256,43.899195359072337,599,CULTURAL HERITAGE,Built Heritage Properties,,Oshawa Armories,,,53 Simcoe St N,,,,,2017-07-28T18:31:59.286Z,mmandel_oshawa,2017-10-30T18:35:03.152Z,mmandel_oshawa,52e3affd-cb82-454e-993b-a2cb95b995fa
-78.864981358479852,43.901565416097554,600,COMMUNITY CULTURAL ORGANIZATIONS,,,Knox Presbyterian Church,,,147 Simcoe St N,,,,,2017-07-28T18:34:42.722Z,mmandel_oshawa,2017-10-30T18:35:27.627Z,mmandel_oshawa,e467976b-c1a5-407b-ab29-0db66257f1e7
-78.866362608532896,43.902599532019231,601,CULTURAL HERITAGE,Built Heritage Properties,,St. Gregory's Catholic Church,,,194 Simcoe St N,,,,,2017-07-28T18:36:46.627Z,mmandel_oshawa,2017-10-30T18:33:00.217Z,mmandel_oshawa,5d786312-4755-478f-a295-2bc7c257c759
-78.866708592368425,43.902809699569296,602,CULTURAL HERITAGE,Built Heritage Properties,,St. Gregory School,,,202 Simcoe St N,,,,,2017-07-28T18:38:14.107Z,mmandel_oshawa,2017-10-30T18:33:04.297Z,mmandel_oshawa,87c894fd-bac3-4164-ae67-134edc1f9e4d
-78.865537828344586,43.906123752082458,603,CULTURAL HERITAGE,,,O'Neill Collegiate and Vocational Institute,,,301 Simcoe St N,,,,,2017-07-28T18:39:21.623Z,mmandel_oshawa,2017-07-28T18:40:14.316Z,mmandel_oshawa,dce3aa7f-9489-4cae-a708-f00b6fa10258
-78.843906081183391,43.873963999320985,604,CULTURAL HERITAGE,,,St. Gregory's Cemetery,,,1055 Simcoe St N,,,,,2017-07-28T18:50:29.496Z,mmandel_oshawa,2017-07-28T18:50:49.682Z,mmandel_oshawa,07816752-56c9-4685-8cb3-866dec944882
-78.882627168948829,43.942463211671097,605,CULTURAL HERITAGE,Other Cultural Heritage Assets,,Camp Samac,,http://wpc.scouts.ca/ca/camp-samac,1711 Simcoe St N,Oshawa,Ontario,Canada,,2017-07-28T18:52:42.087Z,mmandel_oshawa,2017-11-07T18:32:03.130Z,mmandel_oshawa,da2262eb-8852-4058-9d17-b65bd4190832
-78.90995672797095,43.981222335206361,608,CULTURAL HERITAGE,Cultural Centre,,Columbus United Church,,https://columbusunitedoshawa.com/,3285 Simcoe St N,Oshawa,Ontario,Canada,L1H 7K4,2017-07-28T18:58:55.674Z,mmandel_oshawa,2017-10-31T18:47:28.993Z,mmandel_oshawa,4e5993bd-7009-4511-b151-c535568a06f1
-78.862504973260485,43.896475131251108,609,CULTURAL HERITAGE,Built Heritage Properties,,Canada Post,,,47 Simcoe St S,,,,,2017-07-28T19:07:11.009Z,mmandel_oshawa,2017-10-30T18:54:36.932Z,mmandel_oshawa,9e642986-1a01-4151-ad6f-ffca1a02b2a0
-78.86230213210213,43.895699515086697,610,COMMUNITY CULTURAL ORGANIZATIONS,,,Oshawa Community Church,,,65 Simcoe St S,,,,,2017-07-28T19:12:29.265Z,mmandel_oshawa,2017-10-30T18:36:24.962Z,mmandel_oshawa,5f33f424-63cd-4341-ad3e-bdaf1d5dbb04
-78.858178776352574,43.888118131454164,612,CULTURAL HERITAGE,,,Holy Cross Church,,,373 Simcoe S S,,,,,2017-07-28T19:19:28.492Z,mmandel_oshawa,2017-07-28T19:19:45.850Z,mmandel_oshawa,b42a4cf3-3109-4767-99e6-17dc1127fe2d
-78.858068220373426,43.884731017902673,613,CULTURAL HERITAGE,,,St. James Church,,,486 Simcoe St S,,,,,2017-07-28T19:20:43.903Z,mmandel_oshawa,2017-07-28T19:21:09.230Z,mmandel_oshawa,8a61c2cd-7eb3-411f-b858-40adf9662f61
-78.856590488842272,43.88460801151426,614,COMMUNITY CULTURAL ORGANIZATIONS,,,St. George's Ukrainian Seniors Centre,,,505 Simcoe St S,,,,,2017-07-28T19:21:31.602Z,mmandel_oshawa,2017-10-30T18:47:10.150Z,mmandel_oshawa,3c1d3a6f-ed9a-4838-8935-3dc64b697f81
-78.851486683207241,43.877110159325575,615,CULTURAL HERITAGE,Cultural Centres,Community Centres,Cedardale United Church,,,824 Simcoe St S,Oshawa,ON,Canada,L1H 4K6,2017-07-28T19:23:32.999Z,mmandel_oshawa,2017-11-01T20:02:57.163Z,mmandel_oshawa,b4a708a0-b79a-4b56-9843-6d1260f1fab0
-78.893788558375235,43.918093556178626,616,CULTURAL HERITAGE,Museums,History Museums,Oshawa Aeronautical Military and Industrial Museum,,,1000 Stevenson Rd N,Oshawa,Ontario,Canada,L1J 5P5,2017-07-28T19:27:22.698Z,mmandel_oshawa,2017-11-07T19:45:43.791Z,mmandel_oshawa,b496eb22-cbd2-4c19-b211-408daff0a98c
-78.893795481133907,43.918084155211666,618,CULTURAL HERITAGE,,,Control Tower,Nav Canada,,1000 Stevenson Rd N,Oshawa,Ontario,Canada,L1J 5P5,2017-07-28T19:28:39.171Z,mmandel_oshawa,2017-11-07T19:49:13.605Z,mmandel_oshawa,5da2346d-37a1-44c4-af64-f0f0d75801fa
-78.93073750919983,43.977729498513732,619,CULTURAL HERITAGE,Other Cultural Heritage Assets,Cemetery,St. Paul's Cemetery,,,3325 Thornton Rd N,Oshawa,Ontario,Canada,,2017-07-28T19:32:16.608Z,mmandel_oshawa,2017-10-31T18:28:58.318Z,mmandel_oshawa,402adcdf-9e65-4778-ab5e-05614a81c481
-78.853424567882087,43.873635224733981,620,CULTURAL HERITAGE,Built Heritage Properties,Designated Heritage Properties,Former Robson Leather Factory,,,100 Whiting Ave,Oshawa,On,Canada,L1H 3T3,2017-07-28T19:35:56.229Z,mmandel_oshawa,2017-11-01T20:00:22.674Z,mmandel_oshawa,925c8b41-d441-4740-84d3-5f0fdaae90b4
-78.861955794725574,43.898908280143615,627,CULTURAL ENTERPRISES,Visual Arts,Visual Arts Instruction,The Paint Factory,,http://www.thepaintfactory.ca/,50 Bond St E,Oshawa,ON,Canada,L1G 1B1,2017-09-06T16:50:58.920Z,mmandel_oshawa,2017-10-30T18:53:22.514Z,mmandel_oshawa,272bec22-3f5a-4a8e-9971-7621614646b4
-78.859017000018383,43.896893000157348,628,CULTURAL FACILITIES,PERFORMING ART CENTRES,PERFORMING ART VENUES,Tribute Communities Centre,,http://www.tributecommunitiescentre.com/,99 ATHOL ST E,OSHAWA,ONTARIO,CANADA,L1H1J8,2017-09-14T17:21:19.254Z,mmandel_oshawa,2017-09-14T17:21:19.254Z,mmandel_oshawa,bf68bd61-8fe1-4e50-b3f7-0b9c5026e7ab
-78.863926448355642,43.89989583987915,629,CULTURAL FACILITIES,Art Gallery,,Gallery67,Oshawa Art Association,http://www.oshawaartassociation.com/gallery67.htm,"Holiday Inn Oshawa, 1st floor 67 Simcoe Street North,",Oshawa,Ontario,Canada,L1G 4S3,2017-09-14T17:23:37.910Z,mmandel_oshawa,2017-10-30T18:35:14.438Z,mmandel_oshawa,8abb42b8-46f5-43d8-958c-65759469837d
-78.865868154715514,43.894948670557156,630,CULTURAL FACILITIES,Art Gallery,,Robert McLaughlin Gallery,,http://rmg.on.ca/,72 Queen St,Oshawa,Ontario,Canada,L1H 3Z3,2017-10-30T18:03:38.759Z,mmandel_oshawa,2017-10-30T18:04:44.571Z,mmandel_oshawa,968d3577-91d5-4c7f-a3be-d16025d1ca4a
-78.866800837968668,43.896504969034112,632,CULTURAL FACILITIES,Art Gallery and Theatre,,Art Resource Centre,,https://www.oshawa.ca/Modules/Facilities/Index.aspx?CategoryIds=&FacilityTypeIds=9&Keywords=Arts+Resource+Centre&ScrollMap=true,45 Queen St,Oshawa,ON,Canada,L1H 3Z3,2017-10-30T18:06:09.734Z,mmandel_oshawa,2017-10-30T18:07:18.188Z,mmandel_oshawa,47ccde94-b16d-42be-9d70-4484f9cfbbe1
-78.854288862463463,43.882526856166393,633,CULTURAL HERITAGE,,Heritage Designated Property,St George the Great Martyr Ukrainian Catholic Church,,http://stgeorgethegreatmartyr.com/,42 Lviv Blvd,OSHAWA,ON,,L1H 3C3,2017-10-30T19:07:06.487Z,mmandel_oshawa,2017-10-30T19:10:36.302Z,mmandel_oshawa,d2e906cd-5d5c-4f14-9f4d-a526fa3bfa85
-78.864180572564862,43.89478499696682,634,CULTURAL HERITAGE,Built Heritage,Designated Heritage Properties,Masonic Temple,,,91 Centre St S,Oshawa,On,Canada,,2017-10-30T19:20:23.127Z,mmandel_oshawa,2017-10-30T19:21:01.157Z,mmandel_oshawa,883bf30a-3d6d-45da-a4f1-fe06c4dd500a
-78.864529051860742,43.895541893349161,635,CULTURAL HERITAGE,Heritage Property,Designated Heritage Property,St George’s Memorial Anglican Church,,http://www.stgeorgesoshawa.org,51 Centre St S,Oshawa,On,,L1H 3Z9,2017-10-30T19:21:41.798Z,mmandel_oshawa,2017-10-30T19:22:42.612Z,mmandel_oshawa,362a4345-5699-4279-aeb1-ae3a2c2bcc7f
-78.864614950071768,43.894051283345014,636,CULTURAL HERITAGE,Built Heritage,Designated Heritage Property,E.A. Lovell School,,,120 Centre St S,Oshawa,On,Canada,L1H 4A3,2017-10-30T19:25:11.571Z,mmandel_oshawa,2017-10-30T19:26:10.509Z,mmandel_oshawa,d8dab4b7-e7cb-4edf-ad14-b6d4b8891183
-78.895657330708303,43.946589627409949,639,FESTIVALS AND EVENTS,Farm Events,Farmer's Market,North Oshawa Farmer's Market,North Oshawa Farmer's Market,http://www.northoshawafarmersmarket.ca,2000 Simcoe St N,Oshawa,Ontario,Canada,,2017-11-07T19:18:11.420Z,mmandel_oshawa,2017-11-07T19:20:22.460Z,mmandel_oshawa,57525f4d-ea25-41ae-ae72-b93c3d6e9a79
-78.845892004181067,43.954849939584477,640,NATURAL HERITAGE,WATERWAYS,CREEKS,Harmony Creek,,,1710 Grandview St N,Oshawa,Ontario,Canada,,2017-11-07T19:22:50.838Z,mmandel_oshawa,2017-11-07T19:26:35.999Z,mmandel_oshawa,06d839d1-a84d-458c-a56f-fb64d8330801
-78.866843358794085,43.896647590165784,641,PUBLIC ART,,,Canada 150 Durham College Collaboration,City of Oshawa,http://www.oshawa.ca/things-to-do/galleries-and-public-art.asp,"45 Queen St,","Oshawa,",ON,,L1H 3Z3,2018-01-22T16:18:42.063Z,mmandel_oshawa,2018-01-22T16:19:41.666Z,mmandel_oshawa,1b66bfd0-c339-47af-b601-4a7abb6645bc
-78.865263560033114,43.89619166926655,642,PUBLIC ART,,,Mural in front of Civic Square: A Collaboration with Durham College,City of Oshawa,http://www.oshawa.ca/things-to-do/galleries-and-public-art.asp,In front of Civic Square on Centre St,Oshawa,,,,2018-01-22T16:20:38.682Z,mmandel_oshawa,2018-01-22T16:21:46.421Z,mmandel_oshawa,2b7a0e0d-5b06-41e0-9aab-f0635ed98d06
-78.872734530256764,43.900403711150659,643,PUBLIC ART,,, ,,, ,,,,,2018-01-22T16:32:21.940Z,mmandel_oshawa,2018-01-22T16:32:21.940Z,mmandel_oshawa,a327756f-2595-4a6a-b09c-6aa22bf73003
-78.872627479451111,43.900449360618133,644,PUBLIC ART,,,Mushrooms (sculpture),"City of Oshawa donated byby Stephen’s Catholic Secondary School, Bowmanville",http://www.oshawa.ca/things-to-do/galleries-and-public-art.asp,155 Arena St,Oshawa,On,Canada,,2018-01-22T16:32:22.458Z,mmandel_oshawa,2018-01-22T16:33:43.910Z,mmandel_oshawa,32ebeb88-90ed-4f00-9e14-e9c63cae4515
-78.889379129972212,43.911185391844349,647,CULTURAL ENTERPRISES,,,Community Innovation Lab,,http://communityilab.ca/,"600 Rossland Rd W,",Oshawa,Ontario,Canada,L1J 3E6,2018-03-12T21:17:19.916Z,mmandel_oshawa,2018-03-12T21:18:10.555Z,mmandel_oshawa,7503e3e5-fbfb-427f-81bd-ae3470e86a13
